{"type": "FeatureCollection", "features": [{"type": "Feature", "properties": {"osm_id": 5199997866, "osm_type": "node", "name": "SoBo Centre", "shop": "mall"}, "geometry": {"type": "Point", "coordinates": [72.4751813, 23.0174425]}}, {"type": "Feature", "properties": {"osm_id": 551588587, "osm_type": "way", "name": "APMC Market", "amenity": "marketplace"}, "geometry": {"type": "LineString", "coordinates": [[72.5352986, 22.9961411], [72.5349867, 22.9972549], [72.5350672, 22.9981314], [72.5366685, 22.9981437], [72.5372735, 22.9970759], [72.5369966, 22.9970141], [72.5369436, 22.9969221], [72.5368878, 22.9968086], [72.53682, 22.996715], [72.536879, 22.9963619], [72.5352986, 22.9961411]]}}, {"type": "Feature", "properties": {"osm_id": 972675007, "osm_type": "way", "name": "Brand Factory", "shop": "mall", "building": "yes"}, "geometry": {"type": "LineString", "coordinates": [[72.5297586, 23.0157202], [72.5298298, 23.015722], [72.5298179, 23.0157875], [72.5300987, 23.0158057], [72.5301857, 23.0152562], [72.5298555, 23.0152125], [72.5297586, 23.0157202]]}}, {"type": "Feature", "properties": {"osm_id": 1429922824, "osm_type": "node", "name": "Ahmedabad Historic Gujari Bazaar (Sunday Market)", "amenity": "marketplace"}, "geometry": {"type": "Point", "coordinates": [72.5768457, 23.0244067]}}, {"type": "Feature", "properties": {"osm_id": 3306683655, "osm_type": "node", "name": "fish market", "amenity": "marketplace"}, "geometry": {"type": "Point", "coordinates": [72.5841473, 23.0247302]}}, {"type": "Feature", "properties": {"osm_id": 3306683656, "osm_type": "node", "name": "meat market", "amenity": "marketplace"}, "geometry": {"type": "Point", "coordinates": [72.5834189, 23.0247665]}}, {"type": "Feature", "properties": {"osm_id": 8847670306, "osm_type": "node", "name": "Kabadi market", "amenity": "marketplace"}, "geometry": {"type": "Point", "coordinates": [72.5836927, 22.9830095]}}, {"type": "Feature", "properties": {"osm_id": 49736665, "osm_type": "way", "name": "fruit and vegetable market", "amenity": "marketplace", "building": "yes"}, "geometry": {"type": "LineString", "coordinates": [[72.5869184, 23.023288], [72.5872433, 23.0232455], [72.5872052, 23.0229991], [72.5868803, 23.0230416], [72.5869184, 23.023288]]}}, {"type": "Feature", "properties": {"osm_id": 326677145, "osm_type": "way", "name": "Jamalpur Market", "amenity": "marketplace", "landuse": "retail"}, "geometry": {"type": "LineString", "coordinates": [[72.5790465, 23.0106838], [72.57902, 23.0105923], [72.5803313, 23.0103241], [72.5808081, 23.010251], [72.5809141, 23.010315], [72.5810267, 23.0106838], [72.581275, 23.0119029], [72.5811923, 23.0119456], [72.5803446, 23.011589], [72.5790465, 23.0106838]]}}, {"type": "Feature", "properties": {"osm_id": 526128440, "osm_type": "way", "name": "Old Gujari Bazaar (Sunday Market)", "amenity": "marketplace"}, "geometry": {"type": "LineString", "coordinates": [[72.5773544, 23.0217709], [72.5772897, 23.0217545], [72.5772484, 23.0217192], [72.5772608, 23.021587], [72.5773009, 23.0213475], [72.5773347, 23.0211045], [72.5776359, 23.0212006], [72.5775677, 23.0213669], [72.5775419, 23.0214526], [72.5774605, 23.0217467], [72.5774459, 23.0217763], [72.5773544, 23.0217709]]}}, {"type": "Feature", "properties": {"osm_id": 3775187616, "osm_type": "node", "name": "CHANDLODIA MARKET", "amenity": "marketplace"}, "geometry": {"type": "Point", "coordinates": [72.5415308, 23.0891843]}}, {"type": "Feature", "properties": {"osm_id": 7418072411, "osm_type": "node", "name": "Iscon Emporio", "shop": "mall"}, "geometry": {"type": "Point", "coordinates": [72.5244892, 23.0265633]}}, {"type": "Feature", "properties": {"osm_id": 11300307469, "osm_type": "node", "name": "Palladium Mall", "shop": "mall"}, "geometry": {"type": "Point", "coordinates": [72.5208841, 23.0581218]}}, {"type": "Feature", "properties": {"osm_id": 172144073, "osm_type": "way", "name": "Akshar Arcade", "shop": "mall", "building": "retail"}, "geometry": {"type": "LineString", "coordinates": [[72.5524755, 23.0459415], [72.5514739, 23.0453051], [72.5516501, 23.0451293], [72.5526309, 23.0457307], [72.5524755, 23.0459415]]}}, {"type": "Feature", "properties": {"osm_id": 257623633, "osm_type": "way", "name": "Nexus Ahmedabad One", "shop": "mall", "building": "mall"}, "geometry": {"type": "LineString", "coordinates": [[72.5322265, 23.0396594], [72.5322297, 23.0396594], [72.5322312, 23.0395759], [72.532232, 23.0395326], [72.5322373, 23.0392329], [72.5317307, 23.0392251], [72.5317236, 23.0396191], [72.531716, 23.0398463], [72.5316788, 23.0398452], [72.531587, 23.0398425], [72.5314968, 23.0398398], [72.5314101, 23.0398381], [72.5313169, 23.0398382], [72.5312227, 23.0398362], [72.5310428, 23.0398343], [72.5309224, 23.0398331], [72.5308628, 23.0398315], [72.5307791, 23.0398292], [72.5306823, 23.0398265], [72.530686, 23.0398253], [72.5302268, 23.0398159], [72.53022, 23.0398676], [72.530136, 23.0402349], [72.5306851, 23.0402734], [72.5308734, 23.0402787], [72.5309623, 23.0402783], [72.5310493, 23.0402834], [72.5311478, 23.0402846], [72.531463, 23.0402962], [72.5315031, 23.0402964], [72.5315888, 23.0402967], [72.531688, 23.0403031], [72.5317795, 23.040302], [72.5318632, 23.0403106], [72.5319534, 23.0403092], [72.532222, 23.0403165], [72.5322235, 23.0400904], [72.5322241, 23.0400077], [72.5322265, 23.0396594]]}}, {"type": "Feature", "properties": {"osm_id": 317894475, "osm_type": "way", "name": "Thakorbaug Market", "amenity": "marketplace"}, "geometry": {"type": "LineString", "coordinates": [[72.56148, 23.032723], [72.5619117, 23.0326886], [72.561894, 23.0325011], [72.5614623, 23.0325356], [72.56148, 23.032723]]}}, {"type": "Feature", "properties": {"osm_id": 334470476, "osm_type": "way", "name": "Himalaya Mall", "shop": "mall", "building": "retail"}, "geometry": {"type": "LineString", "coordinates": [[72.5306842, 23.0463161], [72.5310174, 23.0463385], [72.5310879, 23.046343], [72.5312803, 23.0463248], [72.5312355, 23.0473106], [72.5306282, 23.0472808], [72.5306842, 23.0463161]]}}, {"type": "Feature", "properties": {"osm_id": 334471857, "osm_type": "way", "name": "R3 Mall", "shop": "mall", "building": "retail"}, "geometry": {"type": "LineString", "coordinates": [[72.5398889, 23.0466758], [72.5406863, 23.0467257], [72.5407741, 23.0460227], [72.5405754, 23.0460488], [72.5403792, 23.0461153], [72.5402399, 23.0461913], [72.5401263, 23.0462721], [72.5400231, 23.0463884], [72.5399482, 23.0465167], [72.5398889, 23.0466758]]}}, {"type": "Feature", "properties": {"osm_id": 366616742, "osm_type": "way", "name": "Iscon Mega Mall", "shop": "mall", "building": "yes"}, "geometry": {"type": "LineString", "coordinates": [[72.5071376, 23.0310283], [72.5072331, 23.0310034], [72.5072727, 23.0311324], [72.5072953, 23.0311266], [72.5073088, 23.0311705], [72.5073761, 23.0311529], [72.5073881, 23.0311921], [72.5074921, 23.031165], [72.5075053, 23.0312078], [72.5077156, 23.031153], [72.5077437, 23.0312445], [72.5080125, 23.0311745], [72.5076383, 23.0300069], [72.5072754, 23.0301054], [72.507194, 23.0298039], [72.5064716, 23.0298872], [72.5064835, 23.0299543], [72.5063201, 23.029979], [72.5063503, 23.0301486], [72.5062066, 23.0301617], [72.5062189, 23.0302697], [72.5063692, 23.0302547], [72.5063733, 23.0302796], [72.5065382, 23.0302609], [72.506545, 23.0302995], [72.5065702, 23.0302968], [72.5065724, 23.0303196], [72.5067137, 23.0303075], [72.5067203, 23.0303068], [72.5067213, 23.0303151], [72.5067722, 23.0303098], [72.5067753, 23.0303267], [72.5068336, 23.0303206], [72.5068367, 23.0303377], [72.5070542, 23.030315], [72.5071225, 23.0303463], [72.5072145, 23.0306229], [72.5071532, 23.0306388], [72.5071741, 23.0307071], [72.5071047, 23.0307252], [72.5071205, 23.0307764], [72.5070973, 23.0307825], [72.5071167, 23.0308457], [72.507092, 23.0308522], [72.5071051, 23.030895], [72.5070973, 23.030897], [72.5071376, 23.0310283]]}}, {"type": "Feature", "properties": {"osm_id": 674050540, "osm_type": "way", "name": "Advait Mall", "shop": "mall", "building": "retail"}, "geometry": {"type": "LineString", "coordinates": [[72.5251219, 23.0406724], [72.525227, 23.0408185], [72.5252713, 23.0408937], [72.5251966, 23.0409345], [72.5252947, 23.0410656], [72.5253367, 23.0411343], [72.5254044, 23.0411451], [72.5255772, 23.0413793], [72.5262007, 23.0410205], [72.5260115, 23.0407841], [72.5260839, 23.0407325], [72.5261236, 23.0406874], [72.5258283, 23.0402353], [72.5251219, 23.0406724]]}}, {"type": "Feature", "properties": {"osm_id": 793320578, "osm_type": "way", "name": "Iscon Emporio", "shop": "mall", "building": "yes"}, "geometry": {"type": "LineString", "coordinates": [[72.5249762, 23.0275042], [72.5242777, 23.0278007], [72.5242299, 23.0277054], [72.5243145, 23.0276695], [72.524233, 23.0275068], [72.5247024, 23.0273077], [72.5242873, 23.0264787], [72.5245874, 23.0263514], [72.5248311, 23.0268381], [72.5249762, 23.0275042]]}}, {"type": "Feature", "properties": {"osm_id": 8138856440, "osm_type": "node", "name": "4D Square mall.", "shop": "mall"}, "geometry": {"type": "Point", "coordinates": [72.5957915, 23.1029944]}}, {"type": "Feature", "properties": {"osm_id": 10591957830, "osm_type": "node", "name": "Reliance mart", "shop": "mall"}, "geometry": {"type": "Point", "coordinates": [72.5880349, 23.0446678]}}, {"type": "Feature", "properties": {"osm_id": 322228066, "osm_type": "way", "name": "Reliance Market", "amenity": "marketplace", "shop": "supermarket", "building": "yes"}, "geometry": {"type": "LineString", "coordinates": [[72.5875675, 23.0440808], [72.5876379, 23.0452978], [72.5885064, 23.0452552], [72.5884359, 23.0440382], [72.5875675, 23.0440808]]}}, {"type": "Feature", "properties": {"osm_id": 322229927, "osm_type": "way", "name": "Madhupura Market", "amenity": "marketplace"}, "geometry": {"type": "LineString", "coordinates": [[72.587996, 23.0488024], [72.5895451, 23.0487642], [72.5894567, 23.0464156], [72.5878842, 23.0464811], [72.587996, 23.0488024]]}}, {"type": "Feature", "properties": {"osm_id": 369657149, "osm_type": "way", "name": "Agora Mall", "shop": "mall", "building": "retail"}, "geometry": {"type": "LineString", "coordinates": [[72.6242263, 23.1190395], [72.6249665, 23.1189544], [72.624958, 23.1188913], [72.6250998, 23.118875], [72.6249832, 23.1180175], [72.6242899, 23.1180867], [72.6242955, 23.1181798], [72.6242042, 23.1182894], [72.6241255, 23.1182985], [72.6242263, 23.1190395]]}}, {"type": "Feature", "properties": {"osm_id": 1180003746, "osm_type": "way", "name": "Aradhna Clothing", "shop": "mall", "building": "yes"}, "geometry": {"type": "LineString", "coordinates": [[72.5814402, 23.1085926], [72.5814165, 23.1084975], [72.5815204, 23.1084673], [72.5815521, 23.1086055], [72.5814402, 23.1085926]]}}, {"type": "Feature", "properties": {"osm_id": 1180014250, "osm_type": "way", "name": "", "shop": "mall", "building": "retail"}, "geometry": {"type": "LineString", "coordinates": [[72.5950767, 23.1026354], [72.5955848, 23.1023672], [72.5964356, 23.1035571], [72.5961466, 23.10369], [72.5955794, 23.1032549], [72.5954591, 23.1030504], [72.5952526, 23.1029823], [72.5950892, 23.1027518], [72.5950767, 23.1026354]]}}]}