{"type": "FeatureCollection", "features": [{"type": "Feature", "geometry": {"type": "Point", "coordinates": [72.56947869920671, 23.01313242922997]}, "properties": {"objectid": 1, "name": "Sanskar Kendra", "ward": "30_PALDI", "zone": "WEST ZONE", "ward_id": 30, "zone_id": 5}}, {"type": "Feature", "geometry": {"type": "Point", "coordinates": [72.54956637941157, 23.03669166574078]}, "properties": {"objectid": 2, "name": "Hutheesing Visual Arts Centre", "ward": "18_NAVRANGPURA", "zone": "WEST ZONE", "ward_id": 18, "zone_id": 5}}, {"type": "Feature", "geometry": {"type": "Point", "coordinates": [72.56582846069641, 23.039613370259612]}, "properties": {"objectid": 3, "name": "Shreyas Folk Museum", "ward": "18_NAVRANGPURA", "zone": "WEST ZONE", "ward_id": 18, "zone_id": 5}}, {"type": "Feature", "geometry": {"type": "Point", "coordinates": [72.54972282756754, 23.036372804060356]}, "properties": {"objectid": 4, "name": "Community Science Centre", "ward": "18_NAVRANGPURA", "zone": "WEST ZONE", "ward_id": 18, "zone_id": 5}}]}