{"type": "FeatureCollection", "features": [{"type": "Feature", "properties": {"osm_id": 5199997866, "osm_type": "node", "name": "SoBo Centre", "shop": "mall"}, "geometry": {"type": "Point", "coordinates": [72.4751813, 23.0174425]}}, {"type": "Feature", "properties": {"osm_id": 551588587, "osm_type": "way", "name": "APMC Market", "amenity": "marketplace"}, "geometry": {"type": "LineString", "coordinates": [[72.5352986, 22.9961411], [72.5349867, 22.9972549], [72.5350672, 22.9981314], [72.5366685, 22.9981437], [72.5372735, 22.9970759], [72.5369966, 22.9970141], [72.5369436, 22.9969221], [72.5368878, 22.9968086], [72.53682, 22.996715], [72.536879, 22.9963619], [72.5352986, 22.9961411]]}}, {"type": "Feature", "properties": {"osm_id": 972675007, "osm_type": "way", "name": "Brand Factory", "shop": "mall", "building": "yes"}, "geometry": {"type": "LineString", "coordinates": [[72.5297586, 23.0157202], [72.5298298, 23.015722], [72.5298179, 23.0157875], [72.5300987, 23.0158057], [72.5301857, 23.0152562], [72.5298555, 23.0152125], [72.5297586, 23.0157202]]}}, {"type": "Feature", "properties": {"osm_id": 1429922824, "osm_type": "node", "name": "Ahmedabad Historic Gujari Bazaar (Sunday Market)", "amenity": "marketplace"}, "geometry": {"type": "Point", "coordinates": [72.5768457, 23.0244067]}}, {"type": "Feature", "properties": {"osm_id": 3306683655, "osm_type": "node", "name": "fish market", "amenity": "marketplace"}, "geometry": {"type": "Point", "coordinates": [72.5841473, 23.0247302]}}, {"type": "Feature", "properties": {"osm_id": 3306683656, "osm_type": "node", "name": "meat market", "amenity": "marketplace"}, "geometry": {"type": "Point", "coordinates": [72.5834189, 23.0247665]}}, {"type": "Feature", "properties": {"osm_id": 8847670306, "osm_type": "node", "name": "Kabadi market", "amenity": "marketplace"}, "geometry": {"type": "Point", "coordinates": [72.5836927, 22.9830095]}}, {"type": "Feature", "properties": {"osm_id": 49736665, "osm_type": "way", "name": "fruit and vegetable market", "amenity": "marketplace", "building": "yes"}, "geometry": {"type": "LineString", "coordinates": [[72.5869184, 23.023288], [72.5872433, 23.0232455], [72.5872052, 23.0229991], [72.5868803, 23.0230416], [72.5869184, 23.023288]]}}, {"type": "Feature", "properties": {"osm_id": 326677145, "osm_type": "way", "name": "Jamalpur Market", "amenity": "marketplace", "landuse": "retail"}, "geometry": {"type": "LineString", "coordinates": [[72.5790465, 23.0106838], [72.57902, 23.0105923], [72.5803313, 23.0103241], [72.5808081, 23.010251], [72.5809141, 23.010315], [72.5810267, 23.0106838], [72.581275, 23.0119029], [72.5811923, 23.0119456], [72.5803446, 23.011589], [72.5790465, 23.0106838]]}}, {"type": "Feature", "properties": {"osm_id": 526128440, "osm_type": "way", "name": "Old Gujari Bazaar (Sunday Market)", "amenity": "marketplace"}, "geometry": {"type": "LineString", "coordinates": [[72.5773544, 23.0217709], [72.5772897, 23.0217545], [72.5772484, 23.0217192], [72.5772608, 23.021587], [72.5773009, 23.0213475], [72.5773347, 23.0211045], [72.5776359, 23.0212006], [72.5775677, 23.0213669], [72.5775419, 23.0214526], [72.5774605, 23.0217467], [72.5774459, 23.0217763], [72.5773544, 23.0217709]]}}, {"type": "Feature", "properties": {"osm_id": 3775187616, "osm_type": "node", "name": "CHANDLODIA MARKET", "amenity": "marketplace"}, "geometry": {"type": "Point", "coordinates": [72.5415308, 23.0891843]}}, {"type": "Feature", "properties": {"osm_id": 7418072411, "osm_type": "node", "name": "Iscon Emporio", "shop": "mall"}, "geometry": {"type": "Point", "coordinates": [72.5244892, 23.0265633]}}, {"type": "Feature", "properties": {"osm_id": 11300307469, "osm_type": "node", "name": "Palladium Mall", "shop": "mall"}, "geometry": {"type": "Point", "coordinates": [72.5208841, 23.0581218]}}, {"type": "Feature", "properties": {"osm_id": 172144073, "osm_type": "way", "name": "Akshar Arcade", "shop": "mall", "building": "retail"}, "geometry": {"type": "LineString", "coordinates": [[72.5524755, 23.0459415], [72.5514739, 23.0453051], [72.5516501, 23.0451293], [72.5526309, 23.0457307], [72.5524755, 23.0459415]]}}, {"type": "Feature", "properties": {"osm_id": 257623633, "osm_type": "way", "name": "Nexus Ahmedabad One", "shop": "mall", "building": "mall"}, "geometry": {"type": "LineString", "coordinates": [[72.5322265, 23.0396594], [72.5322297, 23.0396594], [72.5322312, 23.0395759], [72.532232, 23.0395326], [72.5322373, 23.0392329], [72.5317307, 23.0392251], [72.5317236, 23.0396191], [72.531716, 23.0398463], [72.5316788, 23.0398452], [72.531587, 23.0398425], [72.5314968, 23.0398398], [72.5314101, 23.0398381], [72.5313169, 23.0398382], [72.5312227, 23.0398362], [72.5310428, 23.0398343], [72.5309224, 23.0398331], [72.5308628, 23.0398315], [72.5307791, 23.0398292], [72.5306823, 23.0398265], [72.530686, 23.0398253], [72.5302268, 23.0398159], [72.53022, 23.0398676], [72.530136, 23.0402349], [72.5306851, 23.0402734], [72.5308734, 23.0402787], [72.5309623, 23.0402783], [72.5310493, 23.0402834], [72.5311478, 23.0402846], [72.531463, 23.0402962], [72.5315031, 23.0402964], [72.5315888, 23.0402967], [72.531688, 23.0403031], [72.5317795, 23.040302], [72.5318632, 23.0403106], [72.5319534, 23.0403092], [72.532222, 23.0403165], [72.5322235, 23.0400904], [72.5322241, 23.0400077], [72.5322265, 23.0396594]]}}, {"type": "Feature", "properties": {"osm_id": 317894475, "osm_type": "way", "name": "Thakorbaug Market", "amenity": "marketplace"}, "geometry": {"type": "LineString", "coordinates": [[72.56148, 23.032723], [72.5619117, 23.0326886], [72.561894, 23.0325011], [72.5614623, 23.0325356], [72.56148, 23.032723]]}}, {"type": "Feature", "properties": {"osm_id": 334470476, "osm_type": "way", "name": "Himalaya Mall", "shop": "mall", "building": "retail"}, "geometry": {"type": "LineString", "coordinates": [[72.5306842, 23.0463161], [72.5310174, 23.0463385], [72.5310879, 23.046343], [72.5312803, 23.0463248], [72.5312355, 23.0473106], [72.5306282, 23.0472808], [72.5306842, 23.0463161]]}}, {"type": "Feature", "properties": {"osm_id": 334471857, "osm_type": "way", "name": "R3 Mall", "shop": "mall", "building": "retail"}, "geometry": {"type": "LineString", "coordinates": [[72.5398889, 23.0466758], [72.5406863, 23.0467257], [72.5407741, 23.0460227], [72.5405754, 23.0460488], [72.5403792, 23.0461153], [72.5402399, 23.0461913], [72.5401263, 23.0462721], [72.5400231, 23.0463884], [72.5399482, 23.0465167], [72.5398889, 23.0466758]]}}, {"type": "Feature", "properties": {"osm_id": 366616742, "osm_type": "way", "name": "Iscon Mega Mall", "shop": "mall", "building": "yes"}, "geometry": {"type": "LineString", "coordinates": [[72.5071376, 23.0310283], [72.5072331, 23.0310034], [72.5072727, 23.0311324], [72.5072953, 23.0311266], [72.5073088, 23.0311705], [72.5073761, 23.0311529], [72.5073881, 23.0311921], [72.5074921, 23.031165], [72.5075053, 23.0312078], [72.5077156, 23.031153], [72.5077437, 23.0312445], [72.5080125, 23.0311745], [72.5076383, 23.0300069], [72.5072754, 23.0301054], [72.507194, 23.0298039], [72.5064716, 23.0298872], [72.5064835, 23.0299543], [72.5063201, 23.029979], [72.5063503, 23.0301486], [72.5062066, 23.0301617], [72.5062189, 23.0302697], [72.5063692, 23.0302547], [72.5063733, 23.0302796], [72.5065382, 23.0302609], [72.506545, 23.0302995], [72.5065702, 23.0302968], [72.5065724, 23.0303196], [72.5067137, 23.0303075], [72.5067203, 23.0303068], [72.5067213, 23.0303151], [72.5067722, 23.0303098], [72.5067753, 23.0303267], [72.5068336, 23.0303206], [72.5068367, 23.0303377], [72.5070542, 23.030315], [72.5071225, 23.0303463], [72.5072145, 23.0306229], [72.5071532, 23.0306388], [72.5071741, 23.0307071], [72.5071047, 23.0307252], [72.5071205, 23.0307764], [72.5070973, 23.0307825], [72.5071167, 23.0308457], [72.507092, 23.0308522], [72.5071051, 23.030895], [72.5070973, 23.030897], [72.5071376, 23.0310283]]}}, {"type": "Feature", "properties": {"osm_id": 674050540, "osm_type": "way", "name": "Advait Mall", "shop": "mall", "building": "retail"}, "geometry": {"type": "LineString", "coordinates": [[72.5251219, 23.0406724], [72.525227, 23.0408185], [72.5252713, 23.0408937], [72.5251966, 23.0409345], [72.5252947, 23.0410656], [72.5253367, 23.0411343], [72.5254044, 23.0411451], [72.5255772, 23.0413793], [72.5262007, 23.0410205], [72.5260115, 23.0407841], [72.5260839, 23.0407325], [72.5261236, 23.0406874], [72.5258283, 23.0402353], [72.5251219, 23.0406724]]}}, {"type": "Feature", "properties": {"osm_id": 793320578, "osm_type": "way", "name": "Iscon Emporio", "shop": "mall", "building": "yes"}, "geometry": {"type": "LineString", "coordinates": [[72.5249762, 23.0275042], [72.5242777, 23.0278007], [72.5242299, 23.0277054], [72.5243145, 23.0276695], [72.524233, 23.0275068], [72.5247024, 23.0273077], [72.5242873, 23.0264787], [72.5245874, 23.0263514], [72.5248311, 23.0268381], [72.5249762, 23.0275042]]}}, {"type": "Feature", "properties": {"osm_id": 8138856440, "osm_type": "node", "name": "4D Square mall.", "shop": "mall"}, "geometry": {"type": "Point", "coordinates": [72.5957915, 23.1029944]}}, {"type": "Feature", "properties": {"osm_id": 10591957830, "osm_type": "node", "name": "Reliance mart", "shop": "mall"}, "geometry": {"type": "Point", "coordinates": [72.5880349, 23.0446678]}}, {"type": "Feature", "properties": {"osm_id": 322228066, "osm_type": "way", "name": "Reliance Market", "amenity": "marketplace", "shop": "supermarket", "building": "yes"}, "geometry": {"type": "LineString", "coordinates": [[72.5875675, 23.0440808], [72.5876379, 23.0452978], [72.5885064, 23.0452552], [72.5884359, 23.0440382], [72.5875675, 23.0440808]]}}, {"type": "Feature", "properties": {"osm_id": 322229927, "osm_type": "way", "name": "Madhupura Market", "amenity": "marketplace"}, "geometry": {"type": "LineString", "coordinates": [[72.587996, 23.0488024], [72.5895451, 23.0487642], [72.5894567, 23.0464156], [72.5878842, 23.0464811], [72.587996, 23.0488024]]}}, {"type": "Feature", "properties": {"osm_id": 369657149, "osm_type": "way", "name": "Agora Mall", "shop": "mall", "building": "retail"}, "geometry": {"type": "LineString", "coordinates": [[72.6242263, 23.1190395], [72.6249665, 23.1189544], [72.624958, 23.1188913], [72.6250998, 23.118875], [72.6249832, 23.1180175], [72.6242899, 23.1180867], [72.6242955, 23.1181798], [72.6242042, 23.1182894], [72.6241255, 23.1182985], [72.6242263, 23.1190395]]}}, {"type": "Feature", "properties": {"osm_id": 1180003746, "osm_type": "way", "name": "Aradhna Clothing", "shop": "mall", "building": "yes"}, "geometry": {"type": "LineString", "coordinates": [[72.5814402, 23.1085926], [72.5814165, 23.1084975], [72.5815204, 23.1084673], [72.5815521, 23.1086055], [72.5814402, 23.1085926]]}}, {"type": "Feature", "properties": {"osm_id": 1180014250, "osm_type": "way", "name": "", "shop": "mall", "building": "retail"}, "geometry": {"type": "LineString", "coordinates": [[72.5950767, 23.1026354], [72.5955848, 23.1023672], [72.5964356, 23.1035571], [72.5961466, 23.10369], [72.5955794, 23.1032549], [72.5954591, 23.1030504], [72.5952526, 23.1029823], [72.5950892, 23.1027518], [72.5950767, 23.1026354]]}}, {"type": "Feature", "properties": {"osm_id": 440296289, "osm_type": "node", "name": "Suvidha Shopping Centre", "shop": "convenience"}, "geometry": {"type": "Point", "coordinates": [72.5591462, 23.0144556]}}, {"type": "Feature", "properties": {"osm_id": 1561520728, "osm_type": "node", "name": "Design Gallery", "amenity": "arts_centre", "shop": "lifestyle"}, "geometry": {"type": "Point", "coordinates": [72.5690409, 23.011756]}}, {"type": "Feature", "properties": {"osm_id": 3292224461, "osm_type": "node", "name": "sureshbhai prajapati", "shop": "kiosk-indorni sabu dana khichdi"}, "geometry": {"type": "Point", "coordinates": [72.5431753, 23.0230239]}}, {"type": "Feature", "properties": {"osm_id": 3774861429, "osm_type": "node", "name": "Adidas", "shop": "shoes"}, "geometry": {"type": "Point", "coordinates": [72.5291592, 23.0141932]}}, {"type": "Feature", "properties": {"osm_id": 3774861430, "osm_type": "node", "name": "sakuntal hat", "shop": "fashion"}, "geometry": {"type": "Point", "coordinates": [72.5283921, 23.0140155]}}, {"type": "Feature", "properties": {"osm_id": 4485352190, "osm_type": "node", "name": "Maruti Suzuki NEXA", "shop": "car"}, "geometry": {"type": "Point", "coordinates": [72.503458, 23.0122697]}}, {"type": "Feature", "properties": {"osm_id": 4488578189, "osm_type": "node", "name": "Tata Mootrs", "shop": "car"}, "geometry": {"type": "Point", "coordinates": [72.5366121, 22.9923265]}}, {"type": "Feature", "properties": {"osm_id": 4593849590, "osm_type": "node", "name": "HARSHAL PUBLICATION", "shop": "books"}, "geometry": {"type": "Point", "coordinates": [72.5718995, 23.0228851]}}, {"type": "Feature", "properties": {"osm_id": 4692191289, "osm_type": "node", "name": "Art book center specialist in books on indian culture", "shop": "books"}, "geometry": {"type": "Point", "coordinates": [72.5686718, 23.0216194]}}, {"type": "Feature", "properties": {"osm_id": 4703607889, "osm_type": "node", "name": "", "shop": "mobile_phone"}, "geometry": {"type": "Point", "coordinates": [72.5710114, 23.0216703]}}, {"type": "Feature", "properties": {"osm_id": 4718596493, "osm_type": "node", "name": "Bata", "shop": "shoes"}, "geometry": {"type": "Point", "coordinates": [72.4755677, 23.0174711]}}, {"type": "Feature", "properties": {"osm_id": 5611952675, "osm_type": "node", "name": "The Haqq Factory Store", "shop": "supermarket"}, "geometry": {"type": "Point", "coordinates": [72.4820619, 22.9868059]}}, {"type": "Feature", "properties": {"osm_id": 6782650185, "osm_type": "node", "name": "Murlidhar", "shop": "beverages"}, "geometry": {"type": "Point", "coordinates": [72.5296525, 23.013976]}}, {"type": "Feature", "properties": {"osm_id": 6782988986, "osm_type": "node", "name": "cafe13", "shop": "beverages"}, "geometry": {"type": "Point", "coordinates": [72.529945, 23.0133426]}}, {"type": "Feature", "properties": {"osm_id": 6831010188, "osm_type": "node", "name": "Noor Mobile Shop", "shop": "yes"}, "geometry": {"type": "Point", "coordinates": [72.5719973, 22.9789749]}}, {"type": "Feature", "properties": {"osm_id": 6831028404, "osm_type": "node", "name": "Ahad mobile repair", "shop": "yes"}, "geometry": {"type": "Point", "coordinates": [72.5716124, 22.9787675]}}, {"type": "Feature", "properties": {"osm_id": 6831028405, "osm_type": "node", "name": "Pakiza Pan Parlour", "shop": "yes"}, "geometry": {"type": "Point", "coordinates": [72.570559, 22.9785959]}}, {"type": "Feature", "properties": {"osm_id": 6836855354, "osm_type": "node", "name": "Chand bakery", "shop": "bakery"}, "geometry": {"type": "Point", "coordinates": [72.5734667, 22.9795173]}}, {"type": "Feature", "properties": {"osm_id": 6989202576, "osm_type": "node", "name": "Apple Tree", "shop": "department_store"}, "geometry": {"type": "Point", "coordinates": [72.4705235, 23.0168879]}}, {"type": "Feature", "properties": {"osm_id": 6989202577, "osm_type": "node", "name": "Brillar", "shop": "beauty"}, "geometry": {"type": "Point", "coordinates": [72.4705691, 23.0168978]}}, {"type": "Feature", "properties": {"osm_id": 6989222410, "osm_type": "node", "name": "Avon Thai Spa", "shop": "massage"}, "geometry": {"type": "Point", "coordinates": [72.4753327, 23.0176285]}}, {"type": "Feature", "properties": {"osm_id": 7633141323, "osm_type": "node", "name": "Mahakali", "shop": "supermarket"}, "geometry": {"type": "Point", "coordinates": [72.4699729, 23.0167363]}}, {"type": "Feature", "properties": {"osm_id": 7633141324, "osm_type": "node", "name": "Skyblue", "shop": "stationery"}, "geometry": {"type": "Point", "coordinates": [72.4690582, 23.0164623]}}, {"type": "Feature", "properties": {"osm_id": 8138732693, "osm_type": "node", "name": "Monte Carlo Exclusive Showroom", "shop": "clothes"}, "geometry": {"type": "Point", "coordinates": [72.5578748, 23.0200403]}}, {"type": "Feature", "properties": {"osm_id": 8138781699, "osm_type": "node", "name": "Monte Carlo Showroom", "shop": "clothes"}, "geometry": {"type": "Point", "coordinates": [72.5084185, 23.0117186]}}, {"type": "Feature", "properties": {"osm_id": 8143691114, "osm_type": "node", "name": "SkinYoga", "shop": "supermarket"}, "geometry": {"type": "Point", "coordinates": [72.5546839, 23.0210027]}}, {"type": "Feature", "properties": {"osm_id": 8244919122, "osm_type": "node", "name": "Max Fashion", "shop": "clothes"}, "geometry": {"type": "Point", "coordinates": [72.5599716, 23.0139658]}}, {"type": "Feature", "properties": {"osm_id": 9009705195, "osm_type": "node", "name": "Decathlon", "shop": "sports"}, "geometry": {"type": "Point", "coordinates": [72.5563764, 23.0247142]}}, {"type": "Feature", "properties": {"osm_id": 9123973124, "osm_type": "node", "name": "MIthai & More", "shop": "confectionery"}, "geometry": {"type": "Point", "coordinates": [72.4684515, 23.0158605]}}, {"type": "Feature", "properties": {"osm_id": 9296323022, "osm_type": "node", "name": "Varsha Fashion Private Limited", "shop": "clothes"}, "geometry": {"type": "Point", "coordinates": [72.5289085, 22.9175047]}}, {"type": "Feature", "properties": {"osm_id": 9582294802, "osm_type": "node", "name": "Shree Bahuchar Studio", "shop": "photo_studio"}, "geometry": {"type": "Point", "coordinates": [72.475034, 23.0175068]}}, {"type": "Feature", "properties": {"osm_id": 10025847568, "osm_type": "node", "name": "Leo Packers and Movers Ahmedabad", "shop": "yes"}, "geometry": {"type": "Point", "coordinates": [72.5338759, 23.0042556]}}, {"type": "Feature", "properties": {"osm_id": 10177928917, "osm_type": "node", "name": "Maruti Hardware & Plywood", "shop": "hardware"}, "geometry": {"type": "Point", "coordinates": [72.4563448, 23.0069095]}}, {"type": "Feature", "properties": {"osm_id": 11277592072, "osm_type": "node", "name": "Permit Shop", "shop": "alcohol"}, "geometry": {"type": "Point", "coordinates": [72.5675542, 23.0221573]}}, {"type": "Feature", "properties": {"osm_id": 11277641604, "osm_type": "node", "name": "Permit Shop", "shop": "alcohol"}, "geometry": {"type": "Point", "coordinates": [72.5048678, 23.0106832]}}, {"type": "Feature", "properties": {"osm_id": 11278801921, "osm_type": "node", "name": "Permit Shop", "shop": "alcohol"}, "geometry": {"type": "Point", "coordinates": [72.5043286, 23.01499]}}, {"type": "Feature", "properties": {"osm_id": 11278823372, "osm_type": "node", "name": "Permit Shop", "shop": "alcohol"}, "geometry": {"type": "Point", "coordinates": [72.5073271, 23.0240019]}}, {"type": "Feature", "properties": {"osm_id": 11779942427, "osm_type": "node", "name": "Ishwarkrupa Emporium", "shop": "yes"}, "geometry": {"type": "Point", "coordinates": [72.5156419, 23.0095524]}}, {"type": "Feature", "properties": {"osm_id": 11787243176, "osm_type": "node", "name": "Ahmedabad Power Tools", "shop": "electrical"}, "geometry": {"type": "Point", "coordinates": [72.51399, 22.9917085]}}, {"type": "Feature", "properties": {"osm_id": 12612477938, "osm_type": "node", "name": "Shree Satyanarayan Nursery And Farm", "shop": "garden_centre"}, "geometry": {"type": "Point", "coordinates": [72.4749353, 23.0100393]}}, {"type": "Feature", "properties": {"osm_id": 13039212537, "osm_type": "node", "name": "Siddhi Computer and Mobile", "shop": "electronics"}, "geometry": {"type": "Point", "coordinates": [72.5188982, 23.0131511]}}, {"type": "Feature", "properties": {"osm_id": 13059243501, "osm_type": "node", "name": "MAHAVIR KIRANA STORE", "shop": "grocery"}, "geometry": {"type": "Point", "coordinates": [72.5673346, 23.0150729]}}, {"type": "Feature", "properties": {"osm_id": 14065980182, "osm_type": "node", "name": "Morden Dry Cleaners", "shop": "dry_cleaning"}, "geometry": {"type": "Point", "coordinates": [72.5545048, 23.0188376]}}, {"type": "Feature", "properties": {"osm_id": 14067660513, "osm_type": "node", "name": "Mercedes-Benz", "shop": "car"}, "geometry": {"type": "Point", "coordinates": [72.5581558, 23.0195303]}}, {"type": "Feature", "properties": {"osm_id": 14067660541, "osm_type": "node", "name": "Tata", "shop": "car"}, "geometry": {"type": "Point", "coordinates": [72.5556755, 23.0190872]}}, {"type": "Feature", "properties": {"osm_id": 367941381, "osm_type": "way", "name": "DMart", "shop": "supermarket", "building": "yes"}, "geometry": {"type": "LineString", "coordinates": [[72.5281693, 23.0193751], [72.5281614, 23.0195414], [72.5281854, 23.0195424], [72.5281819, 23.0196163], [72.5282438, 23.0196188], [72.5282466, 23.0195608], [72.5282916, 23.0195626], [72.5282927, 23.0195405], [72.5283927, 23.0195445], [72.5283916, 23.0195666], [72.5284117, 23.0195674], [72.5284086, 23.0196335], [72.5284701, 23.019636], [72.5284732, 23.0195698], [72.5284901, 23.0195705], [72.528491, 23.0195501], [72.5285763, 23.0195536], [72.5285753, 23.0195739], [72.5285977, 23.0195748], [72.5285946, 23.019641], [72.5286482, 23.0196432], [72.5286515, 23.0195742], [72.5286702, 23.019575], [72.5286713, 23.0195519], [72.5287589, 23.0195554], [72.5287578, 23.0195785], [72.5287771, 23.0195793], [72.5287739, 23.0196459], [72.5288283, 23.019648], [72.5288317, 23.0195757], [72.5288526, 23.0195765], [72.5288535, 23.019556], [72.5289426, 23.0195596], [72.5289416, 23.0195801], [72.5289549, 23.0195807], [72.5289481, 23.0197221], [72.5292518, 23.0197344], [72.5292669, 23.0194194], [72.5281693, 23.0193751]]}}, {"type": "Feature", "properties": {"osm_id": 1001259956, "osm_type": "way", "name": "MYBYK NID sardar bridge", "amenity": "bicycle_rental", "shop": "rental"}, "geometry": {"type": "LineString", "coordinates": [[72.5732384, 23.0114602], [72.5732108, 23.0113582], [72.5733654, 23.0113447], [72.5734371, 23.0115756], [72.573271, 23.011607], [72.5732384, 23.0114602]]}}, {"type": "Feature", "properties": {"osm_id": 1005772527, "osm_type": "way", "name": "Star Bazaar", "shop": "supermarket", "building": "yes"}, "geometry": {"type": "LineString", "coordinates": [[72.515253, 23.0169435], [72.5152906, 23.0166669], [72.5157555, 23.0167534], [72.5157179, 23.0170256], [72.515253, 23.0169435]]}}, {"type": "Feature", "properties": {"osm_id": 1009064803, "osm_type": "way", "name": "", "shop": "water"}, "geometry": {"type": "LineString", "coordinates": [[72.5510103, 23.018778], [72.5510208, 23.0187321], [72.5510855, 23.0187446], [72.5510751, 23.0187905], [72.5510103, 23.018778]]}}, {"type": "Feature", "properties": {"osm_id": 1307897104, "osm_type": "way", "name": "", "shop": "yes", "building": "yes"}, "geometry": {"type": "LineString", "coordinates": [[72.56687, 23.0162563], [72.5669104, 23.0162946], [72.5669444, 23.0163171], [72.5669994, 23.0163052], [72.5670502, 23.0162778], [72.5669794, 23.0162574], [72.56687, 23.0162563]]}}, {"type": "Feature", "properties": {"osm_id": 440360562, "osm_type": "node", "name": "10 (Ten) Acres Mall", "shop": "supermarket"}, "geometry": {"type": "Point", "coordinates": [72.5965751, 23.01524]}}, {"type": "Feature", "properties": {"osm_id": 440367264, "osm_type": "node", "name": "", "shop": "clothes"}, "geometry": {"type": "Point", "coordinates": [72.60021, 23.0182439]}}, {"type": "Feature", "properties": {"osm_id": 631823296, "osm_type": "node", "name": "Arihant Agency", "shop": "convenience"}, "geometry": {"type": "Point", "coordinates": [72.5912229, 23.0235904]}}, {"type": "Feature", "properties": {"osm_id": 631823300, "osm_type": "node", "name": "Vidyarthi", "shop": "books"}, "geometry": {"type": "Point", "coordinates": [72.5902915, 23.0248237]}}, {"type": "Feature", "properties": {"osm_id": 2377178367, "osm_type": "node", "name": "", "shop": "hairdresser"}, "geometry": {"type": "Point", "coordinates": [72.5783185, 23.0229763]}}, {"type": "Feature", "properties": {"osm_id": 2529047713, "osm_type": "node", "name": "Govind Cycles", "shop": "bicycle"}, "geometry": {"type": "Point", "coordinates": [72.6016251, 22.9990897]}}, {"type": "Feature", "properties": {"osm_id": 3291896461, "osm_type": "node", "name": "Sheikh Mohimmad atik", "shop": "kiosk"}, "geometry": {"type": "Point", "coordinates": [72.5837441, 23.0243077]}}, {"type": "Feature", "properties": {"osm_id": 3293806562, "osm_type": "node", "name": "Mukhwaas", "shop": "kiosk"}, "geometry": {"type": "Point", "coordinates": [72.5871222, 23.0241153]}}, {"type": "Feature", "properties": {"osm_id": 3306683475, "osm_type": "node", "name": "", "shop": "travel_agency"}, "geometry": {"type": "Point", "coordinates": [72.5927666, 23.0153173]}}, {"type": "Feature", "properties": {"osm_id": 4368248194, "osm_type": "node", "name": "Big Bazaar", "shop": "supermarket"}, "geometry": {"type": "Point", "coordinates": [72.5975122, 23.0147236]}}, {"type": "Feature", "properties": {"osm_id": 4596614390, "osm_type": "node", "name": "", "shop": "beverages"}, "geometry": {"type": "Point", "coordinates": [72.607567, 22.9947074]}}, {"type": "Feature", "properties": {"osm_id": 5424401211, "osm_type": "node", "name": "Shopping ahemadabad", "shop": "clothes"}, "geometry": {"type": "Point", "coordinates": [72.6002491, 23.0004179]}}, {"type": "Feature", "properties": {"osm_id": 5678202321, "osm_type": "node", "name": "चिराग़ जवेल्लर्स", "shop": "jewelry"}, "geometry": {"type": "Point", "coordinates": [72.6126258, 22.9950238]}}, {"type": "Feature", "properties": {"osm_id": 6124511086, "osm_type": "node", "name": "Bhoomi Textile", "shop": "clothes"}, "geometry": {"type": "Point", "coordinates": [72.5834326, 22.9678866]}}, {"type": "Feature", "properties": {"osm_id": 7020233389, "osm_type": "node", "name": "", "shop": "pet"}, "geometry": {"type": "Point", "coordinates": [72.6094411, 22.999754]}}, {"type": "Feature", "properties": {"osm_id": 8253915121, "osm_type": "node", "name": "Jyoti fiber glass work", "shop": "car_parts"}, "geometry": {"type": "Point", "coordinates": [72.6378204, 22.9963686]}}, {"type": "Feature", "properties": {"osm_id": 8847670307, "osm_type": "node", "name": "Gujarat Handicrafts", "shop": "furniture"}, "geometry": {"type": "Point", "coordinates": [72.5848755, 22.9790857]}}, {"type": "Feature", "properties": {"osm_id": 9370468870, "osm_type": "node", "name": "The Arvind Store", "shop": "clothes"}, "geometry": {"type": "Point", "coordinates": [72.6041333, 22.9930426]}}, {"type": "Feature", "properties": {"osm_id": 9370476618, "osm_type": "node", "name": "Jay Watches & Co.", "shop": "watches"}, "geometry": {"type": "Point", "coordinates": [72.6081809, 22.9971356]}}, {"type": "Feature", "properties": {"osm_id": 9632871827, "osm_type": "node", "name": "Ramtudi Fashion", "shop": "clothes"}, "geometry": {"type": "Point", "coordinates": [72.6548463, 22.9945345]}}, {"type": "Feature", "properties": {"osm_id": 10302079172, "osm_type": "node", "name": "Gopal Dairy", "shop": "dairy"}, "geometry": {"type": "Point", "coordinates": [72.6368855, 22.9903525]}}, {"type": "Feature", "properties": {"osm_id": 10310287131, "osm_type": "node", "name": "Micro Machine Tools", "shop": "supermarket"}, "geometry": {"type": "Point", "coordinates": [72.6725641, 23.0206424]}}, {"type": "Feature", "properties": {"osm_id": 10775685853, "osm_type": "node", "name": "Bharat Dugdhalay", "shop": "dairy"}, "geometry": {"type": "Point", "coordinates": [72.6228417, 22.9949799]}}, {"type": "Feature", "properties": {"osm_id": 12326909489, "osm_type": "node", "name": "Monginis", "shop": "pastry"}, "geometry": {"type": "Point", "coordinates": [72.6024617, 22.9837455]}}, {"type": "Feature", "properties": {"osm_id": 12326909490, "osm_type": "node", "name": "Purezr Live Cake & Bakery", "shop": "bakery"}, "geometry": {"type": "Point", "coordinates": [72.6023829, 22.9838943]}}, {"type": "Feature", "properties": {"osm_id": 12326909491, "osm_type": "node", "name": "Cake 'N' Joy", "shop": "bakery"}, "geometry": {"type": "Point", "coordinates": [72.6023132, 22.9839887]}}, {"type": "Feature", "properties": {"osm_id": 1973440773, "osm_type": "node", "name": "Crossword Book Store", "shop": "books"}, "geometry": {"type": "Point", "coordinates": [72.5653869, 23.0327479]}}, {"type": "Feature", "properties": {"osm_id": 2211695012, "osm_type": "node", "name": "Shree Aaiji Super Market", "shop": "supermarket"}, "geometry": {"type": "Point", "coordinates": [72.5646439, 23.0856343]}}, {"type": "Feature", "properties": {"osm_id": 2211707797, "osm_type": "node", "name": "Samruddhi Jwellers", "shop": "jewelry"}, "geometry": {"type": "Point", "coordinates": [72.5646659, 23.0849901]}}, {"type": "Feature", "properties": {"osm_id": 2625837278, "osm_type": "node", "name": "Mother Dairy", "shop": "dairy"}, "geometry": {"type": "Point", "coordinates": [72.5154344, 23.0355267]}}, {"type": "Feature", "properties": {"osm_id": 3242226332, "osm_type": "node", "name": "Induben Khakhrawala", "shop": "convenience"}, "geometry": {"type": "Point", "coordinates": [72.5613239, 23.0325848]}}, {"type": "Feature", "properties": {"osm_id": 3242235764, "osm_type": "node", "name": "Romano", "shop": "clothes"}, "geometry": {"type": "Point", "coordinates": [72.5603885, 23.0328013]}}, {"type": "Feature", "properties": {"osm_id": 3242312721, "osm_type": "node", "name": "Chanel", "shop": "clothes"}, "geometry": {"type": "Point", "coordinates": [72.5601894, 23.0340092]}}, {"type": "Feature", "properties": {"osm_id": 3292203261, "osm_type": "node", "name": "", "shop": "kiosk-cholle kulchr"}, "geometry": {"type": "Point", "coordinates": [72.5398312, 23.0307495]}}, {"type": "Feature", "properties": {"osm_id": 3292209861, "osm_type": "node", "name": "", "shop": "prakash-dalwasa"}, "geometry": {"type": "Point", "coordinates": [72.5443605, 23.0265455]}}, {"type": "Feature", "properties": {"osm_id": 3292209962, "osm_type": "node", "name": "talsingh", "shop": "kiosk-nagar cholafadi"}, "geometry": {"type": "Point", "coordinates": [72.5443504, 23.0263991]}}, {"type": "Feature", "properties": {"osm_id": 3292214861, "osm_type": "node", "name": "master wada paav", "shop": "kiosk"}, "geometry": {"type": "Point", "coordinates": [72.5440367, 23.0260866]}}, {"type": "Feature", "properties": {"osm_id": 3292377162, "osm_type": "node", "name": "login", "shop": "tea"}, "geometry": {"type": "Point", "coordinates": [72.5497189, 23.0425653]}}, {"type": "Feature", "properties": {"osm_id": 3292377261, "osm_type": "node", "name": "login", "shop": "tea"}, "geometry": {"type": "Point", "coordinates": [72.5503049, 23.0425341]}}, {"type": "Feature", "properties": {"osm_id": 3292377262, "osm_type": "node", "name": "have a nice day", "shop": "tea"}, "geometry": {"type": "Point", "coordinates": [72.5506152, 23.0422756]}}, {"type": "Feature", "properties": {"osm_id": 3292377461, "osm_type": "node", "name": "R.K.OMLET", "shop": "deli"}, "geometry": {"type": "Point", "coordinates": [72.5517948, 23.0454711]}}, {"type": "Feature", "properties": {"osm_id": 3292377561, "osm_type": "node", "name": "Janta", "shop": "ice_cream"}, "geometry": {"type": "Point", "coordinates": [72.5337283, 23.0479379]}}, {"type": "Feature", "properties": {"osm_id": 3293760461, "osm_type": "node", "name": "new rashtriya bhajiya house", "shop": "kiosk"}, "geometry": {"type": "Point", "coordinates": [72.5692215, 23.0364058]}}, {"type": "Feature", "properties": {"osm_id": 3293760464, "osm_type": "node", "name": "rehmati bakery", "shop": "bakery"}, "geometry": {"type": "Point", "coordinates": [72.5690405, 23.037044]}}, {"type": "Feature", "properties": {"osm_id": 3293760466, "osm_type": "node", "name": "happiness", "shop": "coffee"}, "geometry": {"type": "Point", "coordinates": [72.5496027, 23.0427571]}}, {"type": "Feature", "properties": {"osm_id": 3293760661, "osm_type": "node", "name": "bhogilal mulchand", "shop": "bakery"}, "geometry": {"type": "Point", "coordinates": [72.5694452, 23.0368824]}}, {"type": "Feature", "properties": {"osm_id": 3293760663, "osm_type": "node", "name": "super tea stall", "shop": "tea"}, "geometry": {"type": "Point", "coordinates": [72.569816, 23.0376364]}}, {"type": "Feature", "properties": {"osm_id": 3293760666, "osm_type": "node", "name": "barley water shop", "shop": "beverages"}, "geometry": {"type": "Point", "coordinates": [72.549159, 23.0422114]}}, {"type": "Feature", "properties": {"osm_id": 3293760667, "osm_type": "node", "name": "navrang restuarant", "shop": "deli"}, "geometry": {"type": "Point", "coordinates": [72.5492686, 23.0426527]}}, {"type": "Feature", "properties": {"osm_id": 3293760668, "osm_type": "node", "name": "jalaram parontha house", "shop": "deli"}, "geometry": {"type": "Point", "coordinates": [72.549319, 23.0426291]}}, {"type": "Feature", "properties": {"osm_id": 3293760671, "osm_type": "node", "name": "punjabi flavours", "shop": "deli"}, "geometry": {"type": "Point", "coordinates": [72.5493001, 23.0426338]}}, {"type": "Feature", "properties": {"osm_id": 3293761164, "osm_type": "node", "name": "rehmati bakery", "shop": "bakery"}, "geometry": {"type": "Point", "coordinates": [72.5691251, 23.0371194]}}, {"type": "Feature", "properties": {"osm_id": 3293762562, "osm_type": "node", "name": "Amul", "shop": "dairy"}, "geometry": {"type": "Point", "coordinates": [72.5472223, 23.0440918]}}, {"type": "Feature", "properties": {"osm_id": 3293763763, "osm_type": "node", "name": "facebook restuarant", "shop": "deli"}, "geometry": {"type": "Point", "coordinates": [72.5492595, 23.0426661]}}, {"type": "Feature", "properties": {"osm_id": 3293763764, "osm_type": "node", "name": "R K vadapav", "shop": "deli"}, "geometry": {"type": "Point", "coordinates": [72.5492615, 23.0424164]}}, {"type": "Feature", "properties": {"osm_id": 3293792061, "osm_type": "node", "name": "rasranjan", "shop": "bakery"}, "geometry": {"type": "Point", "coordinates": [72.5487336, 23.042291]}}, {"type": "Feature", "properties": {"osm_id": 3370726902, "osm_type": "node", "name": "Bopal Vegetable Market", "shop": "supermarket"}, "geometry": {"type": "Point", "coordinates": [72.4718735, 23.0307489]}}, {"type": "Feature", "properties": {"osm_id": 3846251081, "osm_type": "node", "name": "TDW Furniture Private Limited", "shop": "furniture"}, "geometry": {"type": "Point", "coordinates": [72.5217681, 23.0270936]}}, {"type": "Feature", "properties": {"osm_id": 4199023908, "osm_type": "node", "name": "Star Bazaar", "shop": "supermarket"}, "geometry": {"type": "Point", "coordinates": [72.5242142, 23.0269648]}}, {"type": "Feature", "properties": {"osm_id": 4369496892, "osm_type": "node", "name": "", "shop": "furniture"}, "geometry": {"type": "Point", "coordinates": [72.5194989, 23.0411515]}}, {"type": "Feature", "properties": {"osm_id": 4369535190, "osm_type": "node", "name": "", "shop": "furniture"}, "geometry": {"type": "Point", "coordinates": [72.521679, 23.043024]}}, {"type": "Feature", "properties": {"osm_id": 4378619789, "osm_type": "node", "name": "", "shop": "clothes"}, "geometry": {"type": "Point", "coordinates": [72.5597398, 23.0323274]}}, {"type": "Feature", "properties": {"osm_id": 4401523191, "osm_type": "node", "name": "", "shop": "optician"}, "geometry": {"type": "Point", "coordinates": [72.5547791, 23.0523774]}}, {"type": "Feature", "properties": {"osm_id": 4403928290, "osm_type": "node", "name": "my tution", "shop": "books"}, "geometry": {"type": "Point", "coordinates": [72.5363549, 23.0570698]}}, {"type": "Feature", "properties": {"osm_id": 4444998991, "osm_type": "node", "name": "Reliance Smart", "shop": "supermarket"}, "geometry": {"type": "Point", "coordinates": [72.5265833, 23.0475825]}}, {"type": "Feature", "properties": {"osm_id": 4483496958, "osm_type": "node", "name": "Half Ticket", "shop": "clothes"}, "geometry": {"type": "Point", "coordinates": [72.5617091, 23.0379538]}}, {"type": "Feature", "properties": {"osm_id": 4483503357, "osm_type": "node", "name": "Liberty Showroom", "shop": "shoes"}, "geometry": {"type": "Point", "coordinates": [72.5610186, 23.0368527]}}, {"type": "Feature", "properties": {"osm_id": 4486247796, "osm_type": "node", "name": "Half ticket", "shop": "clothes"}, "geometry": {"type": "Point", "coordinates": [72.5601493, 23.0337539]}}, {"type": "Feature", "properties": {"osm_id": 4676023589, "osm_type": "node", "name": "Payload Electronics Lab, Physical Research Laboratory", "shop": "electronics"}, "geometry": {"type": "Point", "coordinates": [72.4954264, 23.0442577]}}, {"type": "Feature", "properties": {"osm_id": 4762313978, "osm_type": "node", "name": "Mahasagar travels ltd", "shop": "travel_agency"}, "geometry": {"type": "Point", "coordinates": [72.5252741, 23.0256216]}}, {"type": "Feature", "properties": {"osm_id": 4762427250, "osm_type": "node", "name": "Neeta travels", "shop": "travel_agency"}, "geometry": {"type": "Point", "coordinates": [72.5253435, 23.0257415]}}, {"type": "Feature", "properties": {"osm_id": 4762427252, "osm_type": "node", "name": "Ramani travels", "shop": "travel_agency"}, "geometry": {"type": "Point", "coordinates": [72.5253774, 23.026132]}}, {"type": "Feature", "properties": {"osm_id": 4772153721, "osm_type": "node", "name": "Gujarat travels", "shop": "travel_agency"}, "geometry": {"type": "Point", "coordinates": [72.5256239, 23.0261084]}}, {"type": "Feature", "properties": {"osm_id": 4794246529, "osm_type": "node", "name": "Ranip Vegetable market", "shop": "greengrocer"}, "geometry": {"type": "Point", "coordinates": [72.574545, 23.0796845]}}, {"type": "Feature", "properties": {"osm_id": 4797415996, "osm_type": "node", "name": "havmor", "shop": "yes"}, "geometry": {"type": "Point", "coordinates": [72.5486106, 23.0422888]}}, {"type": "Feature", "properties": {"osm_id": 4797416007, "osm_type": "node", "name": "tea stall", "shop": "yes"}, "geometry": {"type": "Point", "coordinates": [72.5486687, 23.042429]}}, {"type": "Feature", "properties": {"osm_id": 5029238552, "osm_type": "node", "name": "TGB", "shop": "bakery"}, "geometry": {"type": "Point", "coordinates": [72.5549838, 23.0399675]}}, {"type": "Feature", "properties": {"osm_id": 5141463317, "osm_type": "node", "name": "Vijay Sales", "shop": "supermarket"}, "geometry": {"type": "Point", "coordinates": [72.5299101, 23.045838]}}, {"type": "Feature", "properties": {"osm_id": 5141463318, "osm_type": "node", "name": "Shades of Black Spalon", "shop": "hairdresser"}, "geometry": {"type": "Point", "coordinates": [72.5297042, 23.0440516]}}, {"type": "Feature", "properties": {"osm_id": 5197464137, "osm_type": "node", "name": "TKB cake shop", "shop": "deli"}, "geometry": {"type": "Point", "coordinates": [72.4740109, 23.0303355]}}, {"type": "Feature", "properties": {"osm_id": 5200003639, "osm_type": "node", "name": "D Mart", "shop": "yes"}, "geometry": {"type": "Point", "coordinates": [72.4784116, 23.0283451]}}, {"type": "Feature", "properties": {"osm_id": 6380749909, "osm_type": "node", "name": "K R SONS", "shop": "jewelry"}, "geometry": {"type": "Point", "coordinates": [72.5235517, 23.0260246]}}, {"type": "Feature", "properties": {"osm_id": 6668029662, "osm_type": "node", "name": "AMUL store", "shop": "yes"}, "geometry": {"type": "Point", "coordinates": [72.5392037, 23.1262799]}}, {"type": "Feature", "properties": {"osm_id": 7178784863, "osm_type": "node", "name": "Maruti Electric", "shop": "electrical"}, "geometry": {"type": "Point", "coordinates": [72.4696501, 23.0318964]}}, {"type": "Feature", "properties": {"osm_id": 7554841091, "osm_type": "node", "name": "Hind Store", "shop": "supermarket"}, "geometry": {"type": "Point", "coordinates": [72.5555815, 23.1135557]}}, {"type": "Feature", "properties": {"osm_id": 8130441354, "osm_type": "node", "name": "7Violettes", "shop": "bakery"}, "geometry": {"type": "Point", "coordinates": [72.5449441, 23.040378]}}, {"type": "Feature", "properties": {"osm_id": 8139065150, "osm_type": "node", "name": "Monte Carlo Warehouse", "shop": "wholesale"}, "geometry": {"type": "Point", "coordinates": [72.5540638, 23.0351743]}}, {"type": "Feature", "properties": {"osm_id": 8244936295, "osm_type": "node", "name": "Max Fashion", "shop": "clothes"}, "geometry": {"type": "Point", "coordinates": [72.5101534, 23.0268655]}}, {"type": "Feature", "properties": {"osm_id": 8252389265, "osm_type": "node", "name": "Greenobazaar", "shop": "supermarket"}, "geometry": {"type": "Point", "coordinates": [72.5542516, 23.0253822]}}, {"type": "Feature", "properties": {"osm_id": 8844248828, "osm_type": "node", "name": "Jawed Habib Hair Studio", "shop": "hairdresser"}, "geometry": {"type": "Point", "coordinates": [72.507652, 23.0398457]}}, {"type": "Feature", "properties": {"osm_id": 8844248829, "osm_type": "node", "name": "Jawed Habib Hair Studio", "shop": "hairdresser"}, "geometry": {"type": "Point", "coordinates": [72.5311643, 23.0465691]}}, {"type": "Feature", "properties": {"osm_id": 8844322307, "osm_type": "node", "name": "Sompura Moorti Art", "shop": "interior_decoration"}, "geometry": {"type": "Point", "coordinates": [72.5105743, 23.0339711]}}, {"type": "Feature", "properties": {"osm_id": 9006976037, "osm_type": "node", "name": "Gambol", "shop": "sports"}, "geometry": {"type": "Point", "coordinates": [72.5095604, 23.0758568]}}, {"type": "Feature", "properties": {"osm_id": 9254988755, "osm_type": "node", "name": "My My", "shop": "clothes"}, "geometry": {"type": "Point", "coordinates": [72.562492, 23.037796]}}, {"type": "Feature", "properties": {"osm_id": 9254994181, "osm_type": "node", "name": "Miniso", "shop": "variety_store"}, "geometry": {"type": "Point", "coordinates": [72.5597384, 23.0325101]}}, {"type": "Feature", "properties": {"osm_id": 9287472853, "osm_type": "node", "name": "Manmandir", "shop": "clothes"}, "geometry": {"type": "Point", "coordinates": [72.5573436, 23.0269177]}}, {"type": "Feature", "properties": {"osm_id": 9312365803, "osm_type": "node", "name": "Adani Selection", "shop": "clothes"}, "geometry": {"type": "Point", "coordinates": [72.5596837, 23.0313547]}}, {"type": "Feature", "properties": {"osm_id": 9318825268, "osm_type": "node", "name": "Patidar", "shop": "clothes"}, "geometry": {"type": "Point", "coordinates": [72.5550503, 23.0284321]}}, {"type": "Feature", "properties": {"osm_id": 9329076828, "osm_type": "node", "name": "Tape Me Ft", "shop": "clothes"}, "geometry": {"type": "Point", "coordinates": [72.5577834, 23.0276806]}}, {"type": "Feature", "properties": {"osm_id": 9329077836, "osm_type": "node", "name": "Telarica", "shop": "clothes"}, "geometry": {"type": "Point", "coordinates": [72.5578597, 23.0278177]}}, {"type": "Feature", "properties": {"osm_id": 9370470858, "osm_type": "node", "name": "Asopalav", "shop": "clothes"}, "geometry": {"type": "Point", "coordinates": [72.5714659, 23.0260527]}}, {"type": "Feature", "properties": {"osm_id": 9809117886, "osm_type": "node", "name": "Shivalik Shilp", "shop": "supermarket"}, "geometry": {"type": "Point", "coordinates": [72.5066805, 23.0269943]}}, {"type": "Feature", "properties": {"osm_id": 9951286347, "osm_type": "node", "name": "Mercedes Benz Service Center", "shop": "car_repair"}, "geometry": {"type": "Point", "coordinates": [72.4795472, 23.0261686]}}, {"type": "Feature", "properties": {"osm_id": 10750415883, "osm_type": "node", "name": "market", "shop": "supermarket"}, "geometry": {"type": "Point", "coordinates": [72.5256771, 23.040802]}}, {"type": "Feature", "properties": {"osm_id": 10781479077, "osm_type": "node", "name": "JK MEDIRISE Disposable Medical Devices", "shop": "supermarket"}, "geometry": {"type": "Point", "coordinates": [72.5107957, 23.0338871]}}, {"type": "Feature", "properties": {"osm_id": 11277549799, "osm_type": "node", "name": "Permit Shop", "shop": "alcohol"}, "geometry": {"type": "Point", "coordinates": [72.514597, 23.0423693]}}, {"type": "Feature", "properties": {"osm_id": 11277587458, "osm_type": "node", "name": "Permit Shop", "shop": "alcohol"}, "geometry": {"type": "Point", "coordinates": [72.5640345, 23.030564]}}, {"type": "Feature", "properties": {"osm_id": 11277619641, "osm_type": "node", "name": "Permit Shop", "shop": "alcohol"}, "geometry": {"type": "Point", "coordinates": [72.560205, 23.0353514]}}, {"type": "Feature", "properties": {"osm_id": 11278820418, "osm_type": "node", "name": "Permit Shop", "shop": "alcohol"}, "geometry": {"type": "Point", "coordinates": [72.5304465, 23.0393771]}}, {"type": "Feature", "properties": {"osm_id": 11278825163, "osm_type": "node", "name": "Permit Shop", "shop": "alcohol"}, "geometry": {"type": "Point", "coordinates": [72.5121247, 23.027837]}}, {"type": "Feature", "properties": {"osm_id": 11278844232, "osm_type": "node", "name": "Permit Shop", "shop": "alcohol"}, "geometry": {"type": "Point", "coordinates": [72.5081211, 23.0459841]}}, {"type": "Feature", "properties": {"osm_id": 11278858309, "osm_type": "node", "name": "Permit Shop", "shop": "alcohol"}, "geometry": {"type": "Point", "coordinates": [72.4820573, 23.044182]}}, {"type": "Feature", "properties": {"osm_id": 11278859066, "osm_type": "node", "name": "Permit Shop", "shop": "alcohol"}, "geometry": {"type": "Point", "coordinates": [72.570414, 23.0477803]}}, {"type": "Feature", "properties": {"osm_id": 11716845862, "osm_type": "node", "name": "HP World", "shop": "computer"}, "geometry": {"type": "Point", "coordinates": [72.5301999, 23.0253774]}}, {"type": "Feature", "properties": {"osm_id": 11801928106, "osm_type": "node", "name": "Ladies & Gents Tailors", "shop": "yes"}, "geometry": {"type": "Point", "coordinates": [72.5273517, 23.0353456]}}, {"type": "Feature", "properties": {"osm_id": 12041481374, "osm_type": "node", "name": "Navkar traders", "shop": "yes"}, "geometry": {"type": "Point", "coordinates": [72.5548427, 23.0775587]}}, {"type": "Feature", "properties": {"osm_id": 12165401787, "osm_type": "node", "name": "Amul Parlour", "shop": "convenience"}, "geometry": {"type": "Point", "coordinates": [72.503133, 23.0277968]}}, {"type": "Feature", "properties": {"osm_id": 12612330652, "osm_type": "node", "name": "divya farm & nursery", "shop": "garden_centre"}, "geometry": {"type": "Point", "coordinates": [72.5307212, 23.0606654]}}, {"type": "Feature", "properties": {"osm_id": 12612330653, "osm_type": "node", "name": "green gujarat nursery", "shop": "garden_centre"}, "geometry": {"type": "Point", "coordinates": [72.5217051, 23.055172]}}, {"type": "Feature", "properties": {"osm_id": 12612346226, "osm_type": "node", "name": "sankat mochan nursery", "shop": "garden_centre"}, "geometry": {"type": "Point", "coordinates": [72.5147718, 23.037706]}}, {"type": "Feature", "properties": {"osm_id": 12612359608, "osm_type": "node", "name": "Naidu nursery", "shop": "garden_centre"}, "geometry": {"type": "Point", "coordinates": [72.504409, 23.0273673]}}, {"type": "Feature", "properties": {"osm_id": 12612422003, "osm_type": "node", "name": "lav kush nursery", "shop": "garden_centre"}, "geometry": {"type": "Point", "coordinates": [72.4887609, 23.0258931]}}, {"type": "Feature", "properties": {"osm_id": 12612453819, "osm_type": "node", "name": "VRUNDAVAN NURSERY & PLANTATION", "shop": "garden_centre"}, "geometry": {"type": "Point", "coordinates": [72.5722381, 23.0677935]}}, {"type": "Feature", "properties": {"osm_id": 12612453821, "osm_type": "node", "name": "Zalak Nursery", "shop": "garden_centre"}, "geometry": {"type": "Point", "coordinates": [72.5122509, 23.1211873]}}, {"type": "Feature", "properties": {"osm_id": 12612453823, "osm_type": "node", "name": "Mother Nature", "shop": "garden_centre"}, "geometry": {"type": "Point", "coordinates": [72.5546905, 23.0550602]}}, {"type": "Feature", "properties": {"osm_id": 12612477934, "osm_type": "node", "name": "UMAROSE NURSERY GOTA", "shop": "garden_centre"}, "geometry": {"type": "Point", "coordinates": [72.5289342, 23.0951277]}}, {"type": "Feature", "properties": {"osm_id": 12612477935, "osm_type": "node", "name": "Dharti Horticulture Nursery & Farm", "shop": "garden_centre"}, "geometry": {"type": "Point", "coordinates": [72.5318893, 23.1360644]}}, {"type": "Feature", "properties": {"osm_id": 12612477937, "osm_type": "node", "name": "Gauri Plants Nursery Farm", "shop": "garden_centre"}, "geometry": {"type": "Point", "coordinates": [72.5660508, 23.1336148]}}, {"type": "Feature", "properties": {"osm_id": 12813795918, "osm_type": "node", "name": "Kamdhenu Ayurvedic Stores", "shop": "herbalist"}, "geometry": {"type": "Point", "coordinates": [72.4694425, 23.0322943]}}, {"type": "Feature", "properties": {"osm_id": 13120551561, "osm_type": "node", "name": "Kerala Store", "shop": "general"}, "geometry": {"type": "Point", "coordinates": [72.5272829, 23.0403711]}}, {"type": "Feature", "properties": {"osm_id": 13645036801, "osm_type": "node", "name": "Calibre Jewels", "shop": "jewelry"}, "geometry": {"type": "Point", "coordinates": [72.52339, 23.0257723]}}, {"type": "Feature", "properties": {"osm_id": 13765820001, "osm_type": "node", "name": "JRK FASHION", "shop": "fashion_accessories"}, "geometry": {"type": "Point", "coordinates": [72.5404836, 23.0564356]}}, {"type": "Feature", "properties": {"osm_id": 13831008302, "osm_type": "node", "name": "Amal dairy", "shop": "dairy"}, "geometry": {"type": "Point", "coordinates": [72.5359383, 23.0693093]}}, {"type": "Feature", "properties": {"osm_id": 219743836, "osm_type": "way", "name": "Kalasagar Mall", "shop": "supermarket"}, "geometry": {"type": "LineString", "coordinates": [[72.5312684, 23.0668688], [72.5322355, 23.0664181], [72.5319365, 23.0658748], [72.5313886, 23.0661301], [72.5315084, 23.0663478], [72.531353, 23.0664202], [72.5314008, 23.0665071], [72.531137, 23.0666301], [72.5312684, 23.0668688]]}}, {"type": "Feature", "properties": {"osm_id": 356712890, "osm_type": "way", "name": "Amul Parlor", "shop": "dairy", "building": "yes"}, "geometry": {"type": "LineString", "coordinates": [[72.5030841, 23.0278333], [72.5030819, 23.0277702], [72.5031813, 23.027756], [72.5031835, 23.0278292], [72.5030841, 23.0278333]]}}, {"type": "Feature", "properties": {"osm_id": 366112469, "osm_type": "way", "name": "Vastrakutir", "shop": "clothes", "building": "yes"}, "geometry": {"type": "LineString", "coordinates": [[72.5115146, 23.0321503], [72.5115328, 23.0322222], [72.511579, 23.0322134], [72.5115608, 23.0321422], [72.5115146, 23.0321503]]}}, {"type": "Feature", "properties": {"osm_id": 366469717, "osm_type": "way", "name": "Revolution Bike Store", "shop": "bicycle", "building": "yes"}, "geometry": {"type": "LineString", "coordinates": [[72.5240195, 23.0320444], [72.5240837, 23.0322417], [72.5242158, 23.0322053], [72.5241516, 23.032008], [72.5240195, 23.0320444]]}}, {"type": "Feature", "properties": {"osm_id": 487933774, "osm_type": "way", "name": "Monte Carlo Exclusive Showroom", "shop": "clothes"}, "geometry": {"type": "LineString", "coordinates": [[72.5314176, 23.0399978], [72.5315033, 23.0400017], [72.5314968, 23.0398398], [72.5314101, 23.0398381], [72.5314176, 23.0399978]]}}, {"type": "Feature", "properties": {"osm_id": 530535812, "osm_type": "way", "name": "Amul Parlour", "shop": "dairy", "building": "yes"}, "geometry": {"type": "LineString", "coordinates": [[72.4954684, 23.0807572], [72.4955911, 23.0807884], [72.4956068, 23.0807365], [72.4954841, 23.0807052], [72.4954684, 23.0807572]]}}, {"type": "Feature", "properties": {"osm_id": 530535818, "osm_type": "way", "name": "Steps", "shop": "clothes", "building": "yes"}, "geometry": {"type": "LineString", "coordinates": [[72.4945332, 23.0818489], [72.4945274, 23.0818038], [72.4942262, 23.0815524], [72.494162, 23.0815374], [72.4941748, 23.0814064], [72.4942682, 23.0814085], [72.4946418, 23.0817533], [72.4946511, 23.0818446], [72.4945332, 23.0818489]]}}, {"type": "Feature", "properties": {"osm_id": 577529763, "osm_type": "way", "name": "National Handloom Corporation", "shop": "supermarket"}, "geometry": {"type": "LineString", "coordinates": [[72.5586241, 23.0276007], [72.5588071, 23.0275347], [72.5588568, 23.0274989], [72.5588648, 23.0274458], [72.5587535, 23.0272015], [72.5585014, 23.0273014], [72.5586241, 23.0276007]]}}, {"type": "Feature", "properties": {"osm_id": 764490978, "osm_type": "way", "name": "DAIRY RICH ICE CREAM", "shop": "dairy", "building": "commercial"}, "geometry": {"type": "LineString", "coordinates": [[72.5405519, 23.0927472], [72.540652, 23.0927394], [72.5406342, 23.0925465], [72.5405341, 23.0925543], [72.5405519, 23.0927472]]}}, {"type": "Feature", "properties": {"osm_id": 1007352991, "osm_type": "way", "name": "Asopalav", "shop": "clothes", "building": "retail"}, "geometry": {"type": "LineString", "coordinates": [[72.532012, 23.0281401], [72.5323011, 23.0280495], [72.5321903, 23.0277504], [72.5319013, 23.027841], [72.532012, 23.0281401]]}}, {"type": "Feature", "properties": {"osm_id": 1007416225, "osm_type": "way", "name": "Kitchen & Dining Complex", "shop": "kitchen"}, "geometry": {"type": "LineString", "coordinates": [[72.5345737, 23.0317495], [72.5350342, 23.0316262], [72.53482, 23.031178], [72.5343586, 23.0313483], [72.5345737, 23.0317495]]}}, {"type": "Feature", "properties": {"osm_id": 1211760599, "osm_type": "way", "name": "Osia", "shop": "supermarket", "building": "retail"}, "geometry": {"type": "LineString", "coordinates": [[72.4958158, 23.0507141], [72.4957802, 23.0503115], [72.4962203, 23.0502786], [72.4962558, 23.0506812], [72.4958158, 23.0507141]]}}, {"type": "Feature", "properties": {"osm_id": 1214070124, "osm_type": "way", "name": "Amul Dairy", "shop": "dairy", "building": "yes"}, "geometry": {"type": "LineString", "coordinates": [[72.5202294, 23.0391222], [72.5202708, 23.039185], [72.5203242, 23.0391547], [72.5202828, 23.0390919], [72.5202294, 23.0391222]]}}, {"type": "Feature", "properties": {"osm_id": 1239619353, "osm_type": "way", "name": "Ticket Window", "shop": "ticket", "building": "yes"}, "geometry": {"type": "LineString", "coordinates": [[72.5214359, 23.0273952], [72.5214855, 23.0273736], [72.5214719, 23.0273472], [72.5214223, 23.0273688], [72.5214359, 23.0273952]]}}, {"type": "Feature", "properties": {"osm_id": 1302504473, "osm_type": "way", "name": "Reliance Smart", "shop": "general", "building": "commercial"}, "geometry": {"type": "LineString", "coordinates": [[72.5547434, 23.0301095], [72.55474, 23.0299152], [72.5548962, 23.0299128], [72.5548997, 23.0301071], [72.5547434, 23.0301095]]}}, {"type": "Feature", "properties": {"osm_id": 1369674748, "osm_type": "node", "name": "Bharat Kirana Stores", "shop": "convenience"}, "geometry": {"type": "Point", "coordinates": [72.5889014, 23.0380231]}}, {"type": "Feature", "properties": {"osm_id": 3293760462, "osm_type": "node", "name": "krishna cold drinks", "shop": "beverages"}, "geometry": {"type": "Point", "coordinates": [72.5795927, 23.0401345]}}, {"type": "Feature", "properties": {"osm_id": 3293760463, "osm_type": "node", "name": "janta bakery", "shop": "bakery"}, "geometry": {"type": "Point", "coordinates": [72.5797316, 23.036703]}}, {"type": "Feature", "properties": {"osm_id": 3293760665, "osm_type": "node", "name": "shri shankar bhuvan nashta house", "shop": "kiosk"}, "geometry": {"type": "Point", "coordinates": [72.5779042, 23.0398738]}}, {"type": "Feature", "properties": {"osm_id": 3293760961, "osm_type": "node", "name": "bherunath jain chavana house", "shop": "bakery"}, "geometry": {"type": "Point", "coordinates": [72.5798143, 23.039816]}}, {"type": "Feature", "properties": {"osm_id": 3293761161, "osm_type": "node", "name": "manhar doodh ghar", "shop": "bakery"}, "geometry": {"type": "Point", "coordinates": [72.579821, 23.0385763]}}, {"type": "Feature", "properties": {"osm_id": 3293761162, "osm_type": "node", "name": "dhanlakshmi fruit stall", "shop": "greengrocer"}, "geometry": {"type": "Point", "coordinates": [72.5796656, 23.0345651]}}, {"type": "Feature", "properties": {"osm_id": 3500454470, "osm_type": "node", "name": "", "shop": "supermarket"}, "geometry": {"type": "Point", "coordinates": [72.5914619, 23.0843928]}}, {"type": "Feature", "properties": {"osm_id": 4296010891, "osm_type": "node", "name": "Jeet Tours & Travel", "shop": "travel_agency"}, "geometry": {"type": "Point", "coordinates": [72.6001635, 23.0264342]}}, {"type": "Feature", "properties": {"osm_id": 4358525891, "osm_type": "node", "name": "Manki children store", "shop": "clothes"}, "geometry": {"type": "Point", "coordinates": [72.6442794, 23.0510386]}}, {"type": "Feature", "properties": {"osm_id": 4404465899, "osm_type": "node", "name": "Jagdamba Sales Corporation", "shop": "electronics"}, "geometry": {"type": "Point", "coordinates": [72.6301401, 23.0857612]}}, {"type": "Feature", "properties": {"osm_id": 4423366689, "osm_type": "node", "name": "Jain Nagar", "shop": "wine"}, "geometry": {"type": "Point", "coordinates": [72.5844263, 23.0886047]}}, {"type": "Feature", "properties": {"osm_id": 4447208789, "osm_type": "node", "name": "Amul Dairy", "shop": "bakery"}, "geometry": {"type": "Point", "coordinates": [72.6288132, 23.0971579]}}, {"type": "Feature", "properties": {"osm_id": 4478346291, "osm_type": "node", "name": "DMart", "shop": "supermarket"}, "geometry": {"type": "Point", "coordinates": [72.6711806, 23.0552881]}}, {"type": "Feature", "properties": {"osm_id": 4480996895, "osm_type": "node", "name": "D Mart", "shop": "department_store"}, "geometry": {"type": "Point", "coordinates": [72.5761383, 23.0680121]}}, {"type": "Feature", "properties": {"osm_id": 4480996896, "osm_type": "node", "name": "Relince Digital", "shop": "department_store"}, "geometry": {"type": "Point", "coordinates": [72.5758088, 23.0680414]}}, {"type": "Feature", "properties": {"osm_id": 4481079389, "osm_type": "node", "name": "Arved transcube Plaza", "shop": "supermarket"}, "geometry": {"type": "Point", "coordinates": [72.5760578, 23.0679571]}}, {"type": "Feature", "properties": {"osm_id": 4482323991, "osm_type": "node", "name": "cng", "shop": "gas"}, "geometry": {"type": "Point", "coordinates": [72.580366, 23.039025]}}, {"type": "Feature", "properties": {"osm_id": 4488137621, "osm_type": "node", "name": "Mahlaxmi papad", "shop": "supermarket"}, "geometry": {"type": "Point", "coordinates": [72.6416185, 23.0739761]}}, {"type": "Feature", "properties": {"osm_id": 4488137627, "osm_type": "node", "name": "Kubernagar Main market - sindhi market", "shop": "supermarket"}, "geometry": {"type": "Point", "coordinates": [72.6414355, 23.0731757]}}, {"type": "Feature", "properties": {"osm_id": 4578929190, "osm_type": "node", "name": "readymadepocket", "shop": "clothes"}, "geometry": {"type": "Point", "coordinates": [72.5880275, 23.0277198]}}, {"type": "Feature", "properties": {"osm_id": 4695589389, "osm_type": "node", "name": "c point furniture", "shop": "furniture"}, "geometry": {"type": "Point", "coordinates": [72.6634833, 23.0507889]}}, {"type": "Feature", "properties": {"osm_id": 4794246526, "osm_type": "node", "name": "D Mart", "shop": "supermarket"}, "geometry": {"type": "Point", "coordinates": [72.5759446, 23.0681594]}}, {"type": "Feature", "properties": {"osm_id": 5136979522, "osm_type": "node", "name": "readymadepocket", "shop": "clothes"}, "geometry": {"type": "Point", "coordinates": [72.5880236, 23.0277361]}}, {"type": "Feature", "properties": {"osm_id": 5527662868, "osm_type": "node", "name": "", "shop": "convenience"}, "geometry": {"type": "Point", "coordinates": [72.5783117, 23.0331551]}}, {"type": "Feature", "properties": {"osm_id": 6983018834, "osm_type": "node", "name": "RIVERLEAF", "shop": "clothes"}, "geometry": {"type": "Point", "coordinates": [72.6705656, 23.0520663]}}, {"type": "Feature", "properties": {"osm_id": 8138924274, "osm_type": "node", "name": "Monte Carlo Exclusive Showroom", "shop": "clothes"}, "geometry": {"type": "Point", "coordinates": [72.5951743, 23.1028203]}}, {"type": "Feature", "properties": {"osm_id": 8220949079, "osm_type": "node", "name": "Ahmedabad Trunk, House of Mg", "shop": "clothes"}, "geometry": {"type": "Point", "coordinates": [72.5815218, 23.0271285]}}, {"type": "Feature", "properties": {"osm_id": 10081226546, "osm_type": "node", "name": "RituRaj The Wedding Studio", "shop": "clothes"}, "geometry": {"type": "Point", "coordinates": [72.6639799, 23.0464077]}}, {"type": "Feature", "properties": {"osm_id": 10223459792, "osm_type": "node", "name": "Capital Security System", "shop": "electronics"}, "geometry": {"type": "Point", "coordinates": [72.6831131, 23.0863499]}}, {"type": "Feature", "properties": {"osm_id": 10591957832, "osm_type": "node", "name": "", "shop": "Lucky tea shop"}, "geometry": {"type": "Point", "coordinates": [72.5811194, 23.0275632]}}, {"type": "Feature", "properties": {"osm_id": 10959583957, "osm_type": "node", "name": "Bharat Bakery", "shop": "bakery"}, "geometry": {"type": "Point", "coordinates": [72.5823813, 23.1082895]}}, {"type": "Feature", "properties": {"osm_id": 10959599250, "osm_type": "node", "name": "Hello Stationary services", "shop": "stationery"}, "geometry": {"type": "Point", "coordinates": [72.5827474, 23.108341]}}, {"type": "Feature", "properties": {"osm_id": 10959625993, "osm_type": "node", "name": "Hira Misthan", "shop": "confectionery"}, "geometry": {"type": "Point", "coordinates": [72.5846468, 23.1078617]}}, {"type": "Feature", "properties": {"osm_id": 10959647097, "osm_type": "node", "name": "Magson Fresh and Frozen", "shop": "confectionery"}, "geometry": {"type": "Point", "coordinates": [72.5914101, 23.1094665]}}, {"type": "Feature", "properties": {"osm_id": 10959671657, "osm_type": "node", "name": "My Stationaries", "shop": "stationery"}, "geometry": {"type": "Point", "coordinates": [72.5938955, 23.1095409]}}, {"type": "Feature", "properties": {"osm_id": 10959671668, "osm_type": "node", "name": "Jalandhar Sports", "shop": "yes"}, "geometry": {"type": "Point", "coordinates": [72.5953445, 23.1088755]}}, {"type": "Feature", "properties": {"osm_id": 10959675371, "osm_type": "node", "name": "United Colors Of Benetton", "shop": "clothes"}, "geometry": {"type": "Point", "coordinates": [72.5954156, 23.1028912]}}, {"type": "Feature", "properties": {"osm_id": 10959710275, "osm_type": "node", "name": "Titan World", "shop": "watches"}, "geometry": {"type": "Point", "coordinates": [72.5956392, 23.1032208]}}, {"type": "Feature", "properties": {"osm_id": 10959743712, "osm_type": "node", "name": "Will's Lifestyle.", "shop": "clothes"}, "geometry": {"type": "Point", "coordinates": [72.5956096, 23.1030052]}}, {"type": "Feature", "properties": {"osm_id": 10959748667, "osm_type": "node", "name": "Zudio-North Plaza Motera", "shop": "yes"}, "geometry": {"type": "Point", "coordinates": [72.5942029, 23.1020396]}}, {"type": "Feature", "properties": {"osm_id": 10959755469, "osm_type": "node", "name": "Go Colors Clothing", "shop": "yes"}, "geometry": {"type": "Point", "coordinates": [72.5946267, 23.1023326]}}, {"type": "Feature", "properties": {"osm_id": 10959757849, "osm_type": "node", "name": "Puma", "shop": "yes"}, "geometry": {"type": "Point", "coordinates": [72.5955664, 23.1031162]}}, {"type": "Feature", "properties": {"osm_id": 10959757850, "osm_type": "node", "name": "Bata Store", "shop": "yes"}, "geometry": {"type": "Point", "coordinates": [72.5957005, 23.1027979]}}, {"type": "Feature", "properties": {"osm_id": 10959757851, "osm_type": "node", "name": "Arrow Clothing Store", "shop": "yes"}, "geometry": {"type": "Point", "coordinates": [72.595789, 23.1029015]}}, {"type": "Feature", "properties": {"osm_id": 11277586272, "osm_type": "node", "name": "Permit Shop", "shop": "alcohol"}, "geometry": {"type": "Point", "coordinates": [72.5766929, 23.0318963]}}, {"type": "Feature", "properties": {"osm_id": 11277587923, "osm_type": "node", "name": "Permit Shop", "shop": "alcohol"}, "geometry": {"type": "Point", "coordinates": [72.5763187, 23.0334082]}}, {"type": "Feature", "properties": {"osm_id": 11278833442, "osm_type": "node", "name": "Permit Shop", "shop": "alcohol"}, "geometry": {"type": "Point", "coordinates": [72.5841727, 23.0653464]}}, {"type": "Feature", "properties": {"osm_id": 11278863976, "osm_type": "node", "name": "Permit Shop", "shop": "alcohol"}, "geometry": {"type": "Point", "coordinates": [72.629092, 23.1121131]}}, {"type": "Feature", "properties": {"osm_id": 11278874172, "osm_type": "node", "name": "Permit Shop", "shop": "alcohol"}, "geometry": {"type": "Point", "coordinates": [72.6166076, 23.0826062]}}, {"type": "Feature", "properties": {"osm_id": 11703829051, "osm_type": "node", "name": "Emprado Salon Nails Academy", "shop": "hairdresser"}, "geometry": {"type": "Point", "coordinates": [72.6599116, 23.0692579]}}, {"type": "Feature", "properties": {"osm_id": 11741415630, "osm_type": "node", "name": "FONEBOOK RTO SUBHASHBRIDGE", "shop": "mobile_phone"}, "geometry": {"type": "Point", "coordinates": [72.5838669, 23.0664532]}}, {"type": "Feature", "properties": {"osm_id": 12612453818, "osm_type": "node", "name": "Plant zone Nursery & Farm", "shop": "garden_centre"}, "geometry": {"type": "Point", "coordinates": [72.6172259, 23.117548]}}, {"type": "Feature", "properties": {"osm_id": 12612453820, "osm_type": "node", "name": "ALPESH NURSERY", "shop": "garden_centre"}, "geometry": {"type": "Point", "coordinates": [72.5953182, 23.0486272]}}, {"type": "Feature", "properties": {"osm_id": 12612453822, "osm_type": "node", "name": "Madhuvan Nursery", "shop": "garden_centre"}, "geometry": {"type": "Point", "coordinates": [72.6828073, 23.1299058]}}, {"type": "Feature", "properties": {"osm_id": 12612477936, "osm_type": "node", "name": "Maurya Nursery", "shop": "garden_centre"}, "geometry": {"type": "Point", "coordinates": [72.5872655, 23.113362]}}, {"type": "Feature", "properties": {"osm_id": 12827716395, "osm_type": "node", "name": "Book Shop", "shop": "gift"}, "geometry": {"type": "Point", "coordinates": [72.5803907, 23.0599407]}}, {"type": "Feature", "properties": {"osm_id": 12886030671, "osm_type": "node", "name": "Vardhman Group IND", "shop": "supermarket"}, "geometry": {"type": "Point", "coordinates": [72.6518607, 23.0504883]}}, {"type": "Feature", "properties": {"osm_id": 13302744602, "osm_type": "node", "name": "Safa Collection", "shop": "fabric"}, "geometry": {"type": "Point", "coordinates": [72.5868224, 23.0688643]}}, {"type": "Feature", "properties": {"osm_id": 13675036801, "osm_type": "node", "name": "Tatva Enterprise", "shop": "electrical"}, "geometry": {"type": "Point", "coordinates": [72.6396232, 23.0403387]}}, {"type": "Feature", "properties": {"osm_id": 13830120301, "osm_type": "node", "name": "OH KIDS", "shop": "baby_goods"}, "geometry": {"type": "Point", "coordinates": [72.6661964, 23.0505557]}}, {"type": "Feature", "properties": {"osm_id": 13830120302, "osm_type": "node", "name": "OH KIDS 2", "shop": "baby_goods"}, "geometry": {"type": "Point", "coordinates": [72.6703219, 23.0531521]}}, {"type": "Feature", "properties": {"osm_id": 13912046467, "osm_type": "node", "name": "Rich Holidays", "shop": "travel_agency"}, "geometry": {"type": "Point", "coordinates": [72.6424444, 23.0749393]}}, {"type": "Feature", "properties": {"osm_id": 551801616, "osm_type": "way", "name": "Kabhi B Bakery", "shop": "yes", "building": "yes"}, "geometry": {"type": "LineString", "coordinates": [[72.6226048, 23.0741678], [72.6225225, 23.0740866], [72.6225978, 23.074022], [72.6226801, 23.0741033], [72.6226048, 23.0741678]]}}, {"type": "Feature", "properties": {"osm_id": 551801617, "osm_type": "way", "name": "Dena Bank ATM", "shop": "yes", "building": "yes"}, "geometry": {"type": "LineString", "coordinates": [[72.6227075, 23.0742645], [72.6226253, 23.0741833], [72.6227006, 23.0741187], [72.6227828, 23.0741999], [72.6227075, 23.0742645]]}}, {"type": "Feature", "properties": {"osm_id": 551801618, "osm_type": "way", "name": "", "shop": "yes", "building": "yes"}, "geometry": {"type": "LineString", "coordinates": [[72.6228097, 23.0743612], [72.6227274, 23.0742799], [72.6228027, 23.0742154], [72.622885, 23.0742966], [72.6228097, 23.0743612]]}}, {"type": "Feature", "properties": {"osm_id": 1180004499, "osm_type": "way", "name": "Hello Stationary services", "shop": "stationery", "building": "yes"}, "geometry": {"type": "LineString", "coordinates": [[72.5827215, 23.1083866], [72.5827043, 23.1083173], [72.5827861, 23.1082955], [72.5827926, 23.1083727], [72.5827215, 23.1083866]]}}, {"type": "Feature", "properties": {"osm_id": 1180004827, "osm_type": "way", "name": "", "shop": "bakery", "building": "yes"}, "geometry": {"type": "LineString", "coordinates": [[72.5823403, 23.1083529], [72.5823188, 23.1082578], [72.5824071, 23.1082262], [72.5824373, 23.1083252], [72.5823403, 23.1083529]]}}, {"type": "Feature", "properties": {"osm_id": 1180005661, "osm_type": "way", "name": "", "shop": "confectionery", "building": "yes"}, "geometry": {"type": "LineString", "coordinates": [[72.5845994, 23.107933], [72.5845714, 23.1078181], [72.584692, 23.1077884], [72.5847221, 23.1078875], [72.5845994, 23.107933]]}}, {"type": "Feature", "properties": {"osm_id": 1180008371, "osm_type": "way", "name": "", "shop": "confectionery", "building": "yes"}, "geometry": {"type": "LineString", "coordinates": [[72.5912691, 23.1093731], [72.5915552, 23.1093788], [72.5915552, 23.1095485], [72.5912753, 23.109558], [72.5912691, 23.1093731]]}}, {"type": "Feature", "properties": {"osm_id": 1202579571, "osm_type": "way", "name": "", "shop": "laundry", "building": "yes"}, "geometry": {"type": "LineString", "coordinates": [[72.6143633, 23.1251572], [72.6143554, 23.1251195], [72.6143509, 23.1250981], [72.6144158, 23.1250865], [72.6144283, 23.1251457], [72.6143633, 23.1251572]]}}, {"type": "Feature", "properties": {"osm_id": 1289613623, "osm_type": "way", "name": "", "shop": "car_repair", "building": "retail"}, "geometry": {"type": "LineString", "coordinates": [[72.593304, 23.0827019], [72.593428, 23.0827271], [72.5934958, 23.0824452], [72.5933966, 23.082425], [72.5933879, 23.0824613], [72.5933625, 23.0824561], [72.5933503, 23.0825068], [72.5933923, 23.0825154], [72.5933621, 23.0826409], [72.5933206, 23.0826325], [72.593304, 23.0827019]]}}]}