{"type": "FeatureCollection", "features": [{"type": "Feature", "geometry": {"type": "Point", "coordinates": [72.49549284166801, 23.080047962296387]}, "properties": {"objectid": 1, "name": "Science City", "ward": "08_THALTEJ", "zone": "NORTH-WEST ZONE", "ward_id": 8, "zone_id": 6}}, {"type": "Feature", "geometry": {"type": "Point", "coordinates": [72.50477831629092, 22.992338514144347]}, "properties": {"objectid": 2, "name": "Sarkhej Roza", "ward": "33_SARKHEJ", "zone": "SOUTH-WEST ZONE", "ward_id": 33, "zone_id": 7}}, {"type": "Feature", "geometry": {"type": "Point", "coordinates": [72.58096525162006, 23.027029370962968]}, "properties": {"objectid": 3, "name": "Sidi Sayeed Masjid", "ward": "29_JAMALPUR", "zone": "CENTRAL ZONE", "ward_id": 29, "zone_id": 1}}, {"type": "Feature", "geometry": {"type": "Point", "coordinates": [72.5887883034247, 23.023322352829297]}, "properties": {"objectid": 4, "name": "Manek Chowk", "ward": "28_KHADIA", "zone": "CENTRAL ZONE", "ward_id": 28, "zone_id": 1}}, {"type": "Feature", "geometry": {"type": "Point", "coordinates": [72.58713317974193, 23.023864392627335]}, "properties": {"objectid": 5, "name": "Heritage Walk", "ward": "28_KHADIA", "zone": "CENTRAL ZONE", "ward_id": 28, "zone_id": 1}}, {"type": "Feature", "geometry": {"type": "Point", "coordinates": [72.58908630411167, 23.023769045038538]}, "properties": {"objectid": 6, "name": "Rani no Hajiro", "ward": "28_KHADIA", "zone": "CENTRAL ZONE", "ward_id": 28, "zone_id": 1}}, {"type": "Feature", "geometry": {"type": "Point", "coordinates": [72.59971405026727, 23.023624086070672]}, "properties": {"objectid": 7, "name": "Jhulta Minara", "ward": "28_KHADIA", "zone": "CENTRAL ZONE", "ward_id": 28, "zone_id": 1}}, {"type": "Feature", "geometry": {"type": "Point", "coordinates": [72.58778594898175, 23.02388796829683]}, "properties": {"objectid": 8, "name": "Badshah no Hajiro", "ward": "28_KHADIA", "zone": "CENTRAL ZONE", "ward_id": 28, "zone_id": 1}}, {"type": "Feature", "geometry": {"type": "Point", "coordinates": [72.58966268220259, 23.040998124607707]}, "properties": {"objectid": 9, "name": "Hutheesing Jain Temple", "ward": "16_SHAHIBAG", "zone": "CENTRAL ZONE", "ward_id": 16, "zone_id": 1}}, {"type": "Feature", "geometry": {"type": "Point", "coordinates": [72.53597086866891, 22.993261666830133]}, "properties": {"objectid": 10, "name": "Vishala", "ward": "31_VASNA", "zone": "WEST ZONE", "ward_id": 31, "zone_id": 5}}, {"type": "Feature", "geometry": {"type": "Point", "coordinates": [72.60519205295158, 23.040722228317954]}, "properties": {"objectid": 11, "name": "Dada Harir Vav (Stepwell)", "ward": "15_ASARWA", "zone": "CENTRAL ZONE", "ward_id": 15, "zone_id": 1}}, {"type": "Feature", "geometry": {"type": "Point", "coordinates": [72.56612954579393, 23.039596222948635]}, "properties": {"objectid": 12, "name": "Walled city and gates", "ward": "18_NAVRANGPURA", "zone": "WEST ZONE", "ward_id": 18, "zone_id": 5}}, {"type": "Feature", "geometry": {"type": "Point", "coordinates": [72.55013069441168, 23.03754458456802]}, "properties": {"objectid": 13, "name": "CEPT Campus", "ward": "18_NAVRANGPURA", "zone": "WEST ZONE", "ward_id": 18, "zone_id": 5}}, {"type": "Feature", "geometry": {"type": "Point", "coordinates": [72.55045110591387, 23.033622407026588]}, "properties": {"objectid": 14, "name": "Institute of Indology", "ward": "18_NAVRANGPURA", "zone": "WEST ZONE", "ward_id": 18, "zone_id": 5}}, {"type": "Feature", "geometry": {"type": "Point", "coordinates": [72.56620994437786, 23.03744664070077]}, "properties": {"objectid": 15, "name": "Kanoria Centre for Arts", "ward": "18_NAVRANGPURA", "zone": "WEST ZONE", "ward_id": 18, "zone_id": 5}}]}