{"type": "FeatureCollection", "features": [{"type": "Feature", "properties": {"osm_id": 322983346, "osm_type": "node", "name": "Vastrapur"}, "geometry": {"type": "Point", "coordinates": [72.5174367, 23.0079064]}}, {"type": "Feature", "properties": {"osm_id": 440310550, "osm_type": "node", "name": "Paldi Bus Stand", "amenity": "bus_station"}, "geometry": {"type": "Point", "coordinates": [72.5645878, 23.0140725]}}, {"type": "Feature", "properties": {"osm_id": 631801190, "osm_type": "node", "name": "", "highway": "bus_stop"}, "geometry": {"type": "Point", "coordinates": [72.5689346, 23.0119174]}}, {"type": "Feature", "properties": {"osm_id": 1545721824, "osm_type": "node", "name": "Sarkhej"}, "geometry": {"type": "Point", "coordinates": [72.4975186, 22.9821021]}}, {"type": "Feature", "properties": {"osm_id": 2265925489, "osm_type": "node", "name": "Bimanagar / Jhansi Ki Rani", "highway": "bus_stop"}, "geometry": {"type": "Point", "coordinates": [72.53633, 23.0230285]}}, {"type": "Feature", "properties": {"osm_id": 2265925490, "osm_type": "node", "name": "Nehru Nagar", "highway": "bus_stop"}, "geometry": {"type": "Point", "coordinates": [72.5416944, 23.0225299]}}, {"type": "Feature", "properties": {"osm_id": 2265925492, "osm_type": "node", "name": "", "highway": "bus_stop"}, "geometry": {"type": "Point", "coordinates": [72.5312229, 23.0242856]}}, {"type": "Feature", "properties": {"osm_id": 2265926056, "osm_type": "node", "name": "Manek Baug", "highway": "bus_stop"}, "geometry": {"type": "Point", "coordinates": [72.5440487, 23.0183103]}}, {"type": "Feature", "properties": {"osm_id": 2265953631, "osm_type": "node", "name": "Anjali Cross Road", "highway": "bus_stop"}, "geometry": {"type": "Point", "coordinates": [72.5538743, 23.003723]}}, {"type": "Feature", "properties": {"osm_id": 2265953644, "osm_type": "node", "name": "National Cloth Factory", "highway": "bus_stop"}, "geometry": {"type": "Point", "coordinates": [72.570209, 22.9955236]}}, {"type": "Feature", "properties": {"osm_id": 2265953651, "osm_type": "node", "name": "Dharnidhar", "highway": "bus_stop"}, "geometry": {"type": "Point", "coordinates": [72.5492824, 23.0082114]}}, {"type": "Feature", "properties": {"osm_id": 2265953652, "osm_type": "node", "name": "Chandranagar BRT", "highway": "bus_stop"}, "geometry": {"type": "Point", "coordinates": [72.5580988, 22.9997529]}}, {"type": "Feature", "properties": {"osm_id": 4590687293, "osm_type": "node", "name": "Kadambari Society", "highway": "bus_stop"}, "geometry": {"type": "Point", "coordinates": [72.5310458, 23.0060914]}}, {"type": "Feature", "properties": {"osm_id": 5327118488, "osm_type": "node", "name": "", "highway": "bus_stop"}, "geometry": {"type": "Point", "coordinates": [72.531215, 23.0243207]}}, {"type": "Feature", "properties": {"osm_id": 5327118489, "osm_type": "node", "name": "", "highway": "bus_stop"}, "geometry": {"type": "Point", "coordinates": [72.5313857, 23.0243186]}}, {"type": "Feature", "properties": {"osm_id": 5327118490, "osm_type": "node", "name": "Shivranjani", "highway": "bus_stop"}, "geometry": {"type": "Point", "coordinates": [72.5313961, 23.0242849]}}, {"type": "Feature", "properties": {"osm_id": 6758793148, "osm_type": "node", "name": "Sanathal"}, "geometry": {"type": "Point", "coordinates": [72.4704112, 22.9645191]}}, {"type": "Feature", "properties": {"osm_id": 6759274176, "osm_type": "node", "name": "Moraiya"}, "geometry": {"type": "Point", "coordinates": [72.4407996, 22.9306513]}}, {"type": "Feature", "properties": {"osm_id": 10177919684, "osm_type": "node", "name": "South Bopal BRTS Terminal", "highway": "bus_stop"}, "geometry": {"type": "Point", "coordinates": [72.4656001, 23.0161011]}}, {"type": "Feature", "properties": {"osm_id": 328733432, "osm_type": "way", "name": "Vasna Bus Station", "amenity": "bus_station"}, "geometry": {"type": "LineString", "coordinates": [[72.5472985, 23.0023332], [72.5477978, 23.0025487], [72.5479953, 23.0019748], [72.5477249, 23.0019076], [72.5472741, 23.0023024], [72.5472985, 23.0023332]]}}, {"type": "Feature", "properties": {"osm_id": 551617841, "osm_type": "way", "name": "Shivranjani", "amenity": "bus_station", "building": "yes"}, "geometry": {"type": "LineString", "coordinates": [[72.5311092, 23.0243275], [72.5314364, 23.024324], [72.5314591, 23.0243024], [72.5314816, 23.0242811], [72.5311528, 23.0242827], [72.5311301, 23.024306], [72.5311092, 23.0243275]]}}, {"type": "Feature", "properties": {"osm_id": 1101028012, "osm_type": "way", "name": "APMC", "building": "train_station"}, "geometry": {"type": "LineString", "coordinates": [[72.5375021, 22.9972061], [72.5373119, 22.9971267], [72.5367422, 22.9982829], [72.5369325, 22.9983623], [72.5375021, 22.9972061]]}}, {"type": "Feature", "properties": {"osm_id": 1101058050, "osm_type": "way", "name": "Shreyas", "building": "train_station"}, "geometry": {"type": "LineString", "coordinates": [[72.5486276, 23.0132703], [72.5498979, 23.0137404], [72.5498173, 23.013925], [72.548547, 23.0134549], [72.5486276, 23.0132703]]}}, {"type": "Feature", "properties": {"osm_id": 1101058051, "osm_type": "way", "name": "Rajiv Nagar", "building": "train_station"}, "geometry": {"type": "LineString", "coordinates": [[72.5360887, 23.009561], [72.5360665, 23.0097512], [72.5374159, 23.0098848], [72.5374381, 23.0096947], [72.5360887, 23.009561]]}}, {"type": "Feature", "properties": {"osm_id": 1101058052, "osm_type": "way", "name": "Jivraj Park", "building": "train_station"}, "geometry": {"type": "LineString", "coordinates": [[72.533691, 23.0048853], [72.5338829, 23.004969], [72.5332947, 23.0061124], [72.5331027, 23.0060287], [72.533691, 23.0048853]]}}, {"type": "Feature", "properties": {"osm_id": 1198140896, "osm_type": "way", "name": "Paldi", "building": "train_station"}, "geometry": {"type": "LineString", "coordinates": [[72.5617307, 23.0183563], [72.5618022, 23.0181912], [72.5623831, 23.0183702], [72.5630846, 23.0186584], [72.5630189, 23.0188194], [72.5617307, 23.0183563]]}}, {"type": "Feature", "properties": {"osm_id": 323120091, "osm_type": "node", "name": "Maninagar"}, "geometry": {"type": "Point", "coordinates": [72.6114013, 22.9986596]}}, {"type": "Feature", "properties": {"osm_id": 2265953635, "osm_type": "node", "name": "Rambaug", "highway": "bus_stop"}, "geometry": {"type": "Point", "coordinates": [72.6006692, 22.9999238]}}, {"type": "Feature", "properties": {"osm_id": 2265953636, "osm_type": "node", "name": "Amarkunj /Swaminarayan College", "highway": "bus_stop"}, "geometry": {"type": "Point", "coordinates": [72.5870103, 23.0013898]}}, {"type": "Feature", "properties": {"osm_id": 2265953637, "osm_type": "node", "name": "Bhairavnath", "highway": "bus_stop"}, "geometry": {"type": "Point", "coordinates": [72.5990646, 22.995457]}}, {"type": "Feature", "properties": {"osm_id": 2265953638, "osm_type": "node", "name": "Swaminarayan Mandir", "highway": "bus_stop"}, "geometry": {"type": "Point", "coordinates": [72.6117044, 22.9948853]}}, {"type": "Feature", "properties": {"osm_id": 2265953639, "osm_type": "node", "name": "Shah Alam", "highway": "bus_stop"}, "geometry": {"type": "Point", "coordinates": [72.5829655, 22.9998665]}}, {"type": "Feature", "properties": {"osm_id": 2265953642, "osm_type": "node", "name": "Jawahar Chowk", "highway": "bus_stop"}, "geometry": {"type": "Point", "coordinates": [72.6050988, 22.9951368]}}, {"type": "Feature", "properties": {"osm_id": 2265953643, "osm_type": "node", "name": "Maninagar", "highway": "bus_stop"}, "geometry": {"type": "Point", "coordinates": [72.6064312, 22.9972369]}}, {"type": "Feature", "properties": {"osm_id": 2265953647, "osm_type": "node", "name": "Gokulnath Chowk /Meera Cinema Char Rasta", "highway": "bus_stop"}, "geometry": {"type": "Point", "coordinates": [72.5932198, 22.9990894]}}, {"type": "Feature", "properties": {"osm_id": 2265953648, "osm_type": "node", "name": "Kankaria Lake", "highway": "bus_stop"}, "geometry": {"type": "Point", "coordinates": [72.5990158, 23.0031799]}}, {"type": "Feature", "properties": {"osm_id": 2265953649, "osm_type": "node", "name": "Maninagar Railway Station", "highway": "bus_stop"}, "geometry": {"type": "Point", "coordinates": [72.6113755, 22.9978049]}}, {"type": "Feature", "properties": {"osm_id": 2265953650, "osm_type": "node", "name": "Kankaria Telephone Exchange", "highway": "bus_stop"}, "geometry": {"type": "Point", "coordinates": [72.5928227, 23.0024169]}}, {"type": "Feature", "properties": {"osm_id": 2265953653, "osm_type": "node", "name": "Dani Limda", "highway": "bus_stop"}, "geometry": {"type": "Point", "coordinates": [72.5774026, 22.9964913]}}, {"type": "Feature", "properties": {"osm_id": 3306683481, "osm_type": "node", "name": "", "highway": "bus_stop"}, "geometry": {"type": "Point", "coordinates": [72.5860957, 23.0197224]}}, {"type": "Feature", "properties": {"osm_id": 3316875855, "osm_type": "node", "name": "", "highway": "bus_stop"}, "geometry": {"type": "Point", "coordinates": [72.579101, 23.0220727]}}, {"type": "Feature", "properties": {"osm_id": 3333487128, "osm_type": "node", "name": "Maninagar Bus stop", "amenity": "bus_station"}, "geometry": {"type": "Point", "coordinates": [72.6259649, 22.99746]}}, {"type": "Feature", "properties": {"osm_id": 3333942359, "osm_type": "node", "name": "Maninagar Railway Station", "amenity": "bus_station"}, "geometry": {"type": "Point", "coordinates": [72.6109437, 22.9986995]}}, {"type": "Feature", "properties": {"osm_id": 3333960611, "osm_type": "node", "name": "", "highway": "bus_stop"}, "geometry": {"type": "Point", "coordinates": [72.5953013, 22.9739626]}}, {"type": "Feature", "properties": {"osm_id": 3333960612, "osm_type": "node", "name": "", "highway": "bus_stop"}, "geometry": {"type": "Point", "coordinates": [72.5952484, 22.9740487]}}, {"type": "Feature", "properties": {"osm_id": 3333960613, "osm_type": "node", "name": "", "highway": "bus_stop"}, "geometry": {"type": "Point", "coordinates": [72.6023816, 22.9761795]}}, {"type": "Feature", "properties": {"osm_id": 3333960614, "osm_type": "node", "name": "", "highway": "bus_stop"}, "geometry": {"type": "Point", "coordinates": [72.6023401, 22.9762426]}}, {"type": "Feature", "properties": {"osm_id": 3333960615, "osm_type": "node", "name": "", "highway": "bus_stop"}, "geometry": {"type": "Point", "coordinates": [72.6101868, 22.9784932]}}, {"type": "Feature", "properties": {"osm_id": 3333960616, "osm_type": "node", "name": "", "highway": "bus_stop"}, "geometry": {"type": "Point", "coordinates": [72.610175, 22.9785615]}}, {"type": "Feature", "properties": {"osm_id": 3336777167, "osm_type": "node", "name": "Ahmedabad", "amenity": "bus_station"}, "geometry": {"type": "Point", "coordinates": [72.5984903, 23.0218734]}}, {"type": "Feature", "properties": {"osm_id": 3355794772, "osm_type": "node", "name": "Lal Darwaja AMTS Bus Stop", "amenity": "bus_station"}, "geometry": {"type": "Point", "coordinates": [72.5785562, 23.0241902]}}, {"type": "Feature", "properties": {"osm_id": 4398457021, "osm_type": "node", "name": "Vatva"}, "geometry": {"type": "Point", "coordinates": [72.6297981, 22.9589978]}}, {"type": "Feature", "properties": {"osm_id": 4525895498, "osm_type": "node", "name": "Geratpur"}, "geometry": {"type": "Point", "coordinates": [72.6551837, 22.9168572]}}, {"type": "Feature", "properties": {"osm_id": 5445054647, "osm_type": "node", "name": "Maninagar Railway stop", "highway": "bus_stop"}, "geometry": {"type": "Point", "coordinates": [72.6113064, 22.9977864]}}, {"type": "Feature", "properties": {"osm_id": 5445054648, "osm_type": "node", "name": "Lala LAjpat marg", "highway": "bus_stop"}, "geometry": {"type": "Point", "coordinates": [72.6104161, 22.9979864]}}, {"type": "Feature", "properties": {"osm_id": 5445054650, "osm_type": "node", "name": "Rambaug Post office", "highway": "bus_stop"}, "geometry": {"type": "Point", "coordinates": [72.6013622, 22.9989051]}}, {"type": "Feature", "properties": {"osm_id": 5540117734, "osm_type": "node", "name": "Maninagr Railway Station", "highway": "bus_stop"}, "geometry": {"type": "Point", "coordinates": [72.6113901, 22.9978087]}}, {"type": "Feature", "properties": {"osm_id": 5540117735, "osm_type": "node", "name": "Maninagar Cross Road", "highway": "bus_stop"}, "geometry": {"type": "Point", "coordinates": [72.606434, 22.9972438]}}, {"type": "Feature", "properties": {"osm_id": 5540117736, "osm_type": "node", "name": "Rambaug", "highway": "bus_stop"}, "geometry": {"type": "Point", "coordinates": [72.6006742, 22.9999248]}}, {"type": "Feature", "properties": {"osm_id": 5540117738, "osm_type": "node", "name": "Kankaria Telephone exchange", "amenity": "bus_station"}, "geometry": {"type": "Point", "coordinates": [72.5928352, 23.0024253]}}, {"type": "Feature", "properties": {"osm_id": 7944287415, "osm_type": "node", "name": "Kalupur Railway Station"}, "geometry": {"type": "Point", "coordinates": [72.6031447, 23.0246913]}}, {"type": "Feature", "properties": {"osm_id": 7944287418, "osm_type": "node", "name": "Kankaria East"}, "geometry": {"type": "Point", "coordinates": [72.6070016, 23.0154573]}}, {"type": "Feature", "properties": {"osm_id": 13324639919, "osm_type": "node", "name": "Soni ni Chali", "highway": "bus_stop"}, "geometry": {"type": "Point", "coordinates": [72.6384382, 23.0205533]}}, {"type": "Feature", "properties": {"osm_id": 13324639920, "osm_type": "node", "name": "Geeta Gauri Cinema", "highway": "bus_stop"}, "geometry": {"type": "Point", "coordinates": [72.6384534, 23.0174077]}}, {"type": "Feature", "properties": {"osm_id": 13324639921, "osm_type": "node", "name": "Rameshwar Park", "highway": "bus_stop"}, "geometry": {"type": "Point", "coordinates": [72.6384727, 23.0136638]}}, {"type": "Feature", "properties": {"osm_id": 13324639922, "osm_type": "node", "name": "Ram Rajya Nagar", "highway": "bus_stop"}, "geometry": {"type": "Point", "coordinates": [72.6381291, 23.0080678]}}, {"type": "Feature", "properties": {"osm_id": 13324639923, "osm_type": "node", "name": "Rabari Colony", "highway": "bus_stop"}, "geometry": {"type": "Point", "coordinates": [72.6369046, 23.0043839]}}, {"type": "Feature", "properties": {"osm_id": 13324639924, "osm_type": "node", "name": "Jogeshwari Society", "highway": "bus_stop"}, "geometry": {"type": "Point", "coordinates": [72.6356334, 23.0005139]}}, {"type": "Feature", "properties": {"osm_id": 13324639925, "osm_type": "node", "name": "Purvdeep Society", "highway": "bus_stop"}, "geometry": {"type": "Point", "coordinates": [72.6342048, 22.9961731]}}, {"type": "Feature", "properties": {"osm_id": 13324639926, "osm_type": "node", "name": "CTM Cross Road", "highway": "bus_stop"}, "geometry": {"type": "Point", "coordinates": [72.6317678, 22.9913284]}}, {"type": "Feature", "properties": {"osm_id": 13324639927, "osm_type": "node", "name": "Express Highway Junction", "highway": "bus_stop"}, "geometry": {"type": "Point", "coordinates": [72.6276786, 22.9873084]}}, {"type": "Feature", "properties": {"osm_id": 13324639928, "osm_type": "node", "name": "Jashodanagar Char Rasta", "highway": "bus_stop"}, "geometry": {"type": "Point", "coordinates": [72.6239988, 22.983866]}}, {"type": "Feature", "properties": {"osm_id": 13324639929, "osm_type": "node", "name": "Ghodasar", "highway": "bus_stop"}, "geometry": {"type": "Point", "coordinates": [72.6101796, 22.9785228]}}, {"type": "Feature", "properties": {"osm_id": 13324639930, "osm_type": "node", "name": "Isanpur", "highway": "bus_stop"}, "geometry": {"type": "Point", "coordinates": [72.6023849, 22.976216]}}, {"type": "Feature", "properties": {"osm_id": 13324639931, "osm_type": "node", "name": "Mukesh Industries", "highway": "bus_stop"}, "geometry": {"type": "Point", "coordinates": [72.5953065, 22.9740123]}}, {"type": "Feature", "properties": {"osm_id": 13324639932, "osm_type": "node", "name": "Narol", "highway": "bus_stop"}, "geometry": {"type": "Point", "coordinates": [72.5895984, 22.9729765]}}, {"type": "Feature", "properties": {"osm_id": 13324639933, "osm_type": "node", "name": "Kashiram Textiles", "highway": "bus_stop"}, "geometry": {"type": "Point", "coordinates": [72.5867831, 22.9768712]}}, {"type": "Feature", "properties": {"osm_id": 13324639934, "osm_type": "node", "name": "Chandola Octroi Naka", "highway": "bus_stop"}, "geometry": {"type": "Point", "coordinates": [72.5857084, 22.9821643]}}, {"type": "Feature", "properties": {"osm_id": 13324639935, "osm_type": "node", "name": "Chandola Lake", "highway": "bus_stop"}, "geometry": {"type": "Point", "coordinates": [72.5826202, 22.9864945]}}, {"type": "Feature", "properties": {"osm_id": 13324639936, "osm_type": "node", "name": "Chhipa Society", "highway": "bus_stop"}, "geometry": {"type": "Point", "coordinates": [72.5816699, 22.9915528]}}, {"type": "Feature", "properties": {"osm_id": 13324639937, "osm_type": "node", "name": "Danilimda Road", "highway": "bus_stop"}, "geometry": {"type": "Point", "coordinates": [72.5791374, 22.9961364]}}, {"type": "Feature", "properties": {"osm_id": 37231778, "osm_type": "way", "name": "Gita Mandir Bus Station", "amenity": "bus_station"}, "geometry": {"type": "LineString", "coordinates": [[72.5911098, 23.0152028], [72.591032, 23.0155286], [72.5910391, 23.0158967], [72.5911034, 23.0164873], [72.5912131, 23.0166127], [72.5914803, 23.0166638], [72.5914769, 23.016459], [72.5926712, 23.0164071], [72.5926381, 23.0157838], [72.5925892, 23.0152582], [72.5924477, 23.0150107], [72.5922495, 23.0148119], [72.5918352, 23.0144829], [72.5915972, 23.0143324], [72.5914019, 23.0143069], [72.5912958, 23.0143872], [72.5912276, 23.0145776], [72.5911098, 23.0152028]]}}, {"type": "Feature", "properties": {"osm_id": 314450134, "osm_type": "way", "name": "Gujarat State Road Transport Corporation | Bus Station | Gita Mandir", "amenity": "bus_station"}, "geometry": {"type": "LineString", "coordinates": [[72.5914071, 23.0139585], [72.5914355, 23.0138705], [72.5917894, 23.0134112], [72.5919026, 23.0131376], [72.5920053, 23.0131148], [72.5923663, 23.0131636], [72.5925468, 23.0132092], [72.5927556, 23.0132549], [72.593067, 23.0133363], [72.593159, 23.0134242], [72.5933093, 23.0135901], [72.5933749, 23.0136848], [72.5934422, 23.0138542], [72.5934811, 23.0140399], [72.5934811, 23.0142223], [72.593513, 23.0148054], [72.5934068, 23.0148706], [72.5932086, 23.0149194], [72.5931024, 23.0149553], [72.5929184, 23.0149911], [72.5928087, 23.0150335], [72.5927025, 23.0150758], [72.5926459, 23.0150921], [72.5925857, 23.0150009], [72.5925538, 23.0149292], [72.5924547, 23.0147794], [72.5923663, 23.0146686], [72.5922495, 23.0145741], [72.5920761, 23.0144373], [72.5918956, 23.0143298], [72.5916513, 23.0141409], [72.5914071, 23.0139585]]}}, {"type": "Feature", "properties": {"osm_id": 328753119, "osm_type": "way", "name": "Lal Darwaja AMTS Bus Stop", "amenity": "bus_station"}, "geometry": {"type": "LineString", "coordinates": [[72.5778594, 23.0249613], [72.5789963, 23.0249899], [72.578985, 23.0241902], [72.5779771, 23.0241592], [72.5778905, 23.0241565], [72.5778594, 23.0249613]]}}, {"type": "Feature", "properties": {"osm_id": 1198140890, "osm_type": "way", "name": "Vastral Gam", "building": "train_station"}, "geometry": {"type": "LineString", "coordinates": [[72.6666921, 22.9973124], [72.6668198, 22.9975487], [72.6680899, 22.9969669], [72.6679622, 22.9967306], [72.6666921, 22.9973124]]}}, {"type": "Feature", "properties": {"osm_id": 1198140891, "osm_type": "way", "name": "Nirant Cross Roads", "building": "train_station"}, "geometry": {"type": "LineString", "coordinates": [[72.6581964, 22.9999293], [72.6582929, 23.0001021], [72.6595817, 22.9995207], [72.6594745, 22.9993318], [72.6581964, 22.9999293]]}}, {"type": "Feature", "properties": {"osm_id": 1198140892, "osm_type": "way", "name": "Vastral", "building": "train_station"}, "geometry": {"type": "LineString", "coordinates": [[72.6468962, 23.0036688], [72.6469463, 23.0038477], [72.6482921, 23.003529], [72.6482421, 23.00335], [72.6468962, 23.0036688]]}}, {"type": "Feature", "properties": {"osm_id": 1198140893, "osm_type": "way", "name": "Rabari Colony", "building": "train_station"}, "geometry": {"type": "LineString", "coordinates": [[72.6347177, 23.0056156], [72.636019, 23.0051462], [72.636095, 23.0053248], [72.6347937, 23.0057943], [72.6347177, 23.0056156]]}}, {"type": "Feature", "properties": {"osm_id": 1198140894, "osm_type": "way", "name": "Amraiwadi", "building": "train_station"}, "geometry": {"type": "LineString", "coordinates": [[72.62805, 23.007849], [72.6281449, 23.0080338], [72.6294059, 23.0074854], [72.6293111, 23.0073006], [72.62805, 23.007849]]}}, {"type": "Feature", "properties": {"osm_id": 1198140895, "osm_type": "way", "name": "Apparel Park", "building": "train_station"}, "geometry": {"type": "LineString", "coordinates": [[72.6173005, 23.0105209], [72.6173024, 23.0108258], [72.6187192, 23.0108183], [72.6187173, 23.0105134], [72.6173005, 23.0105209]]}}, {"type": "Feature", "properties": {"osm_id": 1349429275, "osm_type": "node", "name": "D-cabin", "amenity": "bus_station"}, "geometry": {"type": "Point", "coordinates": [72.5702646, 23.1023628]}}, {"type": "Feature", "properties": {"osm_id": 1952514121, "osm_type": "node", "name": "Nava-Vadaj", "highway": "bus_stop"}, "geometry": {"type": "Point", "coordinates": [72.5624497, 23.0682646]}}, {"type": "Feature", "properties": {"osm_id": 2211705413, "osm_type": "node", "name": "GST Crossing 1 (AMTS)", "highway": "bus_stop"}, "geometry": {"type": "Point", "coordinates": [72.5661042, 23.0844751]}}, {"type": "Feature", "properties": {"osm_id": 2265925488, "osm_type": "node", "name": "GMDC", "highway": "bus_stop"}, "geometry": {"type": "Point", "coordinates": [72.5386288, 23.0397128]}}, {"type": "Feature", "properties": {"osm_id": 2265925491, "osm_type": "node", "name": "IIM", "highway": "bus_stop"}, "geometry": {"type": "Point", "coordinates": [72.5360081, 23.0346324]}}, {"type": "Feature", "properties": {"osm_id": 2265925493, "osm_type": "node", "name": "Himmatlal Park", "highway": "bus_stop"}, "geometry": {"type": "Point", "coordinates": [72.532414, 23.0297528]}}, {"type": "Feature", "properties": {"osm_id": 2288824667, "osm_type": "node", "name": "AMTS", "highway": "bus_stop"}, "geometry": {"type": "Point", "coordinates": [72.5321646, 23.0660707]}}, {"type": "Feature", "properties": {"osm_id": 2288824668, "osm_type": "node", "name": "Gulab Tower", "highway": "bus_stop"}, "geometry": {"type": "Point", "coordinates": [72.5255748, 23.0631171]}}, {"type": "Feature", "properties": {"osm_id": 2376612715, "osm_type": "node", "name": "Ambli Road"}, "geometry": {"type": "Point", "coordinates": [72.4934085, 23.0535306]}}, {"type": "Feature", "properties": {"osm_id": 3161575026, "osm_type": "node", "name": "Navrangpura", "amenity": "bus_station"}, "geometry": {"type": "Point", "coordinates": [72.5641854, 23.0355882]}}, {"type": "Feature", "properties": {"osm_id": 3415672552, "osm_type": "node", "name": "GMDC", "highway": "bus_stop"}, "geometry": {"type": "Point", "coordinates": [72.5385489, 23.0397496]}}, {"type": "Feature", "properties": {"osm_id": 3415672553, "osm_type": "node", "name": "Memnagar", "highway": "bus_stop"}, "geometry": {"type": "Point", "coordinates": [72.5424176, 23.0455534]}}, {"type": "Feature", "properties": {"osm_id": 3415672554, "osm_type": "node", "name": "Memnagar", "highway": "bus_stop"}, "geometry": {"type": "Point", "coordinates": [72.5424739, 23.0455543]}}, {"type": "Feature", "properties": {"osm_id": 4376679089, "osm_type": "node", "name": "Bus stop Riverside School", "highway": "bus_stop"}, "geometry": {"type": "Point", "coordinates": [72.5258779, 23.0530366]}}, {"type": "Feature", "properties": {"osm_id": 4485407989, "osm_type": "node", "name": "Iscon ST bus stop", "highway": "bus_stop"}, "geometry": {"type": "Point", "coordinates": [72.5085005, 23.0315615]}}, {"type": "Feature", "properties": {"osm_id": 4585304001, "osm_type": "node", "name": "Chandlodiya", "highway": "bus_stop"}, "geometry": {"type": "Point", "coordinates": [72.5512141, 23.0847978]}}, {"type": "Feature", "properties": {"osm_id": 4585304002, "osm_type": "node", "name": "JUNA VADAJ", "highway": "bus_stop"}, "geometry": {"type": "Point", "coordinates": [72.5620316, 23.0670122]}}, {"type": "Feature", "properties": {"osm_id": 4588982754, "osm_type": "node", "name": "Pvt travels Sahjanand Travels", "highway": "bus_stop"}, "geometry": {"type": "Point", "coordinates": [72.5252397, 23.025739]}}, {"type": "Feature", "properties": {"osm_id": 4588990189, "osm_type": "node", "name": "Shree Sahjanand Travels", "highway": "bus_stop"}, "geometry": {"type": "Point", "coordinates": [72.525333, 23.02562]}}, {"type": "Feature", "properties": {"osm_id": 5545191206, "osm_type": "node", "name": "ISRO , Ahmedabad", "highway": "bus_stop"}, "geometry": {"type": "Point", "coordinates": [72.5177376, 23.027686]}}, {"type": "Feature", "properties": {"osm_id": 5545191207, "osm_type": "node", "name": "Ramdev Nagar", "highway": "bus_stop"}, "geometry": {"type": "Point", "coordinates": [72.5126258, 23.0275153]}}, {"type": "Feature", "properties": {"osm_id": 5545191837, "osm_type": "node", "name": "ISKCON Mandir", "highway": "bus_stop"}, "geometry": {"type": "Point", "coordinates": [72.5049454, 23.0274858]}}, {"type": "Feature", "properties": {"osm_id": 5545191838, "osm_type": "node", "name": "Antariksh Colony", "highway": "bus_stop"}, "geometry": {"type": "Point", "coordinates": [72.5009162, 23.0277628]}}, {"type": "Feature", "properties": {"osm_id": 5711617727, "osm_type": "node", "name": "Little Wings BRTS stop", "highway": "bus_stop"}, "geometry": {"type": "Point", "coordinates": [72.4596133, 23.0320762]}}, {"type": "Feature", "properties": {"osm_id": 5711622445, "osm_type": "node", "name": "Ghuma BRTS terminal", "amenity": "bus_station"}, "geometry": {"type": "Point", "coordinates": [72.4483279, 23.0309359]}}, {"type": "Feature", "properties": {"osm_id": 5711634722, "osm_type": "node", "name": "AMTS Ghuma Bus terminal", "amenity": "bus_station"}, "geometry": {"type": "Point", "coordinates": [72.4501878, 23.030556]}}, {"type": "Feature", "properties": {"osm_id": 5725638703, "osm_type": "node", "name": "Chandlodiya"}, "geometry": {"type": "Point", "coordinates": [72.5440359, 23.0751633]}}, {"type": "Feature", "properties": {"osm_id": 5725639222, "osm_type": "node", "name": "Gora Ghuma"}, "geometry": {"type": "Point", "coordinates": [72.4517314, 23.038673]}}, {"type": "Feature", "properties": {"osm_id": 6738428335, "osm_type": "node", "name": "Chandlodiya 'B'"}, "geometry": {"type": "Point", "coordinates": [72.5408184, 23.0807984]}}, {"type": "Feature", "properties": {"osm_id": 7556326461, "osm_type": "node", "name": "Chandkheda Road"}, "geometry": {"type": "Point", "coordinates": [72.5637712, 23.1103339]}}, {"type": "Feature", "properties": {"osm_id": 8153542476, "osm_type": "node", "name": "Bopal gam", "amenity": "bus_station"}, "geometry": {"type": "Point", "coordinates": [72.4641074, 23.0340108]}}, {"type": "Feature", "properties": {"osm_id": 8153545458, "osm_type": "node", "name": "Sterling City", "amenity": "bus_station"}, "geometry": {"type": "Point", "coordinates": [72.4691519, 23.0323222]}}, {"type": "Feature", "properties": {"osm_id": 8157583232, "osm_type": "node", "name": "Bopal gam", "highway": "bus_stop"}, "geometry": {"type": "Point", "coordinates": [72.4640698, 23.0340068]}}, {"type": "Feature", "properties": {"osm_id": 12406995811, "osm_type": "node", "name": "Thaltej"}, "geometry": {"type": "Point", "coordinates": [72.5160152, 23.049748]}}, {"type": "Feature", "properties": {"osm_id": 12408894281, "osm_type": "node", "name": "Thaltej Gam"}, "geometry": {"type": "Point", "coordinates": [72.5070123, 23.0502062]}}, {"type": "Feature", "properties": {"osm_id": 13116047286, "osm_type": "node", "name": "", "highway": "bus_stop"}, "geometry": {"type": "Point", "coordinates": [72.4421495, 23.0549257]}}, {"type": "Feature", "properties": {"osm_id": 13831008601, "osm_type": "node", "name": "Sola bridge BRTS", "highway": "bus_stop"}, "geometry": {"type": "Point", "coordinates": [72.52929, 23.0651818]}}, {"type": "Feature", "properties": {"osm_id": 13831023302, "osm_type": "node", "name": "Bhadaj circle BRTS", "highway": "bus_stop"}, "geometry": {"type": "Point", "coordinates": [72.4951871, 23.0830981]}}, {"type": "Feature", "properties": {"osm_id": 323895527, "osm_type": "way", "name": "Nava vadej bus stop", "amenity": "bus_station"}, "geometry": {"type": "LineString", "coordinates": [[72.5707345, 23.0550775], [72.5710037, 23.0554847], [72.5714643, 23.0554581], [72.5713577, 23.0546836], [72.5707345, 23.0550775]]}}, {"type": "Feature", "properties": {"osm_id": 328553143, "osm_type": "way", "name": "Helmet Cross Roads Bus Station", "amenity": "bus_station"}, "geometry": {"type": "LineString", "coordinates": [[72.5427303, 23.0448741], [72.5427158, 23.0448502], [72.5425335, 23.0445504], [72.5427722, 23.0443847], [72.542412, 23.0438914], [72.5418174, 23.0442267], [72.5421859, 23.0447943], [72.5422382, 23.044854], [72.5423241, 23.0449041], [72.5424099, 23.0449446], [72.5427303, 23.0448741]]}}, {"type": "Feature", "properties": {"osm_id": 378473414, "osm_type": "way", "name": "Parasnagar BRTS stand", "amenity": "bus_station", "building": "yes"}, "geometry": {"type": "LineString", "coordinates": [[72.5430445, 23.0556105], [72.5431317, 23.0556303], [72.5434174, 23.0554822], [72.5433356, 23.0554588], [72.5430445, 23.0556105]]}}, {"type": "Feature", "properties": {"osm_id": 378473566, "osm_type": "way", "name": "Sola cross road BRTS stand", "amenity": "bus_station", "building": "yes"}, "geometry": {"type": "LineString", "coordinates": [[72.5467949, 23.0528519], [72.5468527, 23.0528992], [72.546811, 23.0525854], [72.5467534, 23.052594], [72.5467949, 23.0528519]]}}, {"type": "Feature", "properties": {"osm_id": 972959138, "osm_type": "way", "name": "Iskcon Cross Road BRTS", "amenity": "bus_station", "building": "yes"}, "geometry": {"type": "LineString", "coordinates": [[72.5083304, 23.0271344], [72.5083951, 23.0271908], [72.5087157, 23.0271722], [72.5086614, 23.0271137], [72.5083304, 23.0271344]]}}, {"type": "Feature", "properties": {"osm_id": 972959139, "osm_type": "way", "name": "Ashok Vatika BRTS", "amenity": "bus_station", "building": "yes"}, "geometry": {"type": "LineString", "coordinates": [[72.4955607, 23.0279715], [72.4955042, 23.0279113], [72.4958522, 23.0279058], [72.4958998, 23.0279619], [72.4955607, 23.0279715]]}}, {"type": "Feature", "properties": {"osm_id": 972959140, "osm_type": "way", "name": "Jaintilal Park BRTS", "amenity": "bus_station", "building": "yes"}, "geometry": {"type": "LineString", "coordinates": [[72.4908775, 23.0284747], [72.4908237, 23.0284288], [72.4911335, 23.0283744], [72.4911952, 23.0284215], [72.4908775, 23.0284747]]}}, {"type": "Feature", "properties": {"osm_id": 972959141, "osm_type": "way", "name": "Swagat Bunglows BRTS", "amenity": "bus_station", "building": "yes"}, "geometry": {"type": "LineString", "coordinates": [[72.4857362, 23.0278668], [72.4857154, 23.0278393], [72.4857461, 23.0278086], [72.4860205, 23.0278917], [72.4860539, 23.0279582], [72.4857362, 23.0278668]]}}, {"type": "Feature", "properties": {"osm_id": 972959142, "osm_type": "way", "name": "Ambli Gam BRTS", "amenity": "bus_station", "building": "yes"}, "geometry": {"type": "LineString", "coordinates": [[72.4820434, 23.0264288], [72.482029, 23.0263978], [72.4820567, 23.0263827], [72.4823287, 23.0264815], [72.4823563, 23.0265408], [72.4820434, 23.0264288]]}}, {"type": "Feature", "properties": {"osm_id": 972959143, "osm_type": "way", "name": "Bopal Appoach BRTS", "amenity": "bus_station", "building": "yes"}, "geometry": {"type": "LineString", "coordinates": [[72.4777571, 23.0258557], [72.4777333, 23.0258242], [72.4777541, 23.0258119], [72.4780516, 23.0258379], [72.4780947, 23.0258844], [72.4777571, 23.0258557]]}}, {"type": "Feature", "properties": {"osm_id": 1101058047, "osm_type": "way", "name": "Ranip", "building": "train_station"}, "geometry": {"type": "LineString", "coordinates": [[72.5733936, 23.0677604], [72.5747675, 23.0677962], [72.574774, 23.0675877], [72.5734, 23.0675519], [72.5733936, 23.0677604]]}}, {"type": "Feature", "properties": {"osm_id": 1107146505, "osm_type": "way", "name": "Gandhigram", "building": "train_station"}, "geometry": {"type": "LineString", "coordinates": [[72.5687769, 23.0264671], [72.5689736, 23.026466], [72.5689752, 23.0267287], [72.5691659, 23.0267277], [72.5691643, 23.0264699], [72.5692688, 23.0264693], [72.5692707, 23.026784], [72.5689756, 23.0267855], [72.5689762, 23.0268916], [72.5690608, 23.0268912], [72.5690632, 23.0272911], [72.5689786, 23.0272915], [72.5689924, 23.027725], [72.5687903, 23.0277211], [72.5687769, 23.0264671]]}}, {"type": "Feature", "properties": {"osm_id": 1198134736, "osm_type": "way", "name": "Stadium", "building": "train_station"}, "geometry": {"type": "LineString", "coordinates": [[72.5609867, 23.0398033], [72.5623495, 23.0396952], [72.5623668, 23.0398794], [72.561004, 23.0399876], [72.5609867, 23.0398033]]}}, {"type": "Feature", "properties": {"osm_id": 1198134737, "osm_type": "way", "name": "Commerce Sixth Road", "building": "train_station"}, "geometry": {"type": "LineString", "coordinates": [[72.5523362, 23.0409555], [72.55246, 23.0411316], [72.5536098, 23.040447], [72.553486, 23.040271], [72.5523362, 23.0409555]]}}, {"type": "Feature", "properties": {"osm_id": 1198134738, "osm_type": "way", "name": "Gurukul Road", "building": "train_station"}, "geometry": {"type": "LineString", "coordinates": [[72.5341796, 23.0459778], [72.5355656, 23.0459879], [72.5355673, 23.045788], [72.5341813, 23.0457779], [72.5341796, 23.0459778]]}}, {"type": "Feature", "properties": {"osm_id": 1198134739, "osm_type": "way", "name": "Doordarshan Kendra", "building": "train_station"}, "geometry": {"type": "LineString", "coordinates": [[72.5237275, 23.0482054], [72.5237724, 23.0484041], [72.5251142, 23.0481474], [72.5250693, 23.0479487], [72.5237275, 23.0482054]]}}, {"type": "Feature", "properties": {"osm_id": 1198134744, "osm_type": "way", "name": "Vadaj", "building": "train_station"}, "geometry": {"type": "LineString", "coordinates": [[72.5650688, 23.0677618], [72.5664508, 23.0677478], [72.5664487, 23.0675725], [72.5650667, 23.0675866], [72.5650688, 23.0677618]]}}, {"type": "Feature", "properties": {"osm_id": 1198134745, "osm_type": "way", "name": "Vijay Nagar", "building": "train_station"}, "geometry": {"type": "LineString", "coordinates": [[72.5620674, 23.0567843], [72.562298, 23.0568324], [72.5626105, 23.0555997], [72.5623946, 23.0555503], [72.5620674, 23.0567843]]}}, {"type": "Feature", "properties": {"osm_id": 1198134747, "osm_type": "way", "name": "Usmanpura", "building": "train_station"}, "geometry": {"type": "LineString", "coordinates": [[72.5647203, 23.0464305], [72.5649329, 23.0464759], [72.5652438, 23.0452437], [72.5650312, 23.0451983], [72.5647203, 23.0464305]]}}, {"type": "Feature", "properties": {"osm_id": 1198134751, "osm_type": "way", "name": "Gujarat University Station", "building": "train_station"}, "geometry": {"type": "LineString", "coordinates": [[72.5428768, 23.0450736], [72.5442267, 23.0448257], [72.5441825, 23.0446218], [72.5431678, 23.0448081], [72.5428326, 23.0448697], [72.5428768, 23.0450736]]}}, {"type": "Feature", "properties": {"osm_id": 1198134752, "osm_type": "way", "name": "Old High Court", "building": "train_station"}, "geometry": {"type": "LineString", "coordinates": [[72.5665397, 23.0377036], [72.5667411, 23.0376749], [72.5666808, 23.0378896], [72.5669543, 23.037939], [72.5670482, 23.0376218], [72.5678975, 23.0375296], [72.5678733, 23.0373697], [72.5670844, 23.0374613], [72.5672668, 23.0367011], [72.5669932, 23.0366394], [72.566776, 23.0375058], [72.5665155, 23.0375437], [72.5665397, 23.0377036]]}}, {"type": "Feature", "properties": {"osm_id": 322770856, "osm_type": "node", "name": "Naroda"}, "geometry": {"type": "Point", "coordinates": [72.6580946, 23.0854097]}}, {"type": "Feature", "properties": {"osm_id": 323189766, "osm_type": "node", "name": "Sabarmati"}, "geometry": {"type": "Point", "coordinates": [72.5890677, 23.0770712]}}, {"type": "Feature", "properties": {"osm_id": 566222693, "osm_type": "node", "name": "Asarva"}, "geometry": {"type": "Point", "coordinates": [72.6132157, 23.0440925]}}, {"type": "Feature", "properties": {"osm_id": 566223451, "osm_type": "node", "name": "Sardargram"}, "geometry": {"type": "Point", "coordinates": [72.6424393, 23.0715012]}}, {"type": "Feature", "properties": {"osm_id": 611572689, "osm_type": "node", "name": "Acher", "highway": "bus_stop"}, "geometry": {"type": "Point", "coordinates": [72.5883112, 23.0987428]}}, {"type": "Feature", "properties": {"osm_id": 611572692, "osm_type": "node", "name": "Gujarat Stadium (Motera)", "highway": "bus_stop"}, "geometry": {"type": "Point", "coordinates": [72.5951643, 23.0945534]}}, {"type": "Feature", "properties": {"osm_id": 611572694, "osm_type": "node", "name": "Shiv Shakti Nagar", "highway": "bus_stop"}, "geometry": {"type": "Point", "coordinates": [72.584599, 23.1104959]}}, {"type": "Feature", "properties": {"osm_id": 611572695, "osm_type": "node", "name": "Chandkheda Bus Depo", "highway": "bus_stop"}, "geometry": {"type": "Point", "coordinates": [72.5832285, 23.1151091]}}, {"type": "Feature", "properties": {"osm_id": 611572696, "osm_type": "node", "name": "Janta Nagar (Parshwanath Nagar)", "highway": "bus_stop"}, "geometry": {"type": "Point", "coordinates": [72.5856397, 23.1071309]}}, {"type": "Feature", "properties": {"osm_id": 611572697, "osm_type": "node", "name": "ONGC Bus Depo", "highway": "bus_stop"}, "geometry": {"type": "Point", "coordinates": [72.5867663, 23.1036376]}}, {"type": "Feature", "properties": {"osm_id": 611573336, "osm_type": "node", "name": "Police Stadium", "highway": "bus_stop"}, "geometry": {"type": "Point", "coordinates": [72.5884185, 23.0563204]}}, {"type": "Feature", "properties": {"osm_id": 611573340, "osm_type": "node", "name": "Subhash Bridge", "highway": "bus_stop"}, "geometry": {"type": "Point", "coordinates": [72.5837193, 23.0655502]}}, {"type": "Feature", "properties": {"osm_id": 611573343, "osm_type": "node", "name": "RTO Circle", "highway": "bus_stop"}, "geometry": {"type": "Point", "coordinates": [72.5808869, 23.0684819]}}, {"type": "Feature", "properties": {"osm_id": 611573366, "osm_type": "node", "name": "Shahibaug Underbridge", "highway": "bus_stop"}, "geometry": {"type": "Point", "coordinates": [72.5904999, 23.0527171]}}, {"type": "Feature", "properties": {"osm_id": 1349429257, "osm_type": "node", "name": "Kali Road"}, "geometry": {"type": "Point", "coordinates": [72.5780885, 23.0980898]}}, {"type": "Feature", "properties": {"osm_id": 1349429278, "osm_type": "node", "name": "Vallabhpark", "amenity": "bus_station"}, "geometry": {"type": "Point", "coordinates": [72.576519, 23.101524]}}, {"type": "Feature", "properties": {"osm_id": 2669084968, "osm_type": "node", "name": "Ahmedabad Junction"}, "geometry": {"type": "Point", "coordinates": [72.601, 23.0263312]}}, {"type": "Feature", "properties": {"osm_id": 3231323519, "osm_type": "node", "name": "Airport Circle bus stop", "highway": "bus_stop"}, "geometry": {"type": "Point", "coordinates": [72.6167476, 23.0813883]}}, {"type": "Feature", "properties": {"osm_id": 3335600154, "osm_type": "node", "name": "Krishna Nagar Bus Statiom", "amenity": "bus_station"}, "geometry": {"type": "Point", "coordinates": [72.6558075, 23.0770964]}}, {"type": "Feature", "properties": {"osm_id": 3393851425, "osm_type": "node", "name": "Meghaninagar", "highway": "bus_stop"}, "geometry": {"type": "Point", "coordinates": [72.6180264, 23.0594578]}}, {"type": "Feature", "properties": {"osm_id": 4210649810, "osm_type": "node", "name": "Bhavsar Hostel", "highway": "bus_stop"}, "geometry": {"type": "Point", "coordinates": [72.5756845, 23.0676729]}}, {"type": "Feature", "properties": {"osm_id": 4481510492, "osm_type": "node", "name": "Hanspura Bus stop", "highway": "bus_stop"}, "geometry": {"type": "Point", "coordinates": [72.6800838, 23.0847663]}}, {"type": "Feature", "properties": {"osm_id": 4486398588, "osm_type": "node", "name": "Sabarmati Junction"}, "geometry": {"type": "Point", "coordinates": [72.5870272, 23.0712603]}}, {"type": "Feature", "properties": {"osm_id": 4702938189, "osm_type": "node", "name": "Bus to Udaipur", "highway": "bus_stop"}, "geometry": {"type": "Point", "coordinates": [72.643304, 23.0655907]}}, {"type": "Feature", "properties": {"osm_id": 4794246527, "osm_type": "node", "name": "Ranip Bus stop", "highway": "bus_stop"}, "geometry": {"type": "Point", "coordinates": [72.5771961, 23.081039]}}, {"type": "Feature", "properties": {"osm_id": 7020233387, "osm_type": "node", "name": "", "amenity": "bus_station"}, "geometry": {"type": "Point", "coordinates": [72.5895319, 23.0430359]}}, {"type": "Feature", "properties": {"osm_id": 7944287421, "osm_type": "node", "name": "Shahpur Station"}, "geometry": {"type": "Point", "coordinates": [72.5810327, 23.0392105]}}, {"type": "Feature", "properties": {"osm_id": 7944287424, "osm_type": "node", "name": "Gheekanta"}, "geometry": {"type": "Point", "coordinates": [72.5867752, 23.028794]}}, {"type": "Feature", "properties": {"osm_id": 12196641344, "osm_type": "node", "name": "Juna Koba"}, "geometry": {"type": "Point", "coordinates": [72.6386122, 23.1419718]}}, {"type": "Feature", "properties": {"osm_id": 12196641345, "osm_type": "node", "name": "Koba Circle"}, "geometry": {"type": "Point", "coordinates": [72.631042, 23.1322508]}}, {"type": "Feature", "properties": {"osm_id": 12196641346, "osm_type": "node", "name": "Narmada Canal"}, "geometry": {"type": "Point", "coordinates": [72.6220979, 23.1251457]}}, {"type": "Feature", "properties": {"osm_id": 12196641347, "osm_type": "node", "name": "Tapovan Circle"}, "geometry": {"type": "Point", "coordinates": [72.6157987, 23.1201271]}}, {"type": "Feature", "properties": {"osm_id": 12196641348, "osm_type": "node", "name": "Vishwakarma College"}, "geometry": {"type": "Point", "coordinates": [72.6083864, 23.1141999]}}, {"type": "Feature", "properties": {"osm_id": 12196641349, "osm_type": "node", "name": "Koteshwar Road"}, "geometry": {"type": "Point", "coordinates": [72.6021329, 23.1031114]}}, {"type": "Feature", "properties": {"osm_id": 12196641362, "osm_type": "node", "name": "AEC"}, "geometry": {"type": "Point", "coordinates": [72.593291, 23.0751088]}}, {"type": "Feature", "properties": {"osm_id": 12196641364, "osm_type": "node", "name": "Sabarmati"}, "geometry": {"type": "Point", "coordinates": [72.592206, 23.0856303]}}, {"type": "Feature", "properties": {"osm_id": 12196641366, "osm_type": "node", "name": "Motera Stadium"}, "geometry": {"type": "Point", "coordinates": [72.596692, 23.0967726]}}, {"type": "Feature", "properties": {"osm_id": 12912651330, "osm_type": "node", "name": "", "highway": "bus_stop"}, "geometry": {"type": "Point", "coordinates": [72.6100622, 23.0523056]}}, {"type": "Feature", "properties": {"osm_id": 12912651331, "osm_type": "node", "name": "", "highway": "bus_stop"}, "geometry": {"type": "Point", "coordinates": [72.6101214, 23.0521516]}}, {"type": "Feature", "properties": {"osm_id": 13081325157, "osm_type": "node", "name": "Mahapragnaji Bridge Approach", "highway": "bus_stop"}, "geometry": {"type": "Point", "coordinates": [72.5952154, 23.0528796]}}, {"type": "Feature", "properties": {"osm_id": 13324639910, "osm_type": "node", "name": "Naroda S.T. Workshop", "highway": "bus_stop"}, "geometry": {"type": "Point", "coordinates": [72.6429675, 23.0642483]}}, {"type": "Feature", "properties": {"osm_id": 13324639911, "osm_type": "node", "name": "Dhanush Dhari Mandir", "highway": "bus_stop"}, "geometry": {"type": "Point", "coordinates": [72.6429405, 23.0598077]}}, {"type": "Feature", "properties": {"osm_id": 13324639912, "osm_type": "node", "name": "Nada Chiloda", "highway": "bus_stop"}, "geometry": {"type": "Point", "coordinates": [72.6424602, 23.0549301]}}, {"type": "Feature", "properties": {"osm_id": 13324639913, "osm_type": "node", "name": "Vijay Park", "highway": "bus_stop"}, "geometry": {"type": "Point", "coordinates": [72.6418538, 23.0513889]}}, {"type": "Feature", "properties": {"osm_id": 13324639914, "osm_type": "node", "name": "Hirawadi", "highway": "bus_stop"}, "geometry": {"type": "Point", "coordinates": [72.6409989, 23.0456662]}}, {"type": "Feature", "properties": {"osm_id": 13324639915, "osm_type": "node", "name": "Thakkar Nagar Approach", "highway": "bus_stop"}, "geometry": {"type": "Point", "coordinates": [72.640553, 23.0412083]}}, {"type": "Feature", "properties": {"osm_id": 13324639916, "osm_type": "node", "name": "Lilanagar", "highway": "bus_stop"}, "geometry": {"type": "Point", "coordinates": [72.6400507, 23.0369762]}}, {"type": "Feature", "properties": {"osm_id": 13324639917, "osm_type": "node", "name": "Bapunagar Approach", "highway": "bus_stop"}, "geometry": {"type": "Point", "coordinates": [72.6392784, 23.0326239]}}, {"type": "Feature", "properties": {"osm_id": 13324639918, "osm_type": "node", "name": "Viratnagar", "highway": "bus_stop"}, "geometry": {"type": "Point", "coordinates": [72.6388022, 23.0275605]}}, {"type": "Feature", "properties": {"osm_id": 13582340756, "osm_type": "node", "name": "Sakar School Bus Stop", "highway": "bus_stop"}, "geometry": {"type": "Point", "coordinates": [72.5909683, 23.1091079]}}, {"type": "Feature", "properties": {"osm_id": 13582340757, "osm_type": "node", "name": "Sakar School Bus Stop", "highway": "bus_stop"}, "geometry": {"type": "Point", "coordinates": [72.5910153, 23.1092205]}}, {"type": "Feature", "properties": {"osm_id": 13582340758, "osm_type": "node", "name": "Swagat Bungalows Bus Stop", "highway": "bus_stop"}, "geometry": {"type": "Point", "coordinates": [72.5927065, 23.1093569]}}, {"type": "Feature", "properties": {"osm_id": 13582340759, "osm_type": "node", "name": "Swagat Bungalows Bus Stop", "highway": "bus_stop"}, "geometry": {"type": "Point", "coordinates": [72.5929077, 23.1091859]}}, {"type": "Feature", "properties": {"osm_id": 13971550301, "osm_type": "node", "name": "Krishnanagar bus stop", "highway": "bus_stop"}, "geometry": {"type": "Point", "coordinates": [72.643691, 23.060079]}}, {"type": "Feature", "properties": {"osm_id": 451501638, "osm_type": "way", "name": "Ranip GSRTC", "amenity": "bus_station", "building": "commercial"}, "geometry": {"type": "LineString", "coordinates": [[72.5751406, 23.0680167], [72.5751543, 23.0683951], [72.5752003, 23.0687527], [72.5762092, 23.0685867], [72.5762282, 23.0687399], [72.5764392, 23.0686493], [72.5761685, 23.068016], [72.5751406, 23.0680167]]}}, {"type": "Feature", "properties": {"osm_id": 1015046805, "osm_type": "way", "name": "Naroda Gam", "amenity": "bus_station", "building": "yes"}, "geometry": {"type": "LineString", "coordinates": [[72.6555914, 23.0771262], [72.6556064, 23.0770393], [72.6559819, 23.0770768], [72.655954, 23.0771735], [72.6555914, 23.0771262]]}}, {"type": "Feature", "properties": {"osm_id": 1317807984, "osm_type": "way", "name": "Koba Gam", "building": "train_station"}, "geometry": {"type": "LineString", "coordinates": [[72.643496, 23.1471251], [72.6436663, 23.1470368], [72.6443149, 23.1480946], [72.6441447, 23.1481828], [72.643496, 23.1471251]]}}]}