{"type": "FeatureCollection", "features": [{"type": "Feature", "properties": {"osm_id": 440015515, "osm_type": "node", "name": "Jalaram Mandir", "amenity": "place_of_worship", "religion": "hindu"}, "geometry": {"type": "Point", "coordinates": [72.5617653, 23.0180339]}}, {"type": "Feature", "properties": {"osm_id": 440310522, "osm_type": "node", "name": "Bhimnath Mahadev, Shiv Temple", "amenity": "place_of_worship", "religion": "hindu"}, "geometry": {"type": "Point", "coordinates": [72.5499794, 23.0119553]}}, {"type": "Feature", "properties": {"osm_id": 627507832, "osm_type": "node", "name": "", "amenity": "place_of_worship", "religion": "hindu"}, "geometry": {"type": "Point", "coordinates": [72.5705432, 23.0110649]}}, {"type": "Feature", "properties": {"osm_id": 631807606, "osm_type": "node", "name": "Temple", "amenity": "place_of_worship", "religion": "hindu"}, "geometry": {"type": "Point", "coordinates": [72.5666935, 23.0151595]}}, {"type": "Feature", "properties": {"osm_id": 631807628, "osm_type": "node", "name": "", "amenity": "place_of_worship", "religion": "hindu"}, "geometry": {"type": "Point", "coordinates": [72.5682822, 23.0141905]}}, {"type": "Feature", "properties": {"osm_id": 1789829562, "osm_type": "node", "name": "", "amenity": "place_of_worship"}, "geometry": {"type": "Point", "coordinates": [72.5651766, 23.0034536]}}, {"type": "Feature", "properties": {"osm_id": 2528008220, "osm_type": "node", "name": "Rehoboth Christian Assembly", "amenity": "place_of_worship", "building": "yes", "religion": "christian"}, "geometry": {"type": "Point", "coordinates": [72.5368761, 23.0010208]}}, {"type": "Feature", "properties": {"osm_id": 4326498895, "osm_type": "node", "name": "Swaminarayan ", "amenity": "place_of_worship"}, "geometry": {"type": "Point", "coordinates": [72.5522649, 23.0055252]}}, {"type": "Feature", "properties": {"osm_id": 4487915190, "osm_type": "node", "name": "Jama Masjid", "amenity": "place_of_worship", "building": "mosque", "religion": "muslim"}, "geometry": {"type": "Point", "coordinates": [72.5054614, 22.9933887]}}, {"type": "Feature", "properties": {"osm_id": 4488285392, "osm_type": "node", "name": "Changodar", "amenity": "place_of_worship"}, "geometry": {"type": "Point", "coordinates": [72.4567127, 22.9402206]}}, {"type": "Feature", "properties": {"osm_id": 4572530872, "osm_type": "node", "name": "", "amenity": "place_of_worship"}, "geometry": {"type": "Point", "coordinates": [72.5386698, 23.0072825]}}, {"type": "Feature", "properties": {"osm_id": 5425923225, "osm_type": "node", "name": "Prerna Tirth Derasar", "amenity": "place_of_worship", "religion": "jain"}, "geometry": {"type": "Point", "coordinates": [72.5198974, 23.0214082]}}, {"type": "Feature", "properties": {"osm_id": 7157714220, "osm_type": "node", "name": "Shahi Masjid - Dargah Hazrat Ali Sher Bangali", "amenity": "place_of_worship", "religion": "muslim"}, "geometry": {"type": "Point", "coordinates": [72.5651855, 23.0104389]}}, {"type": "Feature", "properties": {"osm_id": 367941383, "osm_type": "way", "name": "Bileshwar Mahadev", "amenity": "place_of_worship", "building": "yes", "religion": "hindu"}, "geometry": {"type": "LineString", "coordinates": [[72.5280934, 23.0163108], [72.5282511, 23.0163066], [72.5282477, 23.0161966], [72.5280899, 23.0162008], [72.5280934, 23.0163108]]}}, {"type": "Feature", "properties": {"osm_id": 368569027, "osm_type": "way", "name": "Vaijanath Mahadev Mandir", "amenity": "place_of_worship", "building": "yes", "religion": "hindu"}, "geometry": {"type": "LineString", "coordinates": [[72.5136231, 23.0020853], [72.5136253, 23.0021512], [72.5137451, 23.002148], [72.513743, 23.002082], [72.5136231, 23.0020853]]}}, {"type": "Feature", "properties": {"osm_id": 472449240, "osm_type": "way", "name": "", "amenity": "place_of_worship", "building": "yes"}, "geometry": {"type": "LineString", "coordinates": [[72.5488646, 23.0040051], [72.5489934, 23.0040569], [72.549106, 23.0038693], [72.5489612, 23.0037952], [72.5488646, 23.0040051]]}}, {"type": "Feature", "properties": {"osm_id": 499625055, "osm_type": "way", "name": "Sarkhej Roza", "amenity": "place_of_worship", "religion": "muslim"}, "geometry": {"type": "LineString", "coordinates": [[72.5044934, 22.9931883], [72.5044989, 22.9934126], [72.5045143, 22.9940451], [72.5062874, 22.9939457], [72.5062646, 22.9929541], [72.5062607, 22.9927855], [72.5059677, 22.9928197], [72.5053335, 22.9928366], [72.5053387, 22.9931616], [72.5044934, 22.9931883]]}}, {"type": "Feature", "properties": {"osm_id": 499625056, "osm_type": "way", "name": "", "amenity": "place_of_worship", "building": "yes", "religion": "muslim"}, "geometry": {"type": "LineString", "coordinates": [[72.5035303, 22.9882791], [72.5030626, 22.9883153], [72.5030528, 22.9883606], [72.502979, 22.9883652], [72.5029445, 22.9878168], [72.5035155, 22.9877851], [72.5035303, 22.9882791]]}}, {"type": "Feature", "properties": {"osm_id": 499625057, "osm_type": "way", "name": "", "amenity": "place_of_worship", "religion": "muslim"}, "geometry": {"type": "LineString", "coordinates": [[72.507521, 22.9839987], [72.5068499, 22.9838819], [72.5068499, 22.9829843], [72.5071471, 22.9828736], [72.5076045, 22.9828582], [72.507521, 22.9839987]]}}, {"type": "Feature", "properties": {"osm_id": 794910703, "osm_type": "way", "name": "", "amenity": "place_of_worship", "building": "yes"}, "geometry": {"type": "LineString", "coordinates": [[72.5547103, 22.9818423], [72.5550442, 22.9812817], [72.5548806, 22.981183], [72.5545293, 22.9817546], [72.5547103, 22.9818423]]}}, {"type": "Feature", "properties": {"osm_id": 1008895293, "osm_type": "way", "name": "BAPS Swaminarayan Temple Paldi", "amenity": "place_of_worship", "building": "yes", "religion": "hindu"}, "geometry": {"type": "LineString", "coordinates": [[72.557462, 23.0029587], [72.5576042, 23.0030316], [72.5576699, 23.0029834], [72.5578094, 23.003034], [72.5578657, 23.0029414], [72.5577275, 23.0028748], [72.557749, 23.0028143], [72.5575948, 23.0027353], [72.5575492, 23.0028131], [72.5574794, 23.0027773], [72.5574325, 23.0028884], [72.5574888, 23.0029069], [72.557462, 23.0029587]]}}, {"type": "Feature", "properties": {"osm_id": 1009015719, "osm_type": "way", "name": "Derasar", "amenity": "place_of_worship", "religion": "jain"}, "geometry": {"type": "LineString", "coordinates": [[72.5512286, 23.0212171], [72.5512782, 23.0212189], [72.5512862, 23.0212344], [72.5513003, 23.0212436], [72.5513197, 23.021248], [72.5513425, 23.0212449], [72.551368, 23.0212331], [72.5513794, 23.0212134], [72.5513828, 23.0212029], [72.5513794, 23.0211702], [72.5513667, 23.0211455], [72.5513291, 23.021135], [72.5512929, 23.0211344], [72.5512782, 23.0211511], [72.5512292, 23.0211523], [72.5512286, 23.0212171]]}}, {"type": "Feature", "properties": {"osm_id": 1199739135, "osm_type": "way", "name": "Dharnidhar Derasar", "amenity": "place_of_worship", "building": "temple", "religion": "jain"}, "geometry": {"type": "LineString", "coordinates": [[72.548412, 23.0083797], [72.5484491, 23.0082681], [72.5488213, 23.0083872], [72.5488179, 23.0084578], [72.5487489, 23.0085291], [72.5485591, 23.0084659], [72.5485702, 23.0084324], [72.548412, 23.0083797]]}}, {"type": "Feature", "properties": {"osm_id": 440375393, "osm_type": "node", "name": "Jagannath Mandir, Temple", "amenity": "place_of_worship"}, "geometry": {"type": "Point", "coordinates": [72.5810755, 23.0114213]}}, {"type": "Feature", "properties": {"osm_id": 631823295, "osm_type": "node", "name": "", "amenity": "place_of_worship", "religion": "jain"}, "geometry": {"type": "Point", "coordinates": [72.590076, 23.0238654]}}, {"type": "Feature", "properties": {"osm_id": 831349759, "osm_type": "node", "name": "Manikarnikeshwar Mahadev Temple", "amenity": "place_of_worship", "religion": "hindu"}, "geometry": {"type": "Point", "coordinates": [72.6073978, 22.9978398]}}, {"type": "Feature", "properties": {"osm_id": 2377178386, "osm_type": "node", "name": "", "amenity": "place_of_worship", "religion": "muslim"}, "geometry": {"type": "Point", "coordinates": [72.5824724, 23.0246727]}}, {"type": "Feature", "properties": {"osm_id": 2377178504, "osm_type": "node", "name": "", "amenity": "place_of_worship", "religion": "hindu"}, "geometry": {"type": "Point", "coordinates": [72.5896206, 23.0173101]}}, {"type": "Feature", "properties": {"osm_id": 2524135729, "osm_type": "node", "name": "Punit Ashram", "amenity": "place_of_worship", "religion": "hindu"}, "geometry": {"type": "Point", "coordinates": [72.605685, 23.0024214]}}, {"type": "Feature", "properties": {"osm_id": 2598103763, "osm_type": "node", "name": "Shree Swaminarayan Temple Gadi Sansthan", "amenity": "place_of_worship", "religion": "hindu"}, "geometry": {"type": "Point", "coordinates": [72.6107331, 22.9955398]}}, {"type": "Feature", "properties": {"osm_id": 2599148924, "osm_type": "node", "name": "Ambaji Mata Temple", "amenity": "place_of_worship", "religion": "hindu"}, "geometry": {"type": "Point", "coordinates": [72.6083788, 22.9912494]}}, {"type": "Feature", "properties": {"osm_id": 2599227097, "osm_type": "node", "name": "Baba Ramdev Pir Temple", "amenity": "place_of_worship", "religion": "hindu"}, "geometry": {"type": "Point", "coordinates": [72.605944, 22.992009]}}, {"type": "Feature", "properties": {"osm_id": 2599227796, "osm_type": "node", "name": "Ram Krishna Temple", "amenity": "place_of_worship", "religion": "hindu"}, "geometry": {"type": "Point", "coordinates": [72.6062149, 22.9916559]}}, {"type": "Feature", "properties": {"osm_id": 2599227999, "osm_type": "node", "name": "Shiv Mandir (Temple of Lord Shiva)", "amenity": "place_of_worship", "religion": "hindu"}, "geometry": {"type": "Point", "coordinates": [72.6063779, 22.9915288]}}, {"type": "Feature", "properties": {"osm_id": 3204972673, "osm_type": "node", "name": "Khamasa Parsi Agiyari", "amenity": "place_of_worship", "religion": "zoroastrian"}, "geometry": {"type": "Point", "coordinates": [72.5847376, 23.0212928]}}, {"type": "Feature", "properties": {"osm_id": 4486861230, "osm_type": "node", "name": "Shah E Alam Roza", "amenity": "place_of_worship", "religion": "muslim"}, "geometry": {"type": "Point", "coordinates": [72.5895788, 22.9940973]}}, {"type": "Feature", "properties": {"osm_id": 4488303682, "osm_type": "node", "name": "Lambha Mandir", "amenity": "place_of_worship"}, "geometry": {"type": "Point", "coordinates": [72.5798073, 22.9413497]}}, {"type": "Feature", "properties": {"osm_id": 4488549715, "osm_type": "node", "name": "Bhadra Kali Temple", "amenity": "place_of_worship", "religion": "hindu"}, "geometry": {"type": "Point", "coordinates": [72.5814992, 23.0239807]}}, {"type": "Feature", "properties": {"osm_id": 4637012145, "osm_type": "node", "name": "Mahadev Temple", "amenity": "place_of_worship", "religion": "hindu"}, "geometry": {"type": "Point", "coordinates": [72.6321146, 22.9853608]}}, {"type": "Feature", "properties": {"osm_id": 4637012146, "osm_type": "node", "name": "Chamunda Mata Temple", "amenity": "place_of_worship", "religion": "hindu"}, "geometry": {"type": "Point", "coordinates": [72.6310124, 22.9861602]}}, {"type": "Feature", "properties": {"osm_id": 4637012147, "osm_type": "node", "name": "Saibaba Temple", "amenity": "place_of_worship", "religion": "hindu"}, "geometry": {"type": "Point", "coordinates": [72.6300604, 22.9866323]}}, {"type": "Feature", "properties": {"osm_id": 4637095783, "osm_type": "node", "name": "Mahadev Temple", "amenity": "place_of_worship"}, "geometry": {"type": "Point", "coordinates": [72.6248105, 22.9831015]}}, {"type": "Feature", "properties": {"osm_id": 4637095971, "osm_type": "node", "name": "Temple", "amenity": "place_of_worship"}, "geometry": {"type": "Point", "coordinates": [72.6295687, 22.9849403]}}, {"type": "Feature", "properties": {"osm_id": 6899043130, "osm_type": "node", "name": "Visa Hanuman", "amenity": "place_of_worship", "religion": "hindu"}, "geometry": {"type": "Point", "coordinates": [72.5937955, 23.0228973]}}, {"type": "Feature", "properties": {"osm_id": 7088275193, "osm_type": "node", "name": "Hatkeshwar mandir", "amenity": "place_of_worship", "religion": "hindu"}, "geometry": {"type": "Point", "coordinates": [72.5938375, 23.0233183]}}, {"type": "Feature", "properties": {"osm_id": 7088275226, "osm_type": "node", "name": "Dwarkadhish mandir", "amenity": "place_of_worship", "religion": "hindu"}, "geometry": {"type": "Point", "coordinates": [72.5947645, 23.0207788]}}, {"type": "Feature", "properties": {"osm_id": 7088275237, "osm_type": "node", "name": "Rameshwar mandir", "amenity": "place_of_worship", "religion": "hindu"}, "geometry": {"type": "Point", "coordinates": [72.5919461, 23.0208959]}}, {"type": "Feature", "properties": {"osm_id": 7157714216, "osm_type": "node", "name": "Masjid e Khatimul Ambiya", "amenity": "place_of_worship", "religion": "muslim"}, "geometry": {"type": "Point", "coordinates": [72.5759353, 22.9795627]}}, {"type": "Feature", "properties": {"osm_id": 7157714217, "osm_type": "node", "name": "Shahi Masjid", "amenity": "place_of_worship", "religion": "muslim"}, "geometry": {"type": "Point", "coordinates": [72.5886917, 22.9976863]}}, {"type": "Feature", "properties": {"osm_id": 7157714218, "osm_type": "node", "name": "Shahi Masjid - Shah e Alam Dargah", "amenity": "place_of_worship", "religion": "muslim"}, "geometry": {"type": "Point", "coordinates": [72.5889358, 22.9944381]}}, {"type": "Feature", "properties": {"osm_id": 7159077259, "osm_type": "node", "name": "Hazrat Makhdum Shah Masjid", "amenity": "place_of_worship", "building": "mosque", "religion": "muslim"}, "geometry": {"type": "Point", "coordinates": [72.584312, 23.013937]}}, {"type": "Feature", "properties": {"osm_id": 7159077260, "osm_type": "node", "name": "Jambudi Masjid", "amenity": "place_of_worship", "building": "mosque", "religion": "muslim"}, "geometry": {"type": "Point", "coordinates": [72.584438, 23.012687]}}, {"type": "Feature", "properties": {"osm_id": 7163489711, "osm_type": "node", "name": "Masjid e Bahare Shariat", "amenity": "place_of_worship", "building": "mosque", "religion": "muslim"}, "geometry": {"type": "Point", "coordinates": [72.5765629, 22.992313]}}, {"type": "Feature", "properties": {"osm_id": 7846055184, "osm_type": "node", "name": "", "amenity": "place_of_worship", "religion": "hindu"}, "geometry": {"type": "Point", "coordinates": [72.5830274, 22.9608211]}}, {"type": "Feature", "properties": {"osm_id": 8238089144, "osm_type": "node", "name": "Shree Muktajivan Swami Bapa Smruti Mandir", "amenity": "place_of_worship", "religion": "hindu"}, "geometry": {"type": "Point", "coordinates": [72.6114964, 22.9732159]}}, {"type": "Feature", "properties": {"osm_id": 8978938722, "osm_type": "node", "name": "JANKI POLY PLAST", "amenity": "place_of_worship"}, "geometry": {"type": "Point", "coordinates": [72.5986127, 22.9738305]}}, {"type": "Feature", "properties": {"osm_id": 10302097875, "osm_type": "node", "name": "Sindhwai Temple", "amenity": "place_of_worship", "religion": "hindu"}, "geometry": {"type": "Point", "coordinates": [72.6355521, 22.9900693]}}, {"type": "Feature", "properties": {"osm_id": 10578596641, "osm_type": "node", "name": "Partheswar Temple", "amenity": "place_of_worship"}, "geometry": {"type": "Point", "coordinates": [72.6074593, 22.9675705]}}, {"type": "Feature", "properties": {"osm_id": 11097501505, "osm_type": "node", "name": "Sidi Bashid mosque, the shaking minarets", "amenity": "place_of_worship"}, "geometry": {"type": "Point", "coordinates": [72.5996961, 23.0237664]}}, {"type": "Feature", "properties": {"osm_id": 12092227899, "osm_type": "node", "name": "", "amenity": "place_of_worship", "religion": "hindu"}, "geometry": {"type": "Point", "coordinates": [72.5779033, 23.0211015]}}, {"type": "Feature", "properties": {"osm_id": 12092227910, "osm_type": "node", "name": "Dargah", "amenity": "place_of_worship", "religion": "muslim"}, "geometry": {"type": "Point", "coordinates": [72.5798769, 23.021186]}}, {"type": "Feature", "properties": {"osm_id": 13141074680, "osm_type": "node", "name": "Navi Masjid (Masjid-e-Nawab)", "amenity": "place_of_worship", "religion": "muslim"}, "geometry": {"type": "Point", "coordinates": [72.586788, 22.9957645]}}, {"type": "Feature", "properties": {"osm_id": 314446429, "osm_type": "way", "name": "Church of North India", "amenity": "place_of_worship", "building": "church", "religion": "christian"}, "geometry": {"type": "LineString", "coordinates": [[72.5805671, 23.0222168], [72.5805674, 23.0222524], [72.5806442, 23.0222518], [72.5806439, 23.022217], [72.5806725, 23.0222168], [72.5806715, 23.0221059], [72.5806445, 23.0221061], [72.5806441, 23.0220605], [72.580559, 23.0220611], [72.5805595, 23.0221134], [72.5803973, 23.0221146], [72.5803982, 23.0222181], [72.5805671, 23.0222168]]}}, {"type": "Feature", "properties": {"osm_id": 323895529, "osm_type": "way", "name": "Ahmed Shah Mosque", "amenity": "place_of_worship", "building": "mosque", "religion": "muslim"}, "geometry": {"type": "LineString", "coordinates": [[72.5788541, 23.0229274], [72.579048, 23.0229393], [72.579065, 23.022511], [72.5788732, 23.0225078], [72.5788541, 23.0229274]]}}, {"type": "Feature", "properties": {"osm_id": 326682669, "osm_type": "way", "name": "Gita Mandir", "amenity": "place_of_worship", "religion": "hindu"}, "geometry": {"type": "LineString", "coordinates": [[72.5913021, 23.0118469], [72.590641, 23.0118156], [72.5906103, 23.0123647], [72.5912714, 23.012396], [72.5913021, 23.0118469]]}}, {"type": "Feature", "properties": {"osm_id": 333825186, "osm_type": "way", "name": "Kashi Vishwanath Mandir", "amenity": "place_of_worship", "building": "yes", "religion": "hindu"}, "geometry": {"type": "LineString", "coordinates": [[72.6150509, 22.9946348], [72.6151065, 22.9948177], [72.615299, 22.9947826], [72.6152494, 22.9945854], [72.6150509, 22.9946348]]}}, {"type": "Feature", "properties": {"osm_id": 584631614, "osm_type": "way", "name": "", "amenity": "place_of_worship", "building": "yes"}, "geometry": {"type": "LineString", "coordinates": [[72.6172742, 22.9920324], [72.6172635, 22.9918726], [72.6174451, 22.9918972], [72.6174504, 22.9920422], [72.6172742, 22.9920324]]}}, {"type": "Feature", "properties": {"osm_id": 584631616, "osm_type": "way", "name": "", "amenity": "place_of_worship", "building": "yes"}, "geometry": {"type": "LineString", "coordinates": [[72.6171108, 22.9918982], [72.6171528, 22.9918362], [72.6171982, 22.9918533], [72.6171881, 22.9919121], [72.6171108, 22.9918982]]}}, {"type": "Feature", "properties": {"osm_id": 584631617, "osm_type": "way", "name": "", "amenity": "place_of_worship", "building": "yes"}, "geometry": {"type": "LineString", "coordinates": [[72.6165853, 22.9924371], [72.6165803, 22.9923272], [72.6166459, 22.9923272], [72.6166475, 22.9924387], [72.6165853, 22.9924371]]}}, {"type": "Feature", "properties": {"osm_id": 605637928, "osm_type": "way", "name": "Baba Lului's Mosque", "amenity": "place_of_worship", "building": "yes", "religion": "muslim"}, "geometry": {"type": "LineString", "coordinates": [[72.5757039, 23.0089482], [72.5758394, 23.0089489], [72.5758461, 23.0089587], [72.5758682, 23.0089581], [72.5758676, 23.0089377], [72.5758501, 23.008934], [72.5758512, 23.0087574], [72.5758689, 23.0087575], [72.5758691, 23.00873], [72.5758469, 23.0087299], [72.5758468, 23.0087459], [72.5757051, 23.0087452], [72.5757039, 23.0089482]]}}, {"type": "Feature", "properties": {"osm_id": 754019041, "osm_type": "way", "name": "Radhavallabh Mandir", "amenity": "place_of_worship", "building": "yes", "religion": "hindu"}, "geometry": {"type": "LineString", "coordinates": [[72.6065459, 22.9954493], [72.6066999, 22.9954506], [72.6066985, 22.9952971], [72.6065445, 22.9952984], [72.6065459, 22.9954493]]}}, {"type": "Feature", "properties": {"osm_id": 759119347, "osm_type": "way", "name": "Khan Jahan masijd", "amenity": "place_of_worship", "building": "yes", "religion": "muslim"}, "geometry": {"type": "LineString", "coordinates": [[72.5778266, 23.0129236], [72.5782244, 23.0129081], [72.5782143, 23.0126884], [72.5781824, 23.0126897], [72.5781792, 23.0126205], [72.5778132, 23.0126349], [72.5778266, 23.0129236]]}}, {"type": "Feature", "properties": {"osm_id": 759119359, "osm_type": "way", "name": "Hebat Khan ki masijd", "amenity": "place_of_worship", "building": "mosque", "religion": "muslim"}, "geometry": {"type": "LineString", "coordinates": [[72.5822448, 23.0127748], [72.5822431, 23.0125253], [72.5823475, 23.0125247], [72.5823492, 23.0127742], [72.5822448, 23.0127748]]}}, {"type": "Feature", "properties": {"osm_id": 759134763, "osm_type": "way", "name": "Tomb of Sardar Khan", "amenity": "place_of_worship", "building": "yes", "religion": "muslim"}, "geometry": {"type": "LineString", "coordinates": [[72.584149, 23.0155421], [72.5842802, 23.0155432], [72.5842791, 23.015431], [72.5841502, 23.0154299], [72.584149, 23.0155421]]}}, {"type": "Feature", "properties": {"osm_id": 759360758, "osm_type": "way", "name": "Sambharnath temple", "amenity": "place_of_worship", "building": "yes", "religion": "jain"}, "geometry": {"type": "LineString", "coordinates": [[72.5949306, 23.0248218], [72.594913, 23.024733], [72.5949792, 23.0247234], [72.5949951, 23.0247905], [72.5949799, 23.0248133], [72.5949306, 23.0248218]]}}, {"type": "Feature", "properties": {"osm_id": 843168324, "osm_type": "way", "name": "St Mary's Orthodox Cathedral", "amenity": "place_of_worship", "building": "yes", "religion": "christian"}, "geometry": {"type": "LineString", "coordinates": [[72.5862141, 23.0065284], [72.5863474, 23.0065358], [72.5863393, 23.0066865], [72.5862043, 23.0066805], [72.5862141, 23.0065284]]}}, {"type": "Feature", "properties": {"osm_id": 843168325, "osm_type": "way", "name": "St. Mary's Cathedral", "amenity": "place_of_worship", "building": "yes", "religion": "christian"}, "geometry": {"type": "LineString", "coordinates": [[72.5862212, 23.0067853], [72.5862223, 23.0066984], [72.5864765, 23.0067073], [72.5864744, 23.0067912], [72.5862212, 23.0067853]]}}, {"type": "Feature", "properties": {"osm_id": 843168341, "osm_type": "way", "name": "CNI Church Behrampura", "amenity": "place_of_worship", "building": "yes", "religion": "christian"}, "geometry": {"type": "LineString", "coordinates": [[72.5855837, 23.0078617], [72.5855826, 23.0076247], [72.5857489, 23.0076306], [72.5857446, 23.0078676], [72.5855837, 23.0078617]]}}, {"type": "Feature", "properties": {"osm_id": 911327482, "osm_type": "way", "name": "Vallabheswar mahadev mandir", "amenity": "place_of_worship", "building": "yes", "religion": "hindu"}, "geometry": {"type": "LineString", "coordinates": [[72.6073626, 22.9621664], [72.6073637, 22.9620993], [72.6072998, 22.9620983], [72.6073013, 22.9621648], [72.6073626, 22.9621664]]}}, {"type": "Feature", "properties": {"osm_id": 429790296, "osm_type": "node", "name": "Manav Mandir", "amenity": "place_of_worship", "religion": "hindu"}, "geometry": {"type": "Point", "coordinates": [72.5396662, 23.0461532]}}, {"type": "Feature", "properties": {"osm_id": 429790297, "osm_type": "node", "name": "Karnvanath Mahadev, Shiv Temple", "amenity": "place_of_worship", "religion": "hindu"}, "geometry": {"type": "Point", "coordinates": [72.5498248, 23.0470512]}}, {"type": "Feature", "properties": {"osm_id": 429790299, "osm_type": "node", "name": "Paramdham Temple", "amenity": "place_of_worship", "religion": "hindu"}, "geometry": {"type": "Point", "coordinates": [72.5206423, 23.0279683]}}, {"type": "Feature", "properties": {"osm_id": 2477167113, "osm_type": "node", "name": "Gopnath Mahadev Mandir", "amenity": "place_of_worship", "religion": "hindu"}, "geometry": {"type": "Point", "coordinates": [72.5648948, 23.0688147]}}, {"type": "Feature", "properties": {"osm_id": 2699812684, "osm_type": "node", "name": "Panchdev Mahadev Mandir", "amenity": "place_of_worship", "religion": "hindu"}, "geometry": {"type": "Point", "coordinates": [72.5424404, 23.0654461]}}, {"type": "Feature", "properties": {"osm_id": 3011917841, "osm_type": "node", "name": "Khodiyar Temple, New Ranip", "amenity": "place_of_worship", "religion": "hindu"}, "geometry": {"type": "Point", "coordinates": [72.5664534, 23.0925942]}}, {"type": "Feature", "properties": {"osm_id": 3242235762, "osm_type": "node", "name": "Jain Temple", "amenity": "place_of_worship", "religion": "hindu"}, "geometry": {"type": "Point", "coordinates": [72.5599824, 23.0333137]}}, {"type": "Feature", "properties": {"osm_id": 4403955289, "osm_type": "node", "name": "ambe mataa mandir", "amenity": "place_of_worship"}, "geometry": {"type": "Point", "coordinates": [72.5365252, 23.0594376]}}, {"type": "Feature", "properties": {"osm_id": 4486515168, "osm_type": "node", "name": "Gurukul", "amenity": "place_of_worship"}, "geometry": {"type": "Point", "coordinates": [72.5268056, 23.0457058]}}, {"type": "Feature", "properties": {"osm_id": 4585303036, "osm_type": "node", "name": "Chandlodiya Temple", "amenity": "place_of_worship", "religion": "hindu"}, "geometry": {"type": "Point", "coordinates": [72.5530656, 23.0838579]}}, {"type": "Feature", "properties": {"osm_id": 4585303324, "osm_type": "node", "name": "Radha Madhav temple bhadaj", "amenity": "place_of_worship"}, "geometry": {"type": "Point", "coordinates": [72.469948, 23.0983628]}}, {"type": "Feature", "properties": {"osm_id": 5141463316, "osm_type": "node", "name": "Kalpyan Pushti Haveli", "amenity": "place_of_worship", "religion": "hindu"}, "geometry": {"type": "Point", "coordinates": [72.5306552, 23.0384308]}}, {"type": "Feature", "properties": {"osm_id": 8862949387, "osm_type": "node", "name": "Umiya Mata Nu Mandir", "amenity": "place_of_worship", "religion": "hindu"}, "geometry": {"type": "Point", "coordinates": [72.4770925, 23.0543121]}}, {"type": "Feature", "properties": {"osm_id": 244500705, "osm_type": "way", "name": "Sai Baba Temple", "amenity": "place_of_worship", "building": "yes", "religion": "hindu"}, "geometry": {"type": "LineString", "coordinates": [[72.5325453, 23.0663168], [72.5327223, 23.066223], [72.5326472, 23.0660996], [72.5324675, 23.0661909], [72.5325453, 23.0663168]]}}, {"type": "Feature", "properties": {"osm_id": 294809279, "osm_type": "way", "name": "", "amenity": "place_of_worship", "religion": "hindu"}, "geometry": {"type": "LineString", "coordinates": [[72.5600479, 23.0753303], [72.5599473, 23.0760187], [72.5603429, 23.0760829], [72.5604717, 23.0756029], [72.5600479, 23.0753303]]}}, {"type": "Feature", "properties": {"osm_id": 297321231, "osm_type": "way", "name": "Marutidham", "amenity": "place_of_worship", "religion": "hindu"}, "geometry": {"type": "LineString", "coordinates": [[72.541594, 23.1365166], [72.5421199, 23.1364713], [72.5423579, 23.1365695], [72.5425913, 23.1375753], [72.5417091, 23.1376047], [72.541594, 23.1365166]]}}, {"type": "Feature", "properties": {"osm_id": 334471474, "osm_type": "way", "name": "Swaminarayan Mandir", "amenity": "place_of_worship", "building": "church", "religion": "hindu"}, "geometry": {"type": "LineString", "coordinates": [[72.5335205, 23.0448933], [72.5335253, 23.0451333], [72.5335275, 23.0452415], [72.5338038, 23.0452368], [72.5338017, 23.0451286], [72.5340507, 23.0451244], [72.5340458, 23.0448844], [72.5335205, 23.0448933]]}}, {"type": "Feature", "properties": {"osm_id": 334471856, "osm_type": "way", "name": "Manav Mandir", "amenity": "place_of_worship", "religion": "hindu"}, "geometry": {"type": "LineString", "coordinates": [[72.5394123, 23.0459782], [72.5398941, 23.0459765], [72.5399324, 23.0460084], [72.539916, 23.0460739], [72.5396641, 23.0464518], [72.5394269, 23.0464719], [72.5394123, 23.0459782]]}}, {"type": "Feature", "properties": {"osm_id": 366427898, "osm_type": "way", "name": "Gurudwara Gobinddham", "amenity": "place_of_worship", "building": "yes"}, "geometry": {"type": "LineString", "coordinates": [[72.5151644, 23.046914], [72.5152293, 23.0469246], [72.5152252, 23.0469463], [72.5152779, 23.0469548], [72.5152745, 23.0469725], [72.5153022, 23.046977], [72.5153003, 23.046987], [72.5153946, 23.0470023], [72.5153981, 23.0469841], [72.5154495, 23.0469925], [72.5154526, 23.0469764], [72.5156254, 23.0470045], [72.5156442, 23.0469068], [72.5155323, 23.0468886], [72.5155372, 23.0468627], [72.5155363, 23.0468389], [72.5155252, 23.0468213], [72.5155154, 23.0468091], [72.5155221, 23.0467736], [72.5152526, 23.0467299], [72.5152222, 23.0468886], [72.5151709, 23.0468802], [72.5151644, 23.046914]]}}, {"type": "Feature", "properties": {"osm_id": 366466085, "osm_type": "way", "name": "Mansi BAPS Swaminarayan Temple", "amenity": "place_of_worship", "building": "yes", "religion": "hindu"}, "geometry": {"type": "LineString", "coordinates": [[72.5251297, 23.032854], [72.5252555, 23.032978], [72.52531, 23.0329311], [72.5253438, 23.0329643], [72.5252926, 23.0330083], [72.52533, 23.0330451], [72.5255879, 23.0328234], [72.5255408, 23.032777], [72.5254913, 23.0328195], [72.5254653, 23.0327938], [72.5255147, 23.0327513], [72.525391, 23.0326294], [72.5253457, 23.0326683], [72.5253321, 23.0326548], [72.5252854, 23.032695], [72.5251846, 23.0325956], [72.5251246, 23.0326472], [72.5252254, 23.0327465], [72.5251718, 23.0327927], [72.5251854, 23.0328061], [72.5251297, 23.032854]]}}, {"type": "Feature", "properties": {"osm_id": 366616701, "osm_type": "way", "name": "Iskcon Temple", "amenity": "place_of_worship", "building": "yes", "religion": "hindu"}, "geometry": {"type": "LineString", "coordinates": [[72.5065286, 23.0285112], [72.5065713, 23.0285096], [72.5065724, 23.028534], [72.5067281, 23.0285281], [72.5067293, 23.0285551], [72.506818, 23.0285517], [72.5068167, 23.0285236], [72.5069287, 23.0285194], [72.5069295, 23.0285377], [72.5070147, 23.0285344], [72.5070139, 23.0285162], [72.5070661, 23.0285142], [72.5070644, 23.0284771], [72.5071177, 23.0284751], [72.5071165, 23.0284484], [72.5072132, 23.0284447], [72.5072039, 23.028239], [72.5070917, 23.0282432], [72.5070905, 23.0282178], [72.5070627, 23.0282189], [72.5070608, 23.0281781], [72.506521, 23.0281986], [72.506527, 23.028331], [72.5065019, 23.0283319], [72.506505, 23.0283999], [72.5065236, 23.0283992], [72.5065286, 23.0285112]]}}, {"type": "Feature", "properties": {"osm_id": 366773828, "osm_type": "way", "name": "Shree Vishweshwar Mahadev Temple", "amenity": "place_of_worship", "building": "yes", "religion": "hindu"}, "geometry": {"type": "LineString", "coordinates": [[72.5279088, 23.0290421], [72.5279075, 23.0291036], [72.5278704, 23.029103], [72.5278693, 23.0291519], [72.5279101, 23.0291526], [72.5279087, 23.0292165], [72.5279917, 23.029218], [72.5279925, 23.0291812], [72.5280161, 23.0291816], [72.5280165, 23.0291633], [72.528038, 23.0291637], [72.5280393, 23.0290989], [72.5280202, 23.0290986], [72.5280205, 23.0290817], [72.528002, 23.0290814], [72.5280028, 23.0290438], [72.5279131, 23.0290422], [72.5279088, 23.0290421]]}}, {"type": "Feature", "properties": {"osm_id": 367215542, "osm_type": "way", "name": "BAPS Swaminarayan Temple, Bopal", "amenity": "place_of_worship", "building": "yes", "religion": "hindu"}, "geometry": {"type": "LineString", "coordinates": [[72.4775019, 23.0338181], [72.4775094, 23.0339853], [72.4777021, 23.033978], [72.4777032, 23.0340024], [72.4777624, 23.0340001], [72.4777614, 23.0339783], [72.4779071, 23.0339728], [72.4779081, 23.0339946], [72.4779476, 23.0339931], [72.4779448, 23.0339306], [72.4779375, 23.0339309], [72.4779357, 23.0338912], [72.4779597, 23.0338903], [72.4779612, 23.0339246], [72.4779861, 23.0339237], [72.4779813, 23.0338167], [72.4779513, 23.0338178], [72.4779533, 23.0338617], [72.4779337, 23.0338625], [72.4779326, 23.0338379], [72.4779406, 23.0338376], [72.477939, 23.0338015], [72.477831, 23.0338056], [72.4778296, 23.0337749], [72.4776917, 23.0337802], [72.477693, 23.0338109], [72.4775019, 23.0338181]]}}, {"type": "Feature", "properties": {"osm_id": 368448164, "osm_type": "way", "name": "Shree Bhagwat Vidhyapith", "amenity": "place_of_worship", "building": "yes", "religion": "hindu"}, "geometry": {"type": "LineString", "coordinates": [[72.5220001, 23.0894863], [72.5220397, 23.0894701], [72.5220549, 23.0895016], [72.5225473, 23.0893001], [72.5225305, 23.0892654], [72.5225689, 23.0892497], [72.5225513, 23.0892132], [72.5226025, 23.0891899], [72.5225087, 23.088983], [72.5219099, 23.0892267], [72.5219311, 23.0892706], [72.5219016, 23.0892826], [72.5220001, 23.0894863]]}}, {"type": "Feature", "properties": {"osm_id": 368608344, "osm_type": "way", "name": "TIRUPATI TEMPLE", "amenity": "place_of_worship", "building": "yes", "religion": "hindu"}, "geometry": {"type": "LineString", "coordinates": [[72.5383044, 23.1276316], [72.5385073, 23.1275861], [72.5384776, 23.1274743], [72.5382747, 23.1275198], [72.5382857, 23.1275611], [72.5382279, 23.127574], [72.5382371, 23.1276089], [72.5382949, 23.1275959], [72.5383044, 23.1276316]]}}, {"type": "Feature", "properties": {"osm_id": 378472724, "osm_type": "way", "name": "Parasnagar Jain Derasar", "amenity": "place_of_worship", "building": "yes", "religion": "jain"}, "geometry": {"type": "LineString", "coordinates": [[72.5441194, 23.0540727], [72.5444319, 23.0542146], [72.544444, 23.054148], [72.544444, 23.0540875], [72.5444507, 23.0540801], [72.5444587, 23.0539407], [72.5441221, 23.0539567], [72.5441194, 23.0540727]]}}, {"type": "Feature", "properties": {"osm_id": 425878390, "osm_type": "way", "name": "BAPS sanskardham", "amenity": "place_of_worship", "building": "temple", "religion": "swaminarayan"}, "geometry": {"type": "LineString", "coordinates": [[72.5603923, 23.0798162], [72.560424, 23.0796668], [72.5605786, 23.0796945], [72.5605469, 23.079844], [72.5603923, 23.0798162]]}}, {"type": "Feature", "properties": {"osm_id": 462035356, "osm_type": "way", "name": "Kashi-Vishvanath Temple", "amenity": "place_of_worship", "building": "yes", "religion": "hindu"}, "geometry": {"type": "LineString", "coordinates": [[72.5654034, 23.0828721], [72.5657095, 23.0829177], [72.565949, 23.082583], [72.5654655, 23.082521], [72.5654034, 23.0828721]]}}, {"type": "Feature", "properties": {"osm_id": 462300881, "osm_type": "way", "name": "Swaminarayan- BAPS Temple", "amenity": "place_of_worship", "building": "yes", "religion": "hindu"}, "geometry": {"type": "LineString", "coordinates": [[72.5660788, 23.0811776], [72.5661033, 23.0810702], [72.5669451, 23.080952], [72.5669871, 23.0811572], [72.5668797, 23.0813247], [72.5660788, 23.0811776]]}}, {"type": "Feature", "properties": {"osm_id": 462302156, "osm_type": "way", "name": "Temple", "amenity": "place_of_worship", "building": "yes", "religion": "hindu"}, "geometry": {"type": "LineString", "coordinates": [[72.5669228, 23.0801699], [72.5669, 23.079996], [72.5671227, 23.07997], [72.5671522, 23.0801378], [72.5669228, 23.0801699]]}}, {"type": "Feature", "properties": {"osm_id": 493967188, "osm_type": "way", "name": "Samartheshwar Mahadev Temple", "amenity": "place_of_worship", "building": "yes", "religion": "hindu"}, "geometry": {"type": "LineString", "coordinates": [[72.5593222, 23.0281725], [72.5595448, 23.0286316], [72.5602824, 23.0282169], [72.5600142, 23.0278343], [72.5593222, 23.0281725]]}}, {"type": "Feature", "properties": {"osm_id": 529227105, "osm_type": "way", "name": "Ganpati Mandir", "amenity": "place_of_worship", "building": "yes", "religion": "hindu"}, "geometry": {"type": "LineString", "coordinates": [[72.5300478, 23.0377225], [72.5300391, 23.0376201], [72.5300338, 23.0375583], [72.530276, 23.0375408], [72.53029, 23.037705], [72.5302037, 23.0377113], [72.5300478, 23.0377225]]}}, {"type": "Feature", "properties": {"osm_id": 587524842, "osm_type": "way", "name": "", "amenity": "place_of_worship", "building": "yes", "religion": "hindu"}, "geometry": {"type": "LineString", "coordinates": [[72.5350896, 23.0638793], [72.5355336, 23.0636815], [72.5356821, 23.0640463], [72.535753, 23.0642542], [72.5354074, 23.0643765], [72.5350896, 23.0638793]]}}, {"type": "Feature", "properties": {"osm_id": 957848347, "osm_type": "way", "name": "Umiya Mata Nu Mandir", "amenity": "place_of_worship", "building": "yes", "religion": "hindu"}, "geometry": {"type": "LineString", "coordinates": [[72.4770067, 23.0542951], [72.4770798, 23.0543722], [72.4771679, 23.0543089], [72.4770884, 23.0542279], [72.4770067, 23.0542951]]}}, {"type": "Feature", "properties": {"osm_id": 1027296561, "osm_type": "way", "name": "", "amenity": "place_of_worship", "building": "yes", "religion": "hindu"}, "geometry": {"type": "LineString", "coordinates": [[72.4487539, 23.0323948], [72.4487263, 23.0322218], [72.4489806, 23.0321874], [72.4490082, 23.0323603], [72.4487539, 23.0323948]]}}, {"type": "Feature", "properties": {"osm_id": 1033606003, "osm_type": "way", "name": "Shree Jalarambapa Mandir", "amenity": "place_of_worship", "building": "yes", "religion": "hindu"}, "geometry": {"type": "LineString", "coordinates": [[72.5218283, 23.0885173], [72.5218618, 23.0885817], [72.5220259, 23.0885095], [72.5219924, 23.0884451], [72.5218283, 23.0885173]]}}, {"type": "Feature", "properties": {"osm_id": 1033606004, "osm_type": "way", "name": "Shree Rang Avadhut Mandir", "amenity": "place_of_worship", "building": "yes", "religion": "hindu"}, "geometry": {"type": "LineString", "coordinates": [[72.5215718, 23.0886571], [72.5216549, 23.088817], [72.5218023, 23.0887522], [72.5217192, 23.0885923], [72.5215718, 23.0886571]]}}, {"type": "Feature", "properties": {"osm_id": 1072528782, "osm_type": "way", "name": "SMVS Swaminarayan Mandir", "amenity": "place_of_worship", "building": "yes", "religion": "hindu"}, "geometry": {"type": "LineString", "coordinates": [[72.5447587, 23.0943271], [72.5449003, 23.0947132], [72.5452078, 23.0946205], [72.5450764, 23.0942226], [72.5447587, 23.0943271]]}}, {"type": "Feature", "properties": {"osm_id": 1200946288, "osm_type": "way", "name": "Achaleshwar Mahadev", "amenity": "place_of_worship", "religion": "hindu"}, "geometry": {"type": "LineString", "coordinates": [[72.5633822, 23.0800014], [72.5634246, 23.0800334], [72.5634118, 23.080113], [72.5635768, 23.0801401], [72.5635982, 23.0799625], [72.563438, 23.0799335], [72.5634293, 23.0799983], [72.5633822, 23.0800014]]}}, {"type": "Feature", "properties": {"osm_id": 1201840543, "osm_type": "way", "name": "વીજળીયા હનુમાન મંદિર", "amenity": "place_of_worship", "religion": "hindu"}, "geometry": {"type": "LineString", "coordinates": [[72.5413782, 23.1219533], [72.54147, 23.1219257], [72.5415026, 23.1220175], [72.5414107, 23.1220451], [72.5413782, 23.1219533]]}}, {"type": "Feature", "properties": {"osm_id": 1239619352, "osm_type": "way", "name": "", "amenity": "place_of_worship", "building": "yes", "religion": "hindu"}, "geometry": {"type": "LineString", "coordinates": [[72.5213675, 23.0273329], [72.5214078, 23.02732], [72.5213954, 23.0272874], [72.5213551, 23.0273003], [72.5213675, 23.0273329]]}}, {"type": "Feature", "properties": {"osm_id": 1275046997, "osm_type": "way", "name": "Shantinath Mahadev", "amenity": "place_of_worship", "building": "temple", "religion": "hindu"}, "geometry": {"type": "LineString", "coordinates": [[72.5499093, 23.138844], [72.5499818, 23.1388361], [72.5499756, 23.1387881], [72.5499031, 23.1387959], [72.5499093, 23.138844]]}}, {"type": "Feature", "properties": {"osm_id": 1303259920, "osm_type": "way", "name": "Hare Krishna Mandir, Bhadaj", "amenity": "place_of_worship", "building": "temple", "religion": "hindu"}, "geometry": {"type": "LineString", "coordinates": [[72.4570645, 23.0982082], [72.4575684, 23.0981869], [72.4575849, 23.0985145], [72.4574484, 23.0985203], [72.457454, 23.0986328], [72.4574196, 23.0986342], [72.4574209, 23.0986598], [72.4570879, 23.098674], [72.4570645, 23.0982082]]}}, {"type": "Feature", "properties": {"osm_id": 1451639413, "osm_type": "way", "name": "સધી માં મંદિર", "amenity": "place_of_worship", "building": "temple", "religion": "hindu"}, "geometry": {"type": "LineString", "coordinates": [[72.5538076, 23.1295136], [72.5539513, 23.1295584], [72.5539681, 23.1295129], [72.5540059, 23.1295247], [72.5540584, 23.1293824], [72.5539215, 23.1293397], [72.5538894, 23.1294269], [72.5538447, 23.129413], [72.5538076, 23.1295136]]}}, {"type": "Feature", "properties": {"osm_id": 1482236543, "osm_type": "way", "name": "Vaishnodevi Mandir", "amenity": "place_of_worship", "building": "yes", "religion": "hindu"}, "geometry": {"type": "LineString", "coordinates": [[72.5436862, 23.1380455], [72.5440854, 23.1379646], [72.5439931, 23.1375226], [72.5439287, 23.1375207], [72.5438794, 23.1373332], [72.5438043, 23.1373036], [72.5434717, 23.1373293], [72.5434802, 23.1373944], [72.5436369, 23.1380238], [72.5436777, 23.138014], [72.5436862, 23.1380455]]}}, {"type": "Feature", "properties": {"osm_id": 429790300, "osm_type": "node", "name": "Gayatri Mandir", "amenity": "place_of_worship", "religion": "hindu"}, "geometry": {"type": "Point", "coordinates": [72.5914612, 23.0616617]}}, {"type": "Feature", "properties": {"osm_id": 611572693, "osm_type": "node", "name": "Sant Asharamji Ashram", "amenity": "place_of_worship"}, "geometry": {"type": "Point", "coordinates": [72.6024491, 23.0931619]}}, {"type": "Feature", "properties": {"osm_id": 2531101257, "osm_type": "node", "name": "Guruma Samadhi Mandir", "amenity": "place_of_worship", "religion": "jain"}, "geometry": {"type": "Point", "coordinates": [72.6123146, 23.125173]}}, {"type": "Feature", "properties": {"osm_id": 3247356199, "osm_type": "node", "name": "Sai Baba Temple", "amenity": "place_of_worship", "religion": "hindu"}, "geometry": {"type": "Point", "coordinates": [72.6203895, 23.0804158]}}, {"type": "Feature", "properties": {"osm_id": 3289914606, "osm_type": "node", "name": "Dariyakhan Ghummaj", "amenity": "place_of_worship", "building": "mosque", "religion": "muslim"}, "geometry": {"type": "Point", "coordinates": [72.5867794, 23.0526575]}}, {"type": "Feature", "properties": {"osm_id": 3500440335, "osm_type": "node", "name": "Dharmeshawar Mahadev Temple", "amenity": "place_of_worship", "religion": "hindu"}, "geometry": {"type": "Point", "coordinates": [72.5916738, 23.0784656]}}, {"type": "Feature", "properties": {"osm_id": 3500454448, "osm_type": "node", "name": "Jain Derasar", "amenity": "place_of_worship", "religion": "jain"}, "geometry": {"type": "Point", "coordinates": [72.5922625, 23.0803221]}}, {"type": "Feature", "properties": {"osm_id": 3500454472, "osm_type": "node", "name": "Ramji Mandir", "amenity": "place_of_worship", "religion": "hindu"}, "geometry": {"type": "Point", "coordinates": [72.5895182, 23.0836988]}}, {"type": "Feature", "properties": {"osm_id": 3500459170, "osm_type": "node", "name": "Vaishno Devi Mataji Mandir", "amenity": "place_of_worship", "religion": "hindu"}, "geometry": {"type": "Point", "coordinates": [72.5895455, 23.0790305]}}, {"type": "Feature", "properties": {"osm_id": 4486356038, "osm_type": "node", "name": "Koteshwar Mahadev Temple / Mandir", "amenity": "place_of_worship", "religion": "hindu"}, "geometry": {"type": "Point", "coordinates": [72.6119846, 23.0945918]}}, {"type": "Feature", "properties": {"osm_id": 4488096936, "osm_type": "node", "name": "Sai baba", "amenity": "place_of_worship"}, "geometry": {"type": "Point", "coordinates": [72.6500054, 23.0887798]}}, {"type": "Feature", "properties": {"osm_id": 4488098031, "osm_type": "node", "name": "Sant nirankari Ashram", "amenity": "place_of_worship"}, "geometry": {"type": "Point", "coordinates": [72.6479573, 23.0868773]}}, {"type": "Feature", "properties": {"osm_id": 4709907894, "osm_type": "node", "name": "Shree Swaminarayan Vishranti Bhuvan (Under Bhuj)", "amenity": "place_of_worship"}, "geometry": {"type": "Point", "coordinates": [72.6299612, 23.1096913]}}, {"type": "Feature", "properties": {"osm_id": 4794246524, "osm_type": "node", "name": "Sarveshwar Mahadev Temple", "amenity": "place_of_worship"}, "geometry": {"type": "Point", "coordinates": [72.5784767, 23.0748674]}}, {"type": "Feature", "properties": {"osm_id": 4794252821, "osm_type": "node", "name": "Khodiyar Temple", "amenity": "place_of_worship", "religion": "hindu"}, "geometry": {"type": "Point", "coordinates": [72.5776658, 23.0765706]}}, {"type": "Feature", "properties": {"osm_id": 5065508095, "osm_type": "node", "name": "Om shanti", "amenity": "place_of_worship"}, "geometry": {"type": "Point", "coordinates": [72.6192277, 23.0873143]}}, {"type": "Feature", "properties": {"osm_id": 6914010448, "osm_type": "node", "name": "Moinuddin Chisti Mosque", "amenity": "place_of_worship", "religion": "muslim"}, "geometry": {"type": "Point", "coordinates": [72.5883445, 23.0601961]}}, {"type": "Feature", "properties": {"osm_id": 10959555938, "osm_type": "node", "name": "Shiv mandir", "amenity": "place_of_worship", "religion": "hindu"}, "geometry": {"type": "Point", "coordinates": [72.5780403, 23.1062878]}}, {"type": "Feature", "properties": {"osm_id": 11148571795, "osm_type": "node", "name": "Merudham", "amenity": "place_of_worship", "religion": "jain"}, "geometry": {"type": "Point", "coordinates": [72.6162547, 23.1218834]}}, {"type": "Feature", "properties": {"osm_id": 118695193, "osm_type": "way", "name": "Smriti Mandir", "amenity": "place_of_worship", "religion": "jain"}, "geometry": {"type": "LineString", "coordinates": [[72.58947, 23.0804295], [72.589348, 23.0806876], [72.5898277, 23.0808671], [72.5899212, 23.0806277], [72.58947, 23.0804295]]}}, {"type": "Feature", "properties": {"osm_id": 246022093, "osm_type": "way", "name": "Tapovan Adinath Jain Temple", "amenity": "place_of_worship", "religion": "jain"}, "geometry": {"type": "LineString", "coordinates": [[72.6121992, 23.124793], [72.6121995, 23.1246341], [72.6122593, 23.1246342], [72.6122594, 23.1246123], [72.6124231, 23.1246125], [72.612423, 23.1246611], [72.6125568, 23.1246613], [72.6125567, 23.1247322], [72.6125566, 23.1247945], [72.6123943, 23.1247943], [72.6123942, 23.1248177], [72.6122537, 23.1248175], [72.6122537, 23.1247931], [72.6121992, 23.124793]]}}, {"type": "Feature", "properties": {"osm_id": 322229926, "osm_type": "way", "name": "Hathi Singh Jain Temple", "amenity": "place_of_worship", "religion": "hindu"}, "geometry": {"type": "LineString", "coordinates": [[72.5893839, 23.0407307], [72.5894905, 23.0410464], [72.5899427, 23.0409221], [72.5898465, 23.0406135], [72.5893839, 23.0407307]]}}, {"type": "Feature", "properties": {"osm_id": 322230405, "osm_type": "way", "name": "BAPS Swaminarayan Temple", "amenity": "place_of_worship", "religion": "hindu"}, "geometry": {"type": "LineString", "coordinates": [[72.5897099, 23.0446653], [72.5897281, 23.0461505], [72.5905364, 23.0461481], [72.591181, 23.04594], [72.5909938, 23.0455382], [72.5906482, 23.045555], [72.59063, 23.045268], [72.5904012, 23.0452393], [72.590422, 23.0450551], [72.5904922, 23.0450432], [72.5905052, 23.0449164], [72.5904272, 23.0449164], [72.5904402, 23.0447801], [72.5903779, 23.0447538], [72.5903831, 23.0446581], [72.5897099, 23.0446653]]}}, {"type": "Feature", "properties": {"osm_id": 323895534, "osm_type": "way", "name": "Sidi Saiyad Mosque", "amenity": "place_of_worship", "building": "mosque", "religion": "muslim"}, "geometry": {"type": "LineString", "coordinates": [[72.5809335, 23.0271098], [72.5810847, 23.027111], [72.5810865, 23.0269297], [72.5809353, 23.0269285], [72.5809335, 23.0271098]]}}, {"type": "Feature", "properties": {"osm_id": 451821946, "osm_type": "way", "name": "Koteshwar Mahadev Temple / Mandir", "amenity": "place_of_worship", "building": "yes"}, "geometry": {"type": "LineString", "coordinates": [[72.6113034, 23.0939726], [72.6113114, 23.0943229], [72.6115555, 23.0943871], [72.6115367, 23.0948509], [72.611644, 23.0948706], [72.6115957, 23.0950656], [72.6121912, 23.0951346], [72.6124996, 23.0940441], [72.6113034, 23.0939726]]}}, {"type": "Feature", "properties": {"osm_id": 547617476, "osm_type": "way", "name": "Shiv Mandir", "amenity": "place_of_worship", "building": "yes", "religion": "hindu"}, "geometry": {"type": "LineString", "coordinates": [[72.6515898, 23.11931], [72.6516815, 23.1194147], [72.6518045, 23.1193236], [72.6517129, 23.1192189], [72.6515898, 23.11931]]}}, {"type": "Feature", "properties": {"osm_id": 547617477, "osm_type": "way", "name": "", "amenity": "place_of_worship", "building": "yes", "religion": "hindu"}, "geometry": {"type": "LineString", "coordinates": [[72.651498, 23.1191947], [72.6515519, 23.1192624], [72.6516459, 23.1191992], [72.651592, 23.1191315], [72.651498, 23.1191947]]}}, {"type": "Feature", "properties": {"osm_id": 758933549, "osm_type": "way", "name": "Bibi Achut Kuki masjid", "amenity": "place_of_worship", "building": "yes", "religion": "muslim"}, "geometry": {"type": "LineString", "coordinates": [[72.5815896, 23.0479367], [72.5811186, 23.0479397], [72.5811156, 23.0475343], [72.5812619, 23.0475333], [72.5812641, 23.0478219], [72.5814666, 23.0478206], [72.5814664, 23.0478014], [72.5814971, 23.0478012], [72.5814972, 23.0478173], [72.5815887, 23.0478167], [72.5815896, 23.0479367]]}}, {"type": "Feature", "properties": {"osm_id": 758933550, "osm_type": "way", "name": "Darya Khan tomb", "amenity": "place_of_worship", "building": "yes", "religion": "muslim"}, "geometry": {"type": "LineString", "coordinates": [[72.5865012, 23.0527892], [72.5868712, 23.0527918], [72.586874, 23.0524462], [72.586504, 23.0524436], [72.5865012, 23.0527892]]}}, {"type": "Feature", "properties": {"osm_id": 758933556, "osm_type": "way", "name": "Khan Chishti masijd", "amenity": "place_of_worship", "building": "yes", "religion": "muslim"}, "geometry": {"type": "LineString", "coordinates": [[72.5880668, 23.0602954], [72.5880597, 23.060009], [72.5882154, 23.0600057], [72.5882175, 23.0600907], [72.5882271, 23.0600905], [72.5882295, 23.0601853], [72.5882141, 23.0601856], [72.5882167, 23.0602923], [72.5880668, 23.0602954]]}}, {"type": "Feature", "properties": {"osm_id": 759148036, "osm_type": "way", "name": "Fateh masjid", "amenity": "place_of_worship", "building": "yes", "religion": "muslim"}, "geometry": {"type": "LineString", "coordinates": [[72.5907691, 23.0370428], [72.5907648, 23.0367013], [72.5908888, 23.0366999], [72.5908931, 23.0370415], [72.5907691, 23.0370428]]}}, {"type": "Feature", "properties": {"osm_id": 759148045, "osm_type": "way", "name": "Sultan Qutbuddin masijd", "amenity": "place_of_worship", "building": "yes", "religion": "muslim"}, "geometry": {"type": "LineString", "coordinates": [[72.5870559, 23.0356834], [72.5870537, 23.0352541], [72.5872023, 23.0352535], [72.5872044, 23.0356828], [72.5870559, 23.0356834]]}}, {"type": "Feature", "properties": {"osm_id": 759148046, "osm_type": "way", "name": "Christ church", "amenity": "place_of_worship", "building": "yes", "religion": "christian"}, "geometry": {"type": "LineString", "coordinates": [[72.5862805, 23.0339721], [72.5864695, 23.0339711], [72.5864916, 23.0339533], [72.586493, 23.0339266], [72.5864695, 23.0338961], [72.58628, 23.0338971], [72.5862805, 23.0339721]]}}, {"type": "Feature", "properties": {"osm_id": 759353278, "osm_type": "way", "name": "Sakar Khan masijd", "amenity": "place_of_worship", "building": "yes", "religion": "muslim"}, "geometry": {"type": "LineString", "coordinates": [[72.5951188, 23.030676], [72.5953005, 23.0306766], [72.5953021, 23.0302652], [72.5951204, 23.0302646], [72.5951188, 23.030676]]}}, {"type": "Feature", "properties": {"osm_id": 1180000554, "osm_type": "way", "name": "", "amenity": "place_of_worship", "building": "yes"}, "geometry": {"type": "LineString", "coordinates": [[72.5779934, 23.1063361], [72.5779765, 23.106255], [72.5780891, 23.1062153], [72.5781022, 23.1063171], [72.5779934, 23.1063361]]}}, {"type": "Feature", "properties": {"osm_id": 1180002706, "osm_type": "way", "name": "Shree Sai Baba Mandir", "amenity": "place_of_worship", "building": "yes", "religion": "hindu"}, "geometry": {"type": "LineString", "coordinates": [[72.5759609, 23.1073753], [72.5759625, 23.107248], [72.5760398, 23.107251], [72.5760333, 23.1073798], [72.5759609, 23.1073753]]}}, {"type": "Feature", "properties": {"osm_id": 1347937117, "osm_type": "way", "name": "Ganpati Temple", "amenity": "place_of_worship", "building": "yes", "religion": "hindu"}, "geometry": {"type": "LineString", "coordinates": [[72.6167556, 23.0583605], [72.6167509, 23.0582549], [72.616611, 23.0582504], [72.6166342, 23.0583574], [72.6167556, 23.0583605]]}}, {"type": "Feature", "properties": {"osm_id": 1347944521, "osm_type": "way", "name": "Khodiyar Maa Temple", "amenity": "place_of_worship", "building": "yes", "religion": "hindu"}, "geometry": {"type": "LineString", "coordinates": [[72.60314, 23.0514835], [72.6032481, 23.0514844], [72.6032474, 23.0515598], [72.6031393, 23.0515589], [72.60314, 23.0514835]]}}, {"type": "Feature", "properties": {"osm_id": 1347955764, "osm_type": "way", "name": "Sankat Mochan Hanuman Temple", "amenity": "place_of_worship", "building": "yes", "religion": "hindu"}, "geometry": {"type": "LineString", "coordinates": [[72.5903637, 23.0545534], [72.5903981, 23.0545171], [72.5904864, 23.0545584], [72.5904647, 23.0545984], [72.5903637, 23.0545534]]}}, {"type": "Feature", "properties": {"osm_id": 1349011714, "osm_type": "way", "name": "Neelkanth Mahadeva Temple", "amenity": "place_of_worship", "building": "yes", "religion": "hindu"}, "geometry": {"type": "LineString", "coordinates": [[72.604945, 23.0453951], [72.6055144, 23.0453485], [72.6055324, 23.0448256], [72.6048957, 23.0448418], [72.604945, 23.0453951]]}}, {"type": "Feature", "properties": {"osm_id": 1394992786, "osm_type": "way", "name": "", "amenity": "place_of_worship", "building": "yes", "religion": "hindu"}, "geometry": {"type": "LineString", "coordinates": [[72.6138056, 23.0570212], [72.6139079, 23.0570072], [72.6138969, 23.0569396], [72.6137946, 23.0569537], [72.6138056, 23.0570212]]}}, {"type": "Feature", "properties": {"osm_id": 1395010757, "osm_type": "way", "name": "", "amenity": "place_of_worship", "building": "yes"}, "geometry": {"type": "LineString", "coordinates": [[72.6200693, 23.0587678], [72.6199932, 23.0586175], [72.6202166, 23.0585218], [72.6202833, 23.0586536], [72.6201163, 23.0587253], [72.6201256, 23.0587436], [72.6200693, 23.0587678]]}}, {"type": "Feature", "properties": {"osm_id": 1395010766, "osm_type": "way", "name": "", "amenity": "place_of_worship", "building": "yes"}, "geometry": {"type": "LineString", "coordinates": [[72.6146226, 23.0537026], [72.6146277, 23.0536253], [72.6146896, 23.0536288], [72.6146845, 23.0537061], [72.6146226, 23.0537026]]}}, {"type": "Feature", "properties": {"osm_id": 1395103521, "osm_type": "way", "name": "", "amenity": "place_of_worship", "building": "yes", "religion": "hindu"}, "geometry": {"type": "LineString", "coordinates": [[72.6169226, 23.05929], [72.6167019, 23.0592891], [72.6167027, 23.0591242], [72.6169234, 23.0591251], [72.6169226, 23.05929]]}}]}