{"type": "FeatureCollection", "features": [{"type": "Feature", "geometry": {"type": "Point", "coordinates": [72.54051130863034, 23.067789289212982]}, "properties": {"objectid": 1, "name": "Pandit Dindayal Upadhyay   Muni.Library", "popupinfo": "", "zone": "NORTH-WEST ZONE", "ward": "07_GHATLODIA", "ward_id": 7, "zone_id": 6, "address": "Pandit Dindayal Upadhyay Muni.Library-Thakorvas Ghatlodiya Ahmedabad"}}, {"type": "Feature", "geometry": {"type": "Point", "coordinates": [72.55727599952162, 23.062248999846872]}, "properties": {"objectid": 2, "name": "Chandrakant Library,  Vijay Nagar", "popupinfo": "", "zone": "WEST ZONE", "ward": "09_NARANPURA", "ward_id": 9, "zone_id": 5, "address": "Chandrakant Library,Vijay Nagar- ,Ahmedabad Gujarat"}}, {"type": "Feature", "geometry": {"type": "Point", "coordinates": [72.54900900006238, 23.060111999677865]}, "properties": {"objectid": 3, "name": "Sheth Maneklal Jethalal   Sanchalit Library", "popupinfo": "", "zone": "WEST ZONE", "ward": "09_NARANPURA", "ward_id": 9, "zone_id": 5, "address": "Sheth Maneklal Jethalal Sanchalit Library-Opp-Block No- 83 Gujarat hou.board Vijay nagar Naranpura,Ahmedabad Gujarat"}}, {"type": "Feature", "geometry": {"type": "Point", "coordinates": [72.53991999994882, 23.056683999599215]}, "properties": {"objectid": 4, "name": "Sola Library", "popupinfo": "", "zone": "WEST ZONE", "ward": "09_NARANPURA", "ward_id": 9, "zone_id": 5, "address": "Sola Library- ,Ahmedabad Gujarat"}}, {"type": "Feature", "geometry": {"type": "Point", "coordinates": [72.63123500035283, 23.0815459996751]}, "properties": {"objectid": 5, "name": "Radhakishan Sharma   Muni.Library", "popupinfo": "", "zone": "NORTH ZONE", "ward": "11_SARDARNAGAR", "ward_id": 11, "zone_id": 2, "address": "Radhakishan Sharma Muni.Library-Opp- Police Choki Ambavadi Sardarnagar Ahmedabad"}}, {"type": "Feature", "geometry": {"type": "Point", "coordinates": [72.58665799954782, 23.018495999829096]}, "properties": {"objectid": 6, "name": "Swa.Lalbhai Kundivala   Muni.Library", "popupinfo": "", "zone": "CENTRAL ZONE", "ward": "29_JAMALPUR", "ward_id": 29, "zone_id": 1, "address": "Swa.Lalbhai Kundivala Muni.Library-Opp- Anjuman High School Chipavad JAMalpur Ahmedabad"}}, {"type": "Feature", "geometry": {"type": "Point", "coordinates": [72.5815160002269, 23.01321600011679]}, "properties": {"objectid": 7, "name": "Suny Palanpuri   Muni Library", "popupinfo": "", "zone": "CENTRAL ZONE", "ward": "29_JAMALPUR", "ward_id": 29, "zone_id": 1, "address": "Suny Palanpuri Muni Library-Sodaghar Ni Pole Opp-JAMalpur Darwaja Ahmedabad"}}, {"type": "Feature", "geometry": {"type": "Point", "coordinates": [72.5821119999362, 23.01306700001919]}, "properties": {"objectid": 8, "name": "ShekhadAM Abuvala   Muni Library", "popupinfo": "", "zone": "CENTRAL ZONE", "ward": "29_JAMALPUR", "ward_id": 29, "zone_id": 1, "address": "ShekhadAM Abuvala Muni Library-Opp-JAMalpur Pagthiya Tangarvad Ahmedabad"}}, {"type": "Feature", "geometry": {"type": "Point", "coordinates": [72.59152300033793, 23.028566999774068]}, "properties": {"objectid": 9, "name": "Kavi Dalpatram Library,  Relif Road", "popupinfo": "", "zone": "CENTRAL ZONE", "ward": "28_KHADIA", "ward_id": 28, "zone_id": 1, "address": "Kavi Dalpatram Library,Relif Road- ,Ahmedabad Gujarat"}}, {"type": "Feature", "geometry": {"type": "Point", "coordinates": [72.59631600047597, 23.028539999704474]}, "properties": {"objectid": 10, "name": "RA.B.GI.U.Muni.Library", "popupinfo": "", "zone": "CENTRAL ZONE", "ward": "28_KHADIA", "ward_id": 28, "zone_id": 1, "address": "RA.B.GI.U.Muni.Library-Kalupur Muni.Gujarati SchoolnO-22 Khodi AAMbali Ahmedabad"}}, {"type": "Feature", "geometry": {"type": "Point", "coordinates": [72.59368160523243, 23.028181476432845]}, "properties": {"objectid": 11, "name": "Ajit Bhagat Memorial   Trust Library", "popupinfo": "", "zone": "CENTRAL ZONE", "ward": "28_KHADIA", "ward_id": 28, "zone_id": 1, "address": "Ajit Bhagat Memorial Trust Library-Ajit Bhagat Memorial Trust Kalupur Ward No.2 Doshivada ni pole kalupur,Ahmedabad Gujarat"}}, {"type": "Feature", "geometry": {"type": "Point", "coordinates": [72.58613100032319, 23.023426999747816]}, "properties": {"objectid": 12, "name": "Dadabhai Navroji   Muni Library", "popupinfo": "", "zone": "CENTRAL ZONE", "ward": "28_KHADIA", "ward_id": 28, "zone_id": 1, "address": "Dadabhai Navroji Muni Library-Opp-pankornaka Ahmedabad"}}, {"type": "Feature", "geometry": {"type": "Point", "coordinates": [72.59486700016303, 23.021183999665674]}, "properties": {"objectid": 13, "name": "B.N.Library,Raipur", "popupinfo": "", "zone": "CENTRAL ZONE", "ward": "28_KHADIA", "ward_id": 28, "zone_id": 1, "address": "B.N.Library,Raipur- ,Ahmedabad Gujarat"}}, {"type": "Feature", "geometry": {"type": "Point", "coordinates": [72.59022459179248, 23.018004800850342]}, "properties": {"objectid": 14, "name": "Surendrabhai Patel (Daskaka)   Muni Library", "popupinfo": "", "zone": "CENTRAL ZONE", "ward": "28_KHADIA", "ward_id": 28, "zone_id": 1, "address": "Surendrabhai Patel (Daskaka) Muni Library-Astodiya Chakla Dhalni Pole,Ahmedabad Gujarat"}}, {"type": "Feature", "geometry": {"type": "Point", "coordinates": [72.62168471684106, 23.048727777270894]}, "properties": {"objectid": 15, "name": "Kavi Shree ManBhatt   Premanand Library,Naroda", "popupinfo": "", "zone": "NORTH ZONE", "ward": "22_INDIA_COLONY", "ward_id": 22, "zone_id": 2, "address": "Kavi Shree ManBhatt Premanand Library,Naroda-Opp-Vijay Mill Asarwa MarathiSchool No-1-2 Naroda Road Ahmedabad-380018"}}, {"type": "Feature", "geometry": {"type": "Point", "coordinates": [72.59872899970047, 23.057422999960977]}, "properties": {"objectid": 16, "name": "Sakriben Chturbhai SINI.City.  Muni.Library", "popupinfo": "", "zone": "CENTRAL ZONE", "ward": "16_SHAHIBAG", "ward_id": 16, "zone_id": 1, "address": "Sakriben Chturbhai SINI.City.Muni.Library-Shahibaugh Dafnala Ahmedabad"}}, {"type": "Feature", "geometry": {"type": "Point", "coordinates": [72.59860400023865, 23.054098000326146]}, "properties": {"objectid": 17, "name": "Trithkar Udhyan Muni.Library", "popupinfo": "", "zone": "CENTRAL ZONE", "ward": "16_SHAHIBAG", "ward_id": 16, "zone_id": 1, "address": "Trithkar Udhyan Muni.Library-Trithkar Udhyan Opp-Rajashthan Hospital Ahmedabad"}}, {"type": "Feature", "geometry": {"type": "Point", "coordinates": [72.60093799962048, 23.049959000325437]}, "properties": {"objectid": 18, "name": "Jethabhai Garden Muni.Library", "popupinfo": "", "zone": "CENTRAL ZONE", "ward": "16_SHAHIBAG", "ward_id": 16, "zone_id": 1, "address": "Jethabhai Garden Muni.Library-Civil Hospital Ahmedabad"}}, {"type": "Feature", "geometry": {"type": "Point", "coordinates": [72.59098600031393, 23.042149999719246]}, "properties": {"objectid": 19, "name": "Kavi Narmad Muni.Library", "popupinfo": "", "zone": "CENTRAL ZONE", "ward": "16_SHAHIBAG", "ward_id": 16, "zone_id": 1, "address": "Kavi Narmad Muni.Library-Hajipura Garden Madhupura Bardolpura Ahmedabad"}}, {"type": "Feature", "geometry": {"type": "Point", "coordinates": [72.62964699962771, 23.06104299983037]}, "properties": {"objectid": 20, "name": "Kanaiyalal Nathuram Library,  Kubernagar", "popupinfo": "", "zone": "NORTH ZONE", "ward": "14_KUBERNAGR", "ward_id": 14, "zone_id": 2, "address": "Kanaiyalal Nathuram Library,Kubernagar- ,Ahmedabad Gujarat"}}, {"type": "Feature", "geometry": {"type": "Point", "coordinates": [72.63700900034412, 23.058452999655888]}, "properties": {"objectid": 21, "name": "Saijpur Library", "popupinfo": "", "zone": "NORTH ZONE", "ward": "13_SAIJPUR_BOGHA", "ward_id": 13, "zone_id": 2, "address": "Saijpur Library- ,Ahmedabad Gujarat"}}, {"type": "Feature", "geometry": {"type": "Point", "coordinates": [72.63200599951499, 23.053361000105273]}, "properties": {"objectid": 22, "name": "Vir Savarkar Muni.Library", "popupinfo": "", "zone": "NORTH ZONE", "ward": "13_SAIJPUR_BOGHA", "ward_id": 13, "zone_id": 2, "address": "Vir Savarkar Muni.Library-Sport Compound Memco Ahmedabad"}}, {"type": "Feature", "geometry": {"type": "Point", "coordinates": [72.62565060730638, 23.036865143445763]}, "properties": {"objectid": 23, "name": "Ishawarlal Kachrabhai Parmar   Muni.Library", "popupinfo": "", "zone": "NORTH ZONE", "ward": "26_BAPUNAGAR", "ward_id": 26, "zone_id": 2, "address": "Ishawarlal Kachrabhai Parmar Muni.Library-Opp-Shreeji vidhyalaya Bapunagar Ahmedabad"}}, {"type": "Feature", "geometry": {"type": "Point", "coordinates": [72.63537599978099, 23.0259949998725]}, "properties": {"objectid": 24, "name": "Chnadrkant Bakshi   Muni.Library", "popupinfo": "", "zone": "NORTH ZONE", "ward": "26_BAPUNAGAR", "ward_id": 26, "zone_id": 2, "address": "Chnadrkant Bakshi Muni.Library-Bh-Devpath Flat Arban Health Centre Nava Vadaj Ahmedabad"}}, {"type": "Feature", "geometry": {"type": "Point", "coordinates": [72.61129299993493, 23.032047000282294]}, "properties": {"objectid": 25, "name": "SureshBhai Ramkumar Joshi   Library,Sarspur", "popupinfo": "", "zone": "NORTH ZONE", "ward": "27_SARASPUR_RAKHIYAL", "ward_id": 27, "zone_id": 2, "address": "sureshBhai Ramkumar Joshi Library,Sarspur- ,Ahmedabad Gujarat"}}, {"type": "Feature", "geometry": {"type": "Point", "coordinates": [72.62371199992842, 23.0217740002856]}, "properties": {"objectid": 26, "name": "V.N.Shah Library,Rakhiyal", "popupinfo": "", "zone": "NORTH ZONE", "ward": "27_SARASPUR_RAKHIYAL", "ward_id": 27, "zone_id": 2, "address": "V.N.Shah Library,Rakhiyal- ,Ahmedabad Gujarat"}}, {"type": "Feature", "geometry": {"type": "Point", "coordinates": [72.62041077414631, 22.975728833775467]}, "properties": {"objectid": 27, "name": "Kavi RAManlal Vashantbhai Desai   Muni.Library", "popupinfo": "", "zone": "SOUTH ZONE", "ward": "47_VATVA", "ward_id": 47, "zone_id": 3, "address": "Kavi RAManlal Vashantbhai Desai Muni.Library-Opp-Krishnapark Tubevel Fa.Plot no28 Nikol Ahmedabad"}}, {"type": "Feature", "geometry": {"type": "Point", "coordinates": [72.57718000000031, 23.00324399973436]}, "properties": {"objectid": 28, "name": "Kaniyalal NathurAM Bhil   Muni.Library", "popupinfo": "", "zone": "SOUTH ZONE", "ward": "35_BAHERAMPURA", "ward_id": 35, "zone_id": 3, "address": "Kaniyalal NathurAM Bhil Muni.Library-Opp-Gurulrupa Pumping Station Kubernagar Ahmedabad"}}, {"type": "Feature", "geometry": {"type": "Point", "coordinates": [72.58641200018158, 23.009209000132444]}, "properties": {"objectid": 29, "name": "Bhikhubhai Chavda Muni Library", "popupinfo": "", "zone": "SOUTH ZONE", "ward": "36_DANILIMDA", "ward_id": 36, "zone_id": 3, "address": "Bhikhubhai Chavda Muni Library-Opp-liladharbhai Holl BehrAMbhai Ahmedabad"}}, {"type": "Feature", "geometry": {"type": "Point", "coordinates": [72.54864199999703, 23.009308999846933]}, "properties": {"objectid": 30, "name": "K.K.Shastri Muni.Library", "popupinfo": "", "zone": "WEST ZONE", "ward": "30_PALDI", "ward_id": 30, "zone_id": 5, "address": "K.K.Shastri Muni.Library-Dhrnidhar Derasar Char Rasta Paldi Ahmedabad"}}, {"type": "Feature", "geometry": {"type": "Point", "coordinates": [72.55408899987154, 23.003902000136858]}, "properties": {"objectid": 31, "name": "Surishwar Library,  Vasana Branch Libarary", "popupinfo": "", "zone": "WEST ZONE", "ward": "30_PALDI", "ward_id": 30, "zone_id": 5, "address": "Surishwar Library,Vasana Branch Libarary-Chandranagar Road Opp-Anjali Char Rasta Vasna Ahmedabad"}}, {"type": "Feature", "geometry": {"type": "Point", "coordinates": [72.58015499958142, 23.043313999659954]}, "properties": {"objectid": 32, "name": "Jayotindra Dave   Muni Library", "popupinfo": "", "zone": "CENTRAL ZONE", "ward": "17_SHAHPUR", "ward_id": 17, "zone_id": 1, "address": "Jayotindra Dave Muni Library-Opp-lalakaka Holl Shahpur Ahmedabad"}}, {"type": "Feature", "geometry": {"type": "Point", "coordinates": [72.58144200013648, 23.039086000171356]}, "properties": {"objectid": 33, "name": "Chimanlal PurshottAMdas Gajjar   Muni Library", "popupinfo": "", "zone": "CENTRAL ZONE", "ward": "21_DARIYAPUR", "ward_id": 21, "zone_id": 1, "address": "Chimanlal PurshottAMdas Gajjar Muni Library-Jivankadashi ni Pole Shahpur Ahmedabad"}}, {"type": "Feature", "geometry": {"type": "Point", "coordinates": [72.58934799971647, 23.03133399959053]}, "properties": {"objectid": 34, "name": "RA.B.GI.U Library", "popupinfo": "", "zone": "CENTRAL ZONE", "ward": "21_DARIYAPUR", "ward_id": 21, "zone_id": 1, "address": "RA.B.GI.U Library- ,Ahmedabad Gujarat"}}, {"type": "Feature", "geometry": {"type": "Point", "coordinates": [72.60531300036013, 23.043754000123606]}, "properties": {"objectid": 35, "name": "dayanand Sarshwati   Muni Library", "popupinfo": "", "zone": "CENTRAL ZONE", "ward": "15_ASARWA", "ward_id": 15, "zone_id": 1, "address": "dayanand Sarshwati Muni Library- ,Ahmedabad Gujarat"}}, {"type": "Feature", "geometry": {"type": "Point", "coordinates": [72.60537899965918, 23.043750000320156]}, "properties": {"objectid": 36, "name": "Koutilya Muni Library", "popupinfo": "", "zone": "CENTRAL ZONE", "ward": "15_ASARWA", "ward_id": 15, "zone_id": 1, "address": "Koutilya Muni Library-Asarwa Chkla Asarwa Ahmedabad"}}, {"type": "Feature", "geometry": {"type": "Point", "coordinates": [72.56123099975645, 23.036051000146937]}, "properties": {"objectid": 37, "name": "Kaniyalal Maneklal Munshi   Muni.Library", "popupinfo": "", "zone": "WEST ZONE", "ward": "18_NAVRANGPURA", "ward_id": 18, "zone_id": 5, "address": "Kaniyalal Maneklal Munshi Muni.Library-Swastik Char Rasta Muni.JimenshiyAM Opp- Bhilvadaroad Bhaipura Ahmedabad"}}, {"type": "Feature", "geometry": {"type": "Point", "coordinates": [72.53583500027757, 23.027244999621924]}, "properties": {"objectid": 38, "name": "Kavi shree Rajendra shah Library,  Himmat lal park", "popupinfo": "", "zone": "WEST ZONE", "ward": "18_NAVRANGPURA", "ward_id": 18, "zone_id": 5, "address": "Kavi shree Rajendra shah Library,Himmat lal park- ,Ahmedabad Gujarat"}}, {"type": "Feature", "geometry": {"type": "Point", "coordinates": [72.57069399977345, 23.023358000158662]}, "properties": {"objectid": 39, "name": "Sheth Maneklal Jethalal   Sanchalit Library", "popupinfo": "", "zone": "WEST ZONE", "ward": "18_NAVRANGPURA", "ward_id": 9, "zone_id": 5, "address": "Sheth Maneklal Jethalal Sanchalit Library-Elish Bridge-Ahmedabad"}}, {"type": "Feature", "geometry": {"type": "Point", "coordinates": [72.52018099984788, 23.03965100012535]}, "properties": {"objectid": 40, "name": "MakrantBhai desai Library,  Bodakdev", "popupinfo": "", "zone": "NORTH-WEST ZONE", "ward": "19_BODAKDEV", "ward_id": 19, "zone_id": 6, "address": "MakrantBhai desai Library,Bodakdev- ,Ahmedabad Gujarat"}}, {"type": "Feature", "geometry": {"type": "Point", "coordinates": [72.6078939998546, 23.01400500022069]}, "properties": {"objectid": 41, "name": "Shree RAManlal Nilkhanth   Muni Library", "popupinfo": "", "zone": "SOUTH ZONE", "ward": "44_KHOKHRA", "ward_id": 44, "zone_id": 3, "address": "Shree RAManlal Nilkhanth Muni Library-Opp-Joshef School Rajpur Mansurini chali Ahmedabad"}}, {"type": "Feature", "geometry": {"type": "Point", "coordinates": [72.61946800002431, 23.00173500035396]}, "properties": {"objectid": 42, "name": "Kavi Suresh HariPrashad   Joshi Muni.Library", "popupinfo": "", "zone": "SOUTH ZONE", "ward": "44_KHOKHRA", "ward_id": 44, "zone_id": 3, "address": "Kavi Suresh HariPrashad Joshi Muni.Library-Old-Maleriya Office Opp- Muni.School Khokhra Ahmedabad"}}, {"type": "Feature", "geometry": {"type": "Point", "coordinates": [72.61626900026334, 22.99242300041989]}, "properties": {"objectid": 43, "name": "Manishankar Ratanji Bhatt   Muni Library", "popupinfo": "", "zone": "SOUTH ZONE", "ward": "44_KHOKHRA", "ward_id": 44, "zone_id": 3, "address": "Manishankar Ratanji Bhatt Muni Library-Opp-Bajkhedavala Society Khokhra Ahmedabad"}}, {"type": "Feature", "geometry": {"type": "Point", "coordinates": [72.6116969995346, 23.0126290000353]}, "properties": {"objectid": 44, "name": "Dr. Babasaheb Ambedkar   Muni.Library", "popupinfo": "", "zone": "EAST ZONE", "ward": "39_AMRAIWADI", "ward_id": 39, "zone_id": 4, "address": "Dr. Babasaheb Ambedkar Muni.Library-Kundavadi achali GomtipurDarwaja Bahar Ahmedabad"}}, {"type": "Feature", "geometry": {"type": "Point", "coordinates": [72.6259900002424, 23.00949000027291]}, "properties": {"objectid": 45, "name": "Narsinhrav divetiya   Muni.Library", "popupinfo": "", "zone": "EAST ZONE", "ward": "39_AMRAIWADI", "ward_id": 39, "zone_id": 4, "address": "Narsinhrav divetiya Muni.Library-Opp-P.M.Ghyanmandir Mathur Master Char Rasta Amraivadi Ahmedabad"}}, {"type": "Feature", "geometry": {"type": "Point", "coordinates": [72.62582742428675, 23.008583962606792]}, "properties": {"objectid": 46, "name": "Kanaiya lal Maneklal   Munsi Library", "popupinfo": "", "zone": "EAST ZONE", "ward": "39_AMRAIWADI", "ward_id": 39, "zone_id": 4, "address": "Kanaiya lal Maneklal Munsi Library- ,Ahmedabad Gujarat"}}, {"type": "Feature", "geometry": {"type": "Point", "coordinates": [72.62753900002784, 23.00797900007035]}, "properties": {"objectid": 47, "name": "Reading room,Amaraywadi", "popupinfo": "", "zone": "EAST ZONE", "ward": "39_AMRAIWADI", "ward_id": 39, "zone_id": 4, "address": "Reading room,Amaraywadi- ,Ahmedabad Gujarat"}}, {"type": "Feature", "geometry": {"type": "Point", "coordinates": [72.61980300000204, 23.006453000437695]}, "properties": {"objectid": 48, "name": "Sheth Maneklal Jethalal   Sanchalit Library", "popupinfo": "", "zone": "EAST ZONE", "ward": "39_AMRAIWADI", "ward_id": 9, "zone_id": 5, "address": "Sheth Maneklal Jethalal Sanchalit Library-Opp- Laliteshwar Mahadev Near-New Cotton Circle Ahmedabad-380026"}}, {"type": "Feature", "geometry": {"type": "Point", "coordinates": [72.65681600018792, 23.074474999677417]}, "properties": {"objectid": 49, "name": "Patel.K.K.Muni Library", "popupinfo": "", "zone": "NORTH ZONE", "ward": "12_NARODA", "ward_id": 12, "zone_id": 2, "address": "Patel.K.K.Muni Library-Naroda GAM Na Nake Ahmedabad"}}, {"type": "Feature", "geometry": {"type": "Point", "coordinates": [72.6466449995506, 23.051071000057032]}, "properties": {"objectid": 50, "name": "Thakkarbapanagar Library", "popupinfo": "", "zone": "NORTH ZONE", "ward": "23_THAKKARBAPANAGAR", "ward_id": 23, "zone_id": 2, "address": "Thakkarbapanagar Library- ,Ahmedabad Gujarat"}}, {"type": "Feature", "geometry": {"type": "Point", "coordinates": [72.63321400039393, 22.991600000429216]}, "properties": {"objectid": 51, "name": "Kaka Kalekar Muni.Library.", "popupinfo": "", "zone": "EAST ZONE", "ward": "42_INDRAPURI", "ward_id": 42, "zone_id": 4, "address": "Kaka Kalekar Muni.Library.-C.T.M.Char Rasta Ahmedabad."}}, {"type": "Feature", "geometry": {"type": "Point", "coordinates": [72.6608541328946, 23.023591317430085]}, "properties": {"objectid": 52, "name": "Umashankar Joshi   Muni.Library", "popupinfo": "", "zone": "EAST ZONE", "ward": "40_ODHAV", "ward_id": 40, "zone_id": 4, "address": "Umashankar Joshi Muni.Library-Opp- Circuit House Gayatri Temple Ahmedabad"}}, {"type": "Feature", "geometry": {"type": "Point", "coordinates": [72.64391399954873, 23.02553000025999]}, "properties": {"objectid": 53, "name": "Kavi ramanlal vasantlal Desai,  Nikol", "popupinfo": "", "zone": "EAST ZONE", "ward": "25_VIRATNAGAR", "ward_id": 25, "zone_id": 4, "address": "Kavi ramanlal vasantlal Desai,Nikol- ,Ahmedabad Gujarat"}}, {"type": "Feature", "geometry": {"type": "Point", "coordinates": [72.5202890003014, 23.017079000355356]}, "properties": {"objectid": 54, "name": "Vasantbhai Rami Library", "popupinfo": "", "zone": "SOUTH-WEST ZONE", "ward": "20_JODHPUR", "ward_id": 20, "zone_id": 7, "address": "Vasantbhai Rami Library- ,Ahmedabad Gujarat"}}, {"type": "Feature", "geometry": {"type": "Point", "coordinates": [72.53145499990775, 23.01105099997942]}, "properties": {"objectid": 55, "name": "Dr.Shyama Prashad Mukharji", "popupinfo": "", "zone": "SOUTH-WEST ZONE", "ward": "20_JODHPUR", "ward_id": 20, "zone_id": 7, "address": "Dr.Shyama Prashad Mukharji-Dr.Shyama Prashad Mukharji Over Bridge Under 132 Foot RingRoad Vejalpur,Ahmedabad Gujarat"}}, {"type": "Feature", "geometry": {"type": "Point", "coordinates": [72.58984899961321, 23.08341200000799]}, "properties": {"objectid": 56, "name": "Mahatmagandhi Muni Library", "popupinfo": "", "zone": "WEST ZONE", "ward": "04_SABARMATI", "ward_id": 4, "zone_id": 5, "address": "Mahatmagandhi Muni Library-RAMnagar Chok Sabarmati Ahmedabad"}}, {"type": "Feature", "geometry": {"type": "Point", "coordinates": [72.58902100029377, 23.08002999983862]}, "properties": {"objectid": 57, "name": "Nanhalal Kavi Muni.Library", "popupinfo": "", "zone": "WEST ZONE", "ward": "04_SABARMATI", "ward_id": 4, "zone_id": 5, "address": "Nanhalal Kavi Muni.Library-Opp-Parshi Agiyari Katodiya Ahmedabad"}}, {"type": "Feature", "geometry": {"type": "Point", "coordinates": [72.6140339997257, 23.018206999829854]}, "properties": {"objectid": 58, "name": "Pannalal Patel Muni Library", "popupinfo": "", "zone": "EAST ZONE", "ward": "38_GOMTIPUR", "ward_id": 38, "zone_id": 4, "address": "Pannalal Patel Muni Library-Opp-Gomtipur Darwaja Ahmedabad"}}, {"type": "Feature", "geometry": {"type": "Point", "coordinates": [72.56663200042203, 23.063560000257663]}, "properties": {"objectid": 59, "name": "Chandrakant Baxi Library", "popupinfo": "", "zone": "WEST ZONE", "ward": "06_NEW_WADAJ", "ward_id": 6, "zone_id": 5, "address": "Chandrakant Baxi Library- ,Ahmedabad Gujarat"}}, {"type": "Feature", "geometry": {"type": "Point", "coordinates": [72.59691599967931, 23.012024000210005]}, "properties": {"objectid": 60, "name": "Narayanbhai Ranchhodbhai   Library,Kantodiya", "popupinfo": "", "zone": "SOUTH ZONE", "ward": "37_MANINAGAR", "ward_id": 37, "zone_id": 3, "address": "Narayanbhai Ranchhodbhai Library,Kantodiya- ,Ahmedabad Gujarat"}}, {"type": "Feature", "geometry": {"type": "Point", "coordinates": [72.60281400006598, 22.99832299981388]}, "properties": {"objectid": 61, "name": "GorvardhanrAM Tripathi   Muni Library", "popupinfo": "", "zone": "SOUTH ZONE", "ward": "37_MANINAGAR", "ward_id": 37, "zone_id": 3, "address": "GorvardhanrAM Tripathi Muni Library-Opp- Fire Briged RAMbaugh Maninagar,Ahmedabad Gujarat"}}, {"type": "Feature", "geometry": {"type": "Point", "coordinates": [72.60734699971914, 22.991631000339055]}, "properties": {"objectid": 62, "name": "Atma Science & Technology   Library", "popupinfo": "", "zone": "SOUTH ZONE", "ward": "37_MANINAGAR", "ward_id": 37, "zone_id": 3, "address": "Atma Science & Technology Library-Opp-Maninagar Tenish Court Bh-Kamla Nehru Udhyan Uttamnagar Maninagar Ahmedabad"}}]}