{"type": "FeatureCollection", "features": [{"type": "Feature", "properties": {"osm_id": 1429887850, "osm_type": "node", "name": "Exhibition & Spatial Design", "amenity": "school"}, "geometry": {"type": "Point", "coordinates": [72.5699733, 23.0113752]}}, {"type": "Feature", "properties": {"osm_id": 1781756906, "osm_type": "node", "name": "Prabhudas Thakkar College", "amenity": "school"}, "geometry": {"type": "Point", "coordinates": [72.5669236, 23.0033486]}}, {"type": "Feature", "properties": {"osm_id": 2631872456, "osm_type": "node", "name": "Navchetan School", "amenity": "school"}, "geometry": {"type": "Point", "coordinates": [72.5630784, 23.0152445]}}, {"type": "Feature", "properties": {"osm_id": 10793981570, "osm_type": "node", "name": "Divan Ballubhai School", "amenity": "school"}, "geometry": {"type": "Point", "coordinates": [72.5686984, 23.0122755]}}, {"type": "Feature", "properties": {"osm_id": 12771465191, "osm_type": "node", "name": "Anand Niketan School Sarkhej", "amenity": "school"}, "geometry": {"type": "Point", "coordinates": [72.4823886, 22.9892365]}}, {"type": "Feature", "properties": {"osm_id": 49245077, "osm_type": "way", "name": "National Institute of Design (NID)", "amenity": "college"}, "geometry": {"type": "LineString", "coordinates": [[72.5692321, 23.0121594], [72.5693015, 23.0121356], [72.5719975, 23.0112022], [72.5702335, 23.0078094], [72.5699394, 23.0079555], [72.5698585, 23.0078305], [72.5694715, 23.0080383], [72.5705853, 23.010009], [72.5705947, 23.0100264], [72.5686073, 23.0112056], [72.5687155, 23.0117063], [72.5689906, 23.0119476], [72.569094, 23.0120383], [72.5692321, 23.0121594]]}}, {"type": "Feature", "properties": {"osm_id": 190711667, "osm_type": "way", "name": "Gujarat College", "amenity": "college"}, "geometry": {"type": "LineString", "coordinates": [[72.5667056, 23.0234586], [72.5630657, 23.0230703], [72.5628949, 23.0230855], [72.5627984, 23.0230756], [72.5626911, 23.0230953], [72.5600529, 23.0227305], [72.5599456, 23.0227404], [72.5607492, 23.0203009], [72.5607824, 23.020252], [72.560918, 23.0202785], [72.5636578, 23.0208149], [72.5669239, 23.0218596], [72.5670226, 23.0220666], [72.5667056, 23.0234586]]}}, {"type": "Feature", "properties": {"osm_id": 317356287, "osm_type": "way", "name": "Smt. N.H.L. Municipal Medical College", "amenity": "college", "building": "yes"}, "geometry": {"type": "LineString", "coordinates": [[72.5710467, 23.0190274], [72.571142, 23.0190105], [72.5711847, 23.019003], [72.5713321, 23.0189769], [72.5718737, 23.0188927], [72.5717237, 23.0181451], [72.5708857, 23.0182663], [72.5710467, 23.0190274]]}}, {"type": "Feature", "properties": {"osm_id": 317790337, "osm_type": "way", "name": "Municipal School", "amenity": "school"}, "geometry": {"type": "LineString", "coordinates": [[72.5587628, 23.0157248], [72.559167, 23.0158938], [72.5594609, 23.015373], [72.5590531, 23.0151803], [72.5587628, 23.0157248]]}}, {"type": "Feature", "properties": {"osm_id": 323031983, "osm_type": "way", "name": "Shreyas Foundation School", "amenity": "school"}, "geometry": {"type": "LineString", "coordinates": [[72.5383845, 23.0165938], [72.5395098, 23.0166961], [72.5395543, 23.0159551], [72.5395588, 23.0158814], [72.5409955, 23.0160451], [72.5412402, 23.0149172], [72.5426569, 23.0150441], [72.5425947, 23.0138957], [72.5402988, 23.0136788], [72.5400692, 23.0135283], [72.5390564, 23.0126163], [72.5389605, 23.0125279], [72.5375971, 23.0123743], [72.5375415, 23.0128206], [72.5378551, 23.0134921], [72.5382043, 23.0141553], [72.5385334, 23.0146875], [72.5385801, 23.0147592], [72.5383845, 23.0165938]]}}, {"type": "Feature", "properties": {"osm_id": 327199050, "osm_type": "way", "name": "Balghar", "amenity": "school"}, "geometry": {"type": "LineString", "coordinates": [[72.5713818, 23.0255591], [72.5726446, 23.0254474], [72.5726782, 23.0248969], [72.5714101, 23.0249856], [72.5713818, 23.0255591]]}}, {"type": "Feature", "properties": {"osm_id": 327581426, "osm_type": "way", "name": "Amrut Jyoti School", "amenity": "school", "building": "school"}, "geometry": {"type": "LineString", "coordinates": [[72.565132, 23.0189197], [72.5651062, 23.0189102], [72.5650785, 23.0189746], [72.5651238, 23.0189912], [72.5651251, 23.0190131], [72.5653059, 23.0190797], [72.5653574, 23.0189611], [72.5652268, 23.018913], [72.5653134, 23.0187136], [72.5655117, 23.0187866], [72.5654404, 23.0189509], [72.5655032, 23.018974], [72.565592, 23.018769], [72.5655465, 23.0187523], [72.5655624, 23.0187157], [72.565307, 23.0186222], [72.5652688, 23.0187107], [72.5652284, 23.018696], [72.565132, 23.0189197]]}}, {"type": "Feature", "properties": {"osm_id": 330927699, "osm_type": "way", "name": "Shardamandir School", "amenity": "school"}, "geometry": {"type": "LineString", "coordinates": [[72.5486416, 23.0132604], [72.5502267, 23.0138317], [72.5502994, 23.0135859], [72.5502926, 23.0134555], [72.550292, 23.013444], [72.5500909, 23.0133829], [72.5500763, 23.0130215], [72.5500486, 23.0127975], [72.5498495, 23.0127567], [72.5496145, 23.0128123], [72.5494194, 23.0128691], [72.5491334, 23.0128991], [72.5489033, 23.0130229], [72.5487553, 23.0131675], [72.5486416, 23.0132604]]}}, {"type": "Feature", "properties": {"osm_id": 336335115, "osm_type": "way", "name": "Sheth Chimanlal Nagindas Vidyavihar", "amenity": "school"}, "geometry": {"type": "LineString", "coordinates": [[72.550553, 23.0201851], [72.5505731, 23.0203899], [72.550614, 23.0206393], [72.5506797, 23.0208831], [72.5509581, 23.0210938], [72.5516652, 23.0216475], [72.5519952, 23.0214623], [72.5530212, 23.0208665], [72.5524149, 23.020304], [72.551644, 23.0195884], [72.5518593, 23.0188374], [72.5518227, 23.0187306], [72.5510888, 23.0180421], [72.5503005, 23.0174148], [72.5501056, 23.0172804], [72.5494405, 23.0168216], [72.5490778, 23.0172256], [72.5489924, 23.0172817], [72.5475019, 23.0161568], [72.5471598, 23.0159095], [72.5470387, 23.0158212], [72.5469212, 23.0159632], [72.546342, 23.0164598], [72.546028, 23.0168498], [72.5458511, 23.0173829], [72.5457475, 23.0180816], [72.5457749, 23.0182612], [72.545845, 23.0183678], [72.5459182, 23.0187886], [72.5459975, 23.0191534], [72.5463907, 23.0196388], [72.5468114, 23.020604], [72.5470797, 23.0212549], [72.5472169, 23.0214008], [72.5476742, 23.0213812], [72.5477382, 23.0214766], [72.5477961, 23.0219339], [72.5480756, 23.0219861], [72.5489698, 23.0221612], [72.5492076, 23.0221864], [72.5492381, 23.0207134], [72.5492503, 23.0204581], [72.5492843, 23.0200634], [72.550553, 23.0201851]]}}, {"type": "Feature", "properties": {"osm_id": 446611640, "osm_type": "way", "name": "Anand Niketan", "amenity": "school"}, "geometry": {"type": "LineString", "coordinates": [[72.50813, 23.0225223], [72.5063476, 23.0223605], [72.5063548, 23.0211513], [72.5074706, 23.0211858], [72.5074732, 23.0213117], [72.5081974, 23.0213216], [72.50813, 23.0225223]]}}, {"type": "Feature", "properties": {"osm_id": 552128733, "osm_type": "way", "name": "Cosmos Castle International School", "amenity": "school"}, "geometry": {"type": "LineString", "coordinates": [[72.4932338, 23.0052501], [72.4943764, 23.0056451], [72.4948485, 23.0046871], [72.4935664, 23.0043613], [72.4932338, 23.0052501]]}}, {"type": "Feature", "properties": {"osm_id": 729115637, "osm_type": "way", "name": "Brighton Primary English School", "amenity": "school"}, "geometry": {"type": "LineString", "coordinates": [[72.5726176, 22.9799207], [72.5726471, 22.9798676], [72.5726967, 22.979775], [72.5727584, 22.9798022], [72.5728308, 22.9798331], [72.5727785, 22.979933], [72.572749, 22.9799849], [72.5726176, 22.9799207]]}}, {"type": "Feature", "properties": {"osm_id": 972303788, "osm_type": "way", "name": "", "amenity": "school"}, "geometry": {"type": "LineString", "coordinates": [[72.5220389, 23.0184043], [72.5224324, 23.0183984], [72.5224259, 23.0182915], [72.5220485, 23.0182559], [72.5220389, 23.0184043]]}}, {"type": "Feature", "properties": {"osm_id": 1204808509, "osm_type": "way", "name": "Narayana Business School", "amenity": "college"}, "geometry": {"type": "LineString", "coordinates": [[72.4784133, 22.9656282], [72.4775147, 22.9654344], [72.4773578, 22.9660197], [72.4773149, 22.9662926], [72.4776904, 22.9664185], [72.4783796, 22.9665545], [72.4785729, 22.9665926], [72.4786253, 22.9663554], [72.4786444, 22.9662689], [72.4787191, 22.9659308], [72.4786361, 22.9658337], [72.4784817, 22.9656529], [72.4784133, 22.9656282]]}}, {"type": "Feature", "properties": {"osm_id": 2524142390, "osm_type": "node", "name": "AMC MET Medical College", "amenity": "college"}, "geometry": {"type": "Point", "coordinates": [72.6046567, 22.9986434]}}, {"type": "Feature", "properties": {"osm_id": 2529047702, "osm_type": "node", "name": "Jivkorbhai Lallubhai High School", "amenity": "school"}, "geometry": {"type": "Point", "coordinates": [72.6026493, 22.9987803]}}, {"type": "Feature", "properties": {"osm_id": 2529047723, "osm_type": "node", "name": "KK Shah Jarodwala Science College", "amenity": "college"}, "geometry": {"type": "Point", "coordinates": [72.6030289, 22.998722]}}, {"type": "Feature", "properties": {"osm_id": 4460015490, "osm_type": "node", "name": "F D High School for Girls, Jamalpur", "amenity": "school"}, "geometry": {"type": "Point", "coordinates": [72.5831726, 23.0119864]}}, {"type": "Feature", "properties": {"osm_id": 4704669693, "osm_type": "node", "name": "VIVEKANAND VIDYALAYA", "amenity": "school"}, "geometry": {"type": "Point", "coordinates": [72.6362813, 23.0094986]}}, {"type": "Feature", "properties": {"osm_id": 326731568, "osm_type": "way", "name": "AMC MET Medical College", "amenity": "college"}, "geometry": {"type": "LineString", "coordinates": [[72.6049989, 22.998877], [72.6049819, 22.9981455], [72.6040637, 22.9980589], [72.6039797, 22.9980527], [72.6038454, 22.9988493], [72.6038399, 22.9988822], [72.6049989, 22.998877]]}}, {"type": "Feature", "properties": {"osm_id": 332257496, "osm_type": "way", "name": "", "amenity": "school"}, "geometry": {"type": "LineString", "coordinates": [[72.581637, 23.0122866], [72.5833445, 23.0123175], [72.5843571, 23.0122889], [72.5841349, 23.0112333], [72.5835873, 23.0110478], [72.5813864, 23.0103322], [72.5812753, 23.0103274], [72.5812573, 23.0104178], [72.5815724, 23.0122509], [72.581637, 23.0122866]]}}, {"type": "Feature", "properties": {"osm_id": 548351357, "osm_type": "way", "name": "Divan Ballubhai Madhyamik Shala", "amenity": "school"}, "geometry": {"type": "LineString", "coordinates": [[72.5992791, 23.0120094], [72.6005727, 23.0122458], [72.6007291, 23.010722], [72.6003053, 23.0103146], [72.5998823, 23.0108224], [72.5993994, 23.0114017], [72.5994441, 23.0114378], [72.5992791, 23.0120094]]}}, {"type": "Feature", "properties": {"osm_id": 429228993, "osm_type": "node", "name": "St. Xavier's High School, Loyola Hall", "amenity": "school"}, "geometry": {"type": "Point", "coordinates": [72.5490839, 23.047875]}}, {"type": "Feature", "properties": {"osm_id": 429229001, "osm_type": "node", "name": "Mt. Carmel School", "amenity": "school"}, "geometry": {"type": "Point", "coordinates": [72.568061, 23.0351192]}}, {"type": "Feature", "properties": {"osm_id": 429438524, "osm_type": "node", "name": "Navrang School", "amenity": "school"}, "geometry": {"type": "Point", "coordinates": [72.556364, 23.0483604]}}, {"type": "Feature", "properties": {"osm_id": 429790285, "osm_type": "node", "name": "DPS - Delhi Public School, Bopal", "amenity": "school"}, "geometry": {"type": "Point", "coordinates": [72.4575053, 23.0419569]}}, {"type": "Feature", "properties": {"osm_id": 429790293, "osm_type": "node", "name": "A. G. Teachers High School", "amenity": "school"}, "geometry": {"type": "Point", "coordinates": [72.5484846, 23.0403655]}}, {"type": "Feature", "properties": {"osm_id": 429795953, "osm_type": "node", "name": "St. Xavier's College", "amenity": "college"}, "geometry": {"type": "Point", "coordinates": [72.5517045, 23.0329052]}}, {"type": "Feature", "properties": {"osm_id": 429795955, "osm_type": "node", "name": "SLIMS - Som Lalit Institute of Management Studies", "amenity": "college"}, "geometry": {"type": "Point", "coordinates": [72.5537987, 23.0337029]}}, {"type": "Feature", "properties": {"osm_id": 1746708887, "osm_type": "node", "name": "Kendriya Vidyalaya SAC", "amenity": "school"}, "geometry": {"type": "Point", "coordinates": [72.5337334, 23.0370691]}}, {"type": "Feature", "properties": {"osm_id": 1779228522, "osm_type": "node", "name": "Sahajanand College", "amenity": "school"}, "geometry": {"type": "Point", "coordinates": [72.5430971, 23.0258294]}}, {"type": "Feature", "properties": {"osm_id": 2699808827, "osm_type": "node", "name": "Karmachari Shiksan Tirth", "amenity": "school"}, "geometry": {"type": "Point", "coordinates": [72.5415796, 23.064931]}}, {"type": "Feature", "properties": {"osm_id": 2699818334, "osm_type": "node", "name": "M B Patel Gyanjyot High School", "amenity": "school"}, "geometry": {"type": "Point", "coordinates": [72.5460531, 23.0702999]}}, {"type": "Feature", "properties": {"osm_id": 2699821694, "osm_type": "node", "name": "Gyanda Girls High School", "amenity": "school"}, "geometry": {"type": "Point", "coordinates": [72.5479789, 23.072279]}}, {"type": "Feature", "properties": {"osm_id": 2699822722, "osm_type": "node", "name": "Nutan Vidya Vihar", "amenity": "school"}, "geometry": {"type": "Point", "coordinates": [72.5428774, 23.0681554]}}, {"type": "Feature", "properties": {"osm_id": 3775189519, "osm_type": "node", "name": "RC TECHNICAL INSTITUTE", "amenity": "college"}, "geometry": {"type": "Point", "coordinates": [72.5307242, 23.0830479]}}, {"type": "Feature", "properties": {"osm_id": 4486373609, "osm_type": "node", "name": "SN Collage", "amenity": "college"}, "geometry": {"type": "Point", "coordinates": [72.5148851, 23.0283544]}}, {"type": "Feature", "properties": {"osm_id": 4486373635, "osm_type": "node", "name": "SN School", "amenity": "school"}, "geometry": {"type": "Point", "coordinates": [72.514922, 23.0281673]}}, {"type": "Feature", "properties": {"osm_id": 4486700549, "osm_type": "node", "name": "Gujrat Vidhyapeeth", "amenity": "university"}, "geometry": {"type": "Point", "coordinates": [72.5692947, 23.0441852]}}, {"type": "Feature", "properties": {"osm_id": 4572721089, "osm_type": "node", "name": "", "amenity": "school"}, "geometry": {"type": "Point", "coordinates": [72.4669988, 23.0357335]}}, {"type": "Feature", "properties": {"osm_id": 4629857148, "osm_type": "node", "name": "Satva Vikas School", "amenity": "school"}, "geometry": {"type": "Point", "coordinates": [72.4959141, 23.0415757]}}, {"type": "Feature", "properties": {"osm_id": 5197433539, "osm_type": "node", "name": "Amrita Vidyalayam", "amenity": "school"}, "geometry": {"type": "Point", "coordinates": [72.5371239, 23.0675829]}}, {"type": "Feature", "properties": {"osm_id": 6572872423, "osm_type": "node", "name": "Kameshwar School", "amenity": "school"}, "geometry": {"type": "Point", "coordinates": [72.5271318, 23.0282166]}}, {"type": "Feature", "properties": {"osm_id": 7139941466, "osm_type": "node", "name": "Government Polytechnic", "amenity": "college"}, "geometry": {"type": "Point", "coordinates": [72.5475056, 23.0265769]}}, {"type": "Feature", "properties": {"osm_id": 8143978971, "osm_type": "node", "name": "Alpha College of Engineering", "amenity": "college"}, "geometry": {"type": "Point", "coordinates": [72.4406666, 23.1437636]}}, {"type": "Feature", "properties": {"osm_id": 8196383743, "osm_type": "node", "name": "Nalanda School", "amenity": "school"}, "geometry": {"type": "Point", "coordinates": [72.539258, 23.0718114]}}, {"type": "Feature", "properties": {"osm_id": 8844322304, "osm_type": "node", "name": "Amrut Mody institute of Management", "amenity": "college"}, "geometry": {"type": "Point", "coordinates": [72.5371832, 23.0346573]}}, {"type": "Feature", "properties": {"osm_id": 8844322306, "osm_type": "node", "name": "LD College of Arts", "amenity": "college"}, "geometry": {"type": "Point", "coordinates": [72.5380428, 23.0346697]}}, {"type": "Feature", "properties": {"osm_id": 11181848879, "osm_type": "node", "name": "Department of Animation, IT, IMS and Mobile Application", "amenity": "college"}, "geometry": {"type": "Point", "coordinates": [72.5453568, 23.0386219]}}, {"type": "Feature", "properties": {"osm_id": 11443386624, "osm_type": "node", "name": "H3 World School", "amenity": "school"}, "geometry": {"type": "Point", "coordinates": [72.562771, 23.1273816]}}, {"type": "Feature", "properties": {"osm_id": 13831008401, "osm_type": "node", "name": "SAL University", "amenity": "university"}, "geometry": {"type": "Point", "coordinates": [72.4946486, 23.0835562]}}, {"type": "Feature", "properties": {"osm_id": 13941798001, "osm_type": "node", "name": "Ahmedabad International School", "amenity": "school"}, "geometry": {"type": "Point", "coordinates": [72.5128675, 23.0341502]}}, {"type": "Feature", "properties": {"osm_id": 118696270, "osm_type": "way", "name": "St Josheph School", "amenity": "school"}, "geometry": {"type": "LineString", "coordinates": [[72.5694072, 23.1042172], [72.5697819, 23.1041143], [72.5695628, 23.1036004], [72.5691873, 23.10363], [72.5694072, 23.1042172]]}}, {"type": "Feature", "properties": {"osm_id": 175074593, "osm_type": "way", "name": "St. Xavier's School, Loyola Hall, Navrangpura", "amenity": "school"}, "geometry": {"type": "LineString", "coordinates": [[72.548298, 23.0498664], [72.5494674, 23.0499405], [72.5497678, 23.0499207], [72.5505725, 23.0498023], [72.550452, 23.0481135], [72.5503686, 23.0474085], [72.5502184, 23.047369], [72.5479332, 23.0473591], [72.5475523, 23.047364], [72.5475255, 23.0482723], [72.5475853, 23.048744], [72.5480619, 23.0486919], [72.548298, 23.0498664]]}}, {"type": "Feature", "properties": {"osm_id": 190709072, "osm_type": "way", "name": "CEPT University", "amenity": "university"}, "geometry": {"type": "LineString", "coordinates": [[72.5507427, 23.0387828], [72.5507198, 23.0382776], [72.5507275, 23.0374891], [72.550742, 23.0367588], [72.5507423, 23.0366701], [72.5507707, 23.0362843], [72.5500462, 23.0361787], [72.5500103, 23.0363476], [72.5496834, 23.0363175], [72.5495637, 23.0364671], [72.5495258, 23.0365628], [72.5494916, 23.0369751], [72.548864, 23.0369603], [72.5489401, 23.0387687], [72.5489921, 23.0388004], [72.5504169, 23.0387865], [72.5507427, 23.0387828]]}}, {"type": "Feature", "properties": {"osm_id": 219745970, "osm_type": "way", "name": "J.G. International School", "amenity": "school", "building": "school"}, "geometry": {"type": "LineString", "coordinates": [[72.5258919, 23.0648609], [72.5263906, 23.0648731], [72.5263779, 23.0653136], [72.5258792, 23.0653014], [72.5258919, 23.0648609]]}}, {"type": "Feature", "properties": {"osm_id": 260053075, "osm_type": "way", "name": "HL Institute of Computer Applications and AES Institute of Computer Studies", "amenity": "college"}, "geometry": {"type": "LineString", "coordinates": [[72.5526514, 23.0400717], [72.5526695, 23.0389293], [72.5532143, 23.0389219], [72.5531899, 23.0394606], [72.5531492, 23.0397449], [72.5530861, 23.039822], [72.5530925, 23.0400823], [72.5526514, 23.0400717]]}}, {"type": "Feature", "properties": {"osm_id": 287275458, "osm_type": "way", "name": "Knowlegde Consortium of Gujarat", "amenity": "college"}, "geometry": {"type": "LineString", "coordinates": [[72.544079, 23.0331465], [72.543047, 23.0330613], [72.5431591, 23.0320796], [72.5441515, 23.0321666], [72.544079, 23.0331465]]}}, {"type": "Feature", "properties": {"osm_id": 295981932, "osm_type": "way", "name": "LD college of Engineering", "amenity": "university"}, "geometry": {"type": "LineString", "coordinates": [[72.5440958, 23.0331863], [72.5441702, 23.0321558], [72.5431611, 23.032065], [72.5434044, 23.03073], [72.544366, 23.0306667], [72.5466885, 23.0311263], [72.548953, 23.0316601], [72.5490923, 23.032026], [72.549337, 23.0324645], [72.5489592, 23.0334085], [72.5489115, 23.0336406], [72.5488543, 23.0338726], [72.5487438, 23.0343568], [72.5485975, 23.0354376], [72.5483167, 23.0355941], [72.5453589, 23.035343], [72.5443286, 23.0351972], [72.5443768, 23.0346203], [72.5429106, 23.0344211], [72.5430053, 23.0330792], [72.5440958, 23.0331863]]}}, {"type": "Feature", "properties": {"osm_id": 317476185, "osm_type": "way", "name": "Gujarat Law Society Grounds", "amenity": "college"}, "geometry": {"type": "LineString", "coordinates": [[72.5589665, 23.0274308], [72.5599167, 23.0270987], [72.5596774, 23.0264206], [72.5585477, 23.0265392], [72.5586108, 23.0267436], [72.5589665, 23.0274308]]}}, {"type": "Feature", "properties": {"osm_id": 317658274, "osm_type": "way", "name": "HL Institute of Business Administration", "amenity": "college", "building": "yes"}, "geometry": {"type": "LineString", "coordinates": [[72.5556759, 23.0372122], [72.5556849, 23.0370948], [72.5558308, 23.0371044], [72.5558388, 23.0370009], [72.5556944, 23.0369915], [72.555697, 23.0369569], [72.5556623, 23.0369547], [72.55567, 23.0368542], [72.5559902, 23.0368751], [72.5559627, 23.037231], [72.5556759, 23.0372122]]}}, {"type": "Feature", "properties": {"osm_id": 317797832, "osm_type": "way", "name": "Anand Niketan School, Shilaj", "amenity": "school"}, "geometry": {"type": "LineString", "coordinates": [[72.4820597, 23.0491723], [72.482279, 23.0504501], [72.4823276, 23.0504431], [72.4823342, 23.0504769], [72.4842989, 23.0501509], [72.4820597, 23.0491723]]}}, {"type": "Feature", "properties": {"osm_id": 317891998, "osm_type": "way", "name": "St. Xavier's College", "amenity": "college"}, "geometry": {"type": "LineString", "coordinates": [[72.5506091, 23.0329544], [72.5509981, 23.0316208], [72.5511714, 23.0310265], [72.5511825, 23.0309791], [72.5516162, 23.0310772], [72.5516639, 23.0310535], [72.5519028, 23.0299374], [72.5519543, 23.0296769], [72.5519616, 23.0296431], [72.5531487, 23.0297953], [72.5528143, 23.0312835], [72.5532333, 23.0313816], [72.5531377, 23.0317807], [72.5535935, 23.0318653], [72.5532333, 23.0334211], [72.5506091, 23.0329544]]}}, {"type": "Feature", "properties": {"osm_id": 318707625, "osm_type": "way", "name": "HL College of Commerce", "amenity": "college"}, "geometry": {"type": "LineString", "coordinates": [[72.5548917, 23.0369308], [72.5548685, 23.0370925], [72.5551171, 23.0371086], [72.5553823, 23.0371321], [72.5554055, 23.0369796], [72.5553392, 23.0369735], [72.5553359, 23.0370284], [72.5551867, 23.0370125], [72.5551917, 23.0368936], [72.5550939, 23.0368875], [72.555079, 23.0369942], [72.5549415, 23.0369827], [72.5549464, 23.0369323], [72.5548917, 23.0369308]]}}, {"type": "Feature", "properties": {"osm_id": 323431773, "osm_type": "way", "name": "BV Patel Pharmaceutical Education and Research Development", "amenity": "college"}, "geometry": {"type": "LineString", "coordinates": [[72.5206997, 23.059053], [72.5211438, 23.0605451], [72.5219282, 23.0601706], [72.5218816, 23.0600599], [72.5223304, 23.0598221], [72.5216647, 23.0586427], [72.5206997, 23.059053]]}}, {"type": "Feature", "properties": {"osm_id": 323438369, "osm_type": "way", "name": "Udgam School for Children", "amenity": "school"}, "geometry": {"type": "LineString", "coordinates": [[72.518132, 23.0505854], [72.5187817, 23.05062], [72.5194309, 23.0506062], [72.5207062, 23.0505509], [72.5206312, 23.0499915], [72.5205424, 23.0495099], [72.5201727, 23.0496409], [72.5198281, 23.0497429], [72.5187737, 23.0499087], [72.5183084, 23.0499363], [72.5179819, 23.0499777], [72.5179616, 23.0500661], [72.518132, 23.0505854]]}}, {"type": "Feature", "properties": {"osm_id": 327199050, "osm_type": "way", "name": "Balghar", "amenity": "school"}, "geometry": {"type": "LineString", "coordinates": [[72.5713818, 23.0255591], [72.5726446, 23.0254474], [72.5726782, 23.0248969], [72.5714101, 23.0249856], [72.5713818, 23.0255591]]}}, {"type": "Feature", "properties": {"osm_id": 328551551, "osm_type": "way", "name": "Ahmedabad University", "amenity": "university"}, "geometry": {"type": "LineString", "coordinates": [[72.5507745, 23.036754], [72.5509128, 23.0355567], [72.5535619, 23.0357781], [72.5535178, 23.0364247], [72.5547543, 23.0365382], [72.5546256, 23.037138], [72.5545813, 23.0377298], [72.5545053, 23.0387625], [72.5518838, 23.038783], [72.5511072, 23.0387951], [72.5507444, 23.0387868], [72.5507198, 23.0382776], [72.5507543, 23.0376792], [72.5511199, 23.0376761], [72.5511092, 23.0367949], [72.5507745, 23.036754]]}}, {"type": "Feature", "properties": {"osm_id": 328552718, "osm_type": "way", "name": "Gujarat University", "amenity": "university", "landuse": "education"}, "geometry": {"type": "LineString", "coordinates": [[72.5431458, 23.040002], [72.5435367, 23.0397731], [72.544046, 23.0394733], [72.5445554, 23.0392335], [72.5447449, 23.0391736], [72.5449936, 23.0390755], [72.5455089, 23.0389991], [72.5461012, 23.0389119], [72.5477417, 23.0388084], [72.5485531, 23.0387593], [72.548488, 23.0358543], [72.5475404, 23.0357399], [72.5457221, 23.0355927], [72.5442474, 23.035402], [72.5426009, 23.0349986], [72.5411913, 23.0346389], [72.5408004, 23.0345463], [72.5403799, 23.0346008], [72.5400364, 23.0347588], [72.5393198, 23.0352167], [72.5395034, 23.0354783], [72.5431458, 23.040002]]}}, {"type": "Feature", "properties": {"osm_id": 328552719, "osm_type": "way", "name": "Gujarat University", "amenity": "university"}, "geometry": {"type": "LineString", "coordinates": [[72.5472702, 23.0400839], [72.5479776, 23.0400675], [72.5485227, 23.0400573], [72.548534, 23.0389734], [72.5471024, 23.0389851], [72.5472557, 23.0398697], [72.5472702, 23.0400839]]}}, {"type": "Feature", "properties": {"osm_id": 334471473, "osm_type": "way", "name": "Shree Swaminarayan Gurukul Vishwavidya Pratishthanam - SGVP", "amenity": "college"}, "geometry": {"type": "LineString", "coordinates": [[72.5330496, 23.0448889], [72.5335038, 23.044875], [72.5344531, 23.0448477], [72.5344737, 23.0457625], [72.5330634, 23.0457467], [72.5330496, 23.0448889]]}}, {"type": "Feature", "properties": {"osm_id": 335567839, "osm_type": "way", "name": "Ahmedabad Management Association", "amenity": "school"}, "geometry": {"type": "LineString", "coordinates": [[72.5408632, 23.0300562], [72.5411502, 23.0304709], [72.542164, 23.029918], [72.5423008, 23.0301352], [72.5430304, 23.0297057], [72.5418341, 23.0293675], [72.5408632, 23.0300562]]}}, {"type": "Feature", "properties": {"osm_id": 366112194, "osm_type": "way", "name": "Zebar School", "amenity": "school", "building": "school"}, "geometry": {"type": "LineString", "coordinates": [[72.4938596, 23.0487355], [72.493948, 23.0487239], [72.4939422, 23.0486865], [72.4939779, 23.0486819], [72.4939836, 23.0487193], [72.4944771, 23.0486548], [72.4944716, 23.0486191], [72.4945068, 23.0486145], [72.4945123, 23.0486502], [72.4945917, 23.0486398], [72.4945278, 23.0482262], [72.4943164, 23.0482538], [72.4943637, 23.0485601], [72.4940466, 23.0486015], [72.4940001, 23.0483003], [72.4937965, 23.0483269], [72.4938596, 23.0487355]]}}, {"type": "Feature", "properties": {"osm_id": 366286198, "osm_type": "way", "name": "Nirma Vidyavihar", "amenity": "school", "building": "school"}, "geometry": {"type": "LineString", "coordinates": [[72.5160944, 23.042302], [72.5161715, 23.0424469], [72.5161264, 23.0424673], [72.5161418, 23.0424963], [72.5161869, 23.0424759], [72.5163974, 23.0428714], [72.5163543, 23.0428909], [72.516378, 23.0429353], [72.5164875, 23.0428859], [72.5164669, 23.0428471], [72.5164864, 23.0428383], [72.5165123, 23.0428869], [72.516647, 23.0428262], [72.5169342, 23.0426976], [72.5167279, 23.0422935], [72.5166298, 23.042351], [72.5167475, 23.0426195], [72.5165766, 23.0426909], [72.5164052, 23.0423345], [72.5163318, 23.0421838], [72.5160944, 23.042302]]}}, {"type": "Feature", "properties": {"osm_id": 366641529, "osm_type": "way", "name": "Sardar Patel Institute of Public Administration", "amenity": "college", "building": "yes"}, "geometry": {"type": "LineString", "coordinates": [[72.5226048, 23.030767], [72.5231724, 23.0304916], [72.5231132, 23.0303883], [72.5231373, 23.0303766], [72.5231112, 23.0303311], [72.523141, 23.0303166], [72.5231047, 23.0302533], [72.5230749, 23.0302677], [72.523037, 23.0302015], [72.5230129, 23.0302132], [72.5229358, 23.0300786], [72.5227253, 23.0301807], [72.5227999, 23.0303109], [72.5226886, 23.0303649], [72.5226152, 23.0302368], [72.5224154, 23.0303338], [72.5224907, 23.0304653], [72.5224448, 23.0304876], [72.5224828, 23.0305539], [72.5224452, 23.0305722], [72.5224793, 23.0306318], [72.5225169, 23.0306135], [72.5226048, 23.030767]]}}, {"type": "Feature", "properties": {"osm_id": 366805680, "osm_type": "way", "name": "R J Tibrewal Commerce College", "amenity": "college", "building": "college"}, "geometry": {"type": "LineString", "coordinates": [[72.5307703, 23.0342184], [72.5308548, 23.0342065], [72.5308568, 23.0342183], [72.5308895, 23.0342137], [72.5308875, 23.0342019], [72.5309914, 23.0341872], [72.5309936, 23.0342005], [72.5310195, 23.0341969], [72.5310173, 23.0341835], [72.5311048, 23.0341712], [72.5310812, 23.0340296], [72.5310441, 23.0340348], [72.5310406, 23.0340137], [72.5307432, 23.0340558], [72.5307703, 23.0342184]]}}, {"type": "Feature", "properties": {"osm_id": 367198180, "osm_type": "way", "name": "Sardar Patel Institute of Economic & Social Research", "amenity": "college", "building": "yes"}, "geometry": {"type": "LineString", "coordinates": [[72.5202496, 23.0475843], [72.5203802, 23.0475843], [72.5203802, 23.0470712], [72.5202496, 23.0470712], [72.5202496, 23.0475843]]}}, {"type": "Feature", "properties": {"osm_id": 451862686, "osm_type": "way", "name": "Gujrat Vidhyapeeth", "amenity": "university", "building": "yes"}, "geometry": {"type": "LineString", "coordinates": [[72.5695096, 23.0437656], [72.5694959, 23.0436945], [72.5694723, 23.0435592], [72.568905, 23.0436427], [72.5689474, 23.0438418], [72.5691339, 23.043816], [72.5691717, 23.0440463], [72.5691068, 23.0440537], [72.5689787, 23.0440624], [72.5690065, 23.0442467], [72.5693935, 23.0441946], [72.5695684, 23.0441701], [72.569545, 23.0440114], [72.569478, 23.0440146], [72.5694291, 23.0440212], [72.5693716, 23.044023], [72.569343, 23.0437862], [72.5695096, 23.0437656]]}}, {"type": "Feature", "properties": {"osm_id": 538943356, "osm_type": "way", "name": "Nirma Vidhya Vihar", "amenity": "school"}, "geometry": {"type": "LineString", "coordinates": [[72.5455267, 23.1259436], [72.547356, 23.1254552], [72.5471414, 23.1246461], [72.5452853, 23.1251814], [72.5455267, 23.1259436]]}}, {"type": "Feature", "properties": {"osm_id": 547581974, "osm_type": "way", "name": "NIRMA University", "amenity": "college"}, "geometry": {"type": "LineString", "coordinates": [[72.5416735, 23.1312471], [72.5452389, 23.1305825], [72.5458446, 23.131572], [72.5485173, 23.1306681], [72.5489185, 23.1305703], [72.5477069, 23.1273048], [72.5475528, 23.1266744], [72.5474705, 23.1259121], [72.547404, 23.1254919], [72.5472287, 23.1246856], [72.5471249, 23.1246224], [72.5413585, 23.1260257], [72.5402998, 23.126282], [72.5402612, 23.1263207], [72.5402384, 23.1263562], [72.5411582, 23.129463], [72.5412224, 23.1294663], [72.5412913, 23.1295122], [72.5413754, 23.1295062], [72.5414497, 23.1298042], [72.5413707, 23.129841], [72.5413557, 23.1299092], [72.5412957, 23.1299583], [72.5416735, 23.1312471]]}}, {"type": "Feature", "properties": {"osm_id": 836775752, "osm_type": "way", "name": "Physical Research Laboratory, Thaltej Campus", "amenity": "university"}, "geometry": {"type": "LineString", "coordinates": [[72.4935356, 23.0454587], [72.4961852, 23.0453508], [72.4964642, 23.0437119], [72.4951392, 23.0436034], [72.4950211, 23.0425371], [72.4938678, 23.0425963], [72.4937605, 23.0414412], [72.4935674, 23.0414906], [72.4936358, 23.0422458], [72.4936603, 23.0425167], [72.4936639, 23.0425568], [72.4921092, 23.0427182], [72.492634, 23.0439785], [72.4931168, 23.0446893], [72.4935356, 23.0454587]]}}, {"type": "Feature", "properties": {"osm_id": 882640112, "osm_type": "way", "name": "Nalanda School", "amenity": "school"}, "geometry": {"type": "LineString", "coordinates": [[72.5391836, 23.0720383], [72.5392451, 23.072066], [72.5392424, 23.0720798], [72.5396362, 23.0721025], [72.5396362, 23.0721138], [72.5396813, 23.0721188], [72.5396813, 23.0720962], [72.5397018, 23.0720937], [72.5396991, 23.0721062], [72.5397182, 23.0721025], [72.5397387, 23.0720949], [72.5397456, 23.072076], [72.5397401, 23.0720597], [72.5397387, 23.0720496], [72.5397756, 23.0720396], [72.5397852, 23.0720358], [72.5397907, 23.0719138], [72.5397907, 23.071876], [72.5397975, 23.071837], [72.5397784, 23.0718295], [72.5397702, 23.07172], [72.5397797, 23.071715], [72.5397743, 23.0716685], [72.5397538, 23.0716697], [72.5396922, 23.0716458], [72.5396608, 23.0716559], [72.5394745, 23.071562], [72.5391836, 23.0720383]]}}, {"type": "Feature", "properties": {"osm_id": 1192740604, "osm_type": "way", "name": "Ahmedabad Textile Industry's Research Association", "amenity": "school", "building": "school"}, "geometry": {"type": "LineString", "coordinates": [[72.5421051, 23.0323622], [72.5408025, 23.0322139], [72.5409105, 23.0314101], [72.542799, 23.0316251], [72.5426909, 23.0324289], [72.5421051, 23.0323622]]}}, {"type": "Feature", "properties": {"osm_id": 1303259910, "osm_type": "way", "name": "Ahmedabad Dental College & Hospital", "amenity": "college"}, "geometry": {"type": "LineString", "coordinates": [[72.452207, 23.0975631], [72.4529276, 23.0975737], [72.4529392, 23.0968999], [72.4534323, 23.096907], [72.4534462, 23.0960966], [72.453616, 23.0960991], [72.4536221, 23.095744], [72.4522387, 23.0957238], [72.452207, 23.0975631]]}}, {"type": "Feature", "properties": {"osm_id": 1304654814, "osm_type": "way", "name": "", "amenity": "school"}, "geometry": {"type": "LineString", "coordinates": [[72.5640909, 23.069923], [72.5646253, 23.0711571], [72.5650819, 23.0712092], [72.5653686, 23.0703919], [72.5658216, 23.0704863], [72.5660233, 23.0697504], [72.5640909, 23.069923]]}}, {"type": "Feature", "properties": {"osm_id": 1304800178, "osm_type": "way", "name": "", "amenity": "school"}, "geometry": {"type": "LineString", "coordinates": [[72.5547748, 23.0489442], [72.556527, 23.0491163], [72.5566734, 23.0477321], [72.5547748, 23.0489442]]}}, {"type": "Feature", "properties": {"osm_id": 1304814681, "osm_type": "way", "name": "", "amenity": "college", "landuse": "education"}, "geometry": {"type": "LineString", "coordinates": [[72.5358774, 23.034054], [72.5371495, 23.036571], [72.5374114, 23.0363981], [72.5391121, 23.0352498], [72.5372512, 23.0328312], [72.5358774, 23.034054]]}}, {"type": "Feature", "properties": {"osm_id": 1304814700, "osm_type": "way", "name": "", "amenity": "school"}, "geometry": {"type": "LineString", "coordinates": [[72.5508649, 23.0389685], [72.550833, 23.0399977], [72.5526062, 23.0400759], [72.5526133, 23.038949], [72.5508649, 23.0389685]]}}, {"type": "Feature", "properties": {"osm_id": 1304819995, "osm_type": "way", "name": "", "amenity": "college"}, "geometry": {"type": "LineString", "coordinates": [[72.554783, 23.036809], [72.5547076, 23.0371172], [72.5546333, 23.0380552], [72.5547041, 23.0383939], [72.5549129, 23.0387229], [72.5550368, 23.0388303], [72.5551677, 23.0388108], [72.555327, 23.0388043], [72.555511, 23.0388141], [72.5557234, 23.0387847], [72.5562153, 23.038687], [72.5563958, 23.0386545], [72.5562488, 23.0377081], [72.5564256, 23.0376913], [72.5563341, 23.036814], [72.5556247, 23.036829], [72.554783, 23.036809]]}}, {"type": "Feature", "properties": {"osm_id": 1304843563, "osm_type": "way", "name": "", "amenity": "college", "landuse": "education"}, "geometry": {"type": "LineString", "coordinates": [[72.5595149, 23.0252129], [72.5589295, 23.0252242], [72.5586337, 23.0256836], [72.5581562, 23.0255674], [72.5583441, 23.0262961], [72.5584704, 23.0262762], [72.5585228, 23.0265173], [72.5596844, 23.0263953], [72.5595642, 23.0256751], [72.5595149, 23.0252129]]}}, {"type": "Feature", "properties": {"osm_id": 429795958, "osm_type": "node", "name": "Mount Carmel School, Khanpur", "amenity": "school"}, "geometry": {"type": "Point", "coordinates": [72.5766297, 23.0329288]}}, {"type": "Feature", "properties": {"osm_id": 4488020553, "osm_type": "node", "name": "Government Dental College ,Ahemedabad", "amenity": "college"}, "geometry": {"type": "Point", "coordinates": [72.6043173, 23.0497247]}}, {"type": "Feature", "properties": {"osm_id": 4488021754, "osm_type": "node", "name": "BJ Medical College ,Haripura -Asarwa", "amenity": "college"}, "geometry": {"type": "Point", "coordinates": [72.6027712, 23.0524472]}}, {"type": "Feature", "properties": {"osm_id": 4534001092, "osm_type": "node", "name": "GCS Medical college", "amenity": "school"}, "geometry": {"type": "Point", "coordinates": [72.611136, 23.038409]}}, {"type": "Feature", "properties": {"osm_id": 5998771288, "osm_type": "node", "name": "SSIT (shree Swaminarayan institute of technology)", "amenity": "college"}, "geometry": {"type": "Point", "coordinates": [72.6301367, 23.1149923]}}, {"type": "Feature", "properties": {"osm_id": 10959521083, "osm_type": "node", "name": "The OLD LITTLE FLOWER SCHOOL", "amenity": "school"}, "geometry": {"type": "Point", "coordinates": [72.5775928, 23.1026901]}}, {"type": "Feature", "properties": {"osm_id": 10959556357, "osm_type": "node", "name": "Kendriya Vidyala Sabarmati", "amenity": "school"}, "geometry": {"type": "Point", "coordinates": [72.5815065, 23.1006535]}}, {"type": "Feature", "properties": {"osm_id": 10959557671, "osm_type": "node", "name": "The NEW LITTLE FLOWER SCHOOL", "amenity": "school"}, "geometry": {"type": "Point", "coordinates": [72.5781828, 23.1043189]}}, {"type": "Feature", "properties": {"osm_id": 10959590887, "osm_type": "node", "name": "Sakar English School", "amenity": "school"}, "geometry": {"type": "Point", "coordinates": [72.5918371, 23.1088888]}}, {"type": "Feature", "properties": {"osm_id": 10959630823, "osm_type": "node", "name": "Podar International School", "amenity": "school"}, "geometry": {"type": "Point", "coordinates": [72.590667, 23.1097883]}}, {"type": "Feature", "properties": {"osm_id": 118695847, "osm_type": "way", "name": "Vishwakarma Government Engineering College, Chandkheda", "amenity": "college", "landuse": "residential"}, "geometry": {"type": "LineString", "coordinates": [[72.5947372, 23.1083971], [72.5965837, 23.1079573], [72.5968476, 23.1073286], [72.5967864, 23.1063643], [72.5969848, 23.1057592], [72.5946723, 23.1038359], [72.5943065, 23.1044286], [72.5924997, 23.103461], [72.5916704, 23.1050611], [72.5918326, 23.1056439], [72.5921091, 23.1055916], [72.592044, 23.106661], [72.5918245, 23.1067358], [72.5919058, 23.1073939], [72.5927184, 23.1072547], [72.5927352, 23.1072518], [72.5929547, 23.108052], [72.5947372, 23.1083971]]}}, {"type": "Feature", "properties": {"osm_id": 120327303, "osm_type": "way", "name": "IP School", "amenity": "school"}, "geometry": {"type": "LineString", "coordinates": [[72.5759306, 23.1062115], [72.5767206, 23.1061447], [72.5767214, 23.1058083], [72.5759763, 23.1057886], [72.5759306, 23.1062115]]}}, {"type": "Feature", "properties": {"osm_id": 322220540, "osm_type": "way", "name": "Shahibaug Municipal Saraswati Mandir School", "amenity": "school"}, "geometry": {"type": "LineString", "coordinates": [[72.5862038, 23.0511107], [72.5861961, 23.0510684], [72.5865463, 23.0509962], [72.5866286, 23.0510596], [72.5867014, 23.0510614], [72.5867023, 23.0510808], [72.5867339, 23.0510808], [72.5867301, 23.0511045], [72.5867062, 23.0511037], [72.5866851, 23.0513775], [72.5865741, 23.0513564], [72.5865875, 23.0511371], [72.5865885, 23.0510869], [72.5865617, 23.051064], [72.5862086, 23.051131], [72.5862038, 23.0511107]]}}, {"type": "Feature", "properties": {"osm_id": 322221796, "osm_type": "way", "name": "Kendriya Vidyalaya, Shahibaug", "amenity": "school"}, "geometry": {"type": "LineString", "coordinates": [[72.5882866, 23.0503639], [72.5883209, 23.0516773], [72.5883362, 23.0518921], [72.5883707, 23.0520365], [72.588497, 23.0526775], [72.5885047, 23.052762], [72.5885889, 23.0527902], [72.5886922, 23.0527268], [72.589029, 23.0525895], [72.5891209, 23.0525613], [72.5890367, 23.0522373], [72.5890176, 23.0520365], [72.5890482, 23.0518886], [72.5893812, 23.0508003], [72.5894501, 23.0505115], [72.589408, 23.0504164], [72.5893658, 23.0503744], [72.5883419, 23.0503603], [72.5882866, 23.0503639]]}}, {"type": "Feature", "properties": {"osm_id": 343148382, "osm_type": "way", "name": "Municipality School", "amenity": "school", "building": "yes"}, "geometry": {"type": "LineString", "coordinates": [[72.5921676, 23.0810146], [72.5926092, 23.0811478], [72.59273, 23.0808089], [72.5922884, 23.0806757], [72.5921676, 23.0810146]]}}, {"type": "Feature", "properties": {"osm_id": 361583946, "osm_type": "way", "name": "Gujarat National Law University", "amenity": "university"}, "geometry": {"type": "LineString", "coordinates": [[72.6600584, 23.1547078], [72.6614829, 23.154313], [72.6623069, 23.1540852], [72.6628124, 23.1539411], [72.6628857, 23.1538666], [72.6618975, 23.151975], [72.660887, 23.1501412], [72.6604011, 23.1499717], [72.6598902, 23.1499786], [72.6594861, 23.1498043], [72.6592536, 23.1496742], [72.6588643, 23.1494511], [72.6582109, 23.148938], [72.657642, 23.1491607], [72.6578836, 23.1498322], [72.6579342, 23.1497811], [72.6581516, 23.150641], [72.658556, 23.152054], [72.6596791, 23.15462], [72.6598299, 23.154722], [72.6600584, 23.1547078]]}}, {"type": "Feature", "properties": {"osm_id": 451822431, "osm_type": "way", "name": "Institute For Plasma Research ,IPR,Bhat", "amenity": "college"}, "geometry": {"type": "LineString", "coordinates": [[72.6240035, 23.0974834], [72.6231255, 23.0983254], [72.6241996, 23.0991845], [72.6255913, 23.0988838], [72.6257594, 23.0986089], [72.6260863, 23.0975006], [72.6256567, 23.0970882], [72.6240035, 23.0974834]]}}, {"type": "Feature", "properties": {"osm_id": 547631196, "osm_type": "way", "name": "Gujarat Police Academy, Karai", "amenity": "school"}, "geometry": {"type": "LineString", "coordinates": [[72.6505332, 23.138161], [72.650633, 23.1380288], [72.6514248, 23.1374099], [72.6513486, 23.13629], [72.6527856, 23.1362594], [72.6542774, 23.1363964], [72.6538979, 23.1352424], [72.6530525, 23.1353044], [72.6525961, 23.1343839], [72.6522538, 23.1328005], [72.652176, 23.1303394], [72.652023, 23.1293402], [72.65187, 23.1283409], [72.6515225, 23.1261945], [72.6487322, 23.126247], [72.6471629, 23.128762], [72.6469687, 23.1309785], [72.6469702, 23.1330766], [72.647316, 23.1344963], [72.6489235, 23.1369841], [72.6494035, 23.1378696], [72.6495059, 23.1378879], [72.6498895, 23.1382767], [72.6500373, 23.1382904], [72.6502181, 23.1382853], [72.6503824, 23.1382356], [72.6505332, 23.138161]]}}, {"type": "Feature", "properties": {"osm_id": 551625996, "osm_type": "way", "name": "Tapovan Sanskar Peeth", "amenity": "school"}, "geometry": {"type": "LineString", "coordinates": [[72.6119416, 23.1267445], [72.6137849, 23.1266817], [72.6139893, 23.1266626], [72.6146817, 23.1265977], [72.6144339, 23.1256833], [72.6143966, 23.1255457], [72.6147477, 23.1254722], [72.6143244, 23.1242883], [72.6141606, 23.1237427], [72.6141103, 23.1236182], [72.614042, 23.1234977], [72.6139821, 23.123425], [72.6139, 23.123346], [72.6138232, 23.1233134], [72.6134946, 23.1232528], [72.6134543, 23.1232924], [72.6133567, 23.1232899], [72.6133023, 23.1232887], [72.613269, 23.123286], [72.6132338, 23.1232188], [72.6127549, 23.1231903], [72.6121754, 23.123143], [72.6121533, 23.1234771], [72.6120995, 23.124292], [72.6119416, 23.1267445]]}}, {"type": "Feature", "properties": {"osm_id": 551671380, "osm_type": "way", "name": "Anand Niketan Sughad", "amenity": "school"}, "geometry": {"type": "LineString", "coordinates": [[72.6365238, 23.1219393], [72.6381853, 23.1218421], [72.6385123, 23.1224066], [72.6385652, 23.122657], [72.6365515, 23.1225379], [72.6365238, 23.1219393]]}}, {"type": "Feature", "properties": {"osm_id": 1180000553, "osm_type": "way", "name": "", "amenity": "school", "building": "yes"}, "geometry": {"type": "LineString", "coordinates": [[72.57755, 23.1028235], [72.5775168, 23.1026154], [72.5776919, 23.1025835], [72.57771, 23.1027666], [72.57755, 23.1028235]]}}, {"type": "Feature", "properties": {"osm_id": 1180007887, "osm_type": "way", "name": "", "amenity": "school", "building": "school"}, "geometry": {"type": "LineString", "coordinates": [[72.5902114, 23.1098515], [72.5902253, 23.1095211], [72.5909854, 23.1095482], [72.5909715, 23.1098787], [72.5902114, 23.1098515]]}}, {"type": "Feature", "properties": {"osm_id": 1180008783, "osm_type": "way", "name": "", "amenity": "school"}, "geometry": {"type": "LineString", "coordinates": [[72.5914202, 23.1089863], [72.5914284, 23.1088662], [72.5912315, 23.1088414], [72.5911963, 23.1086965], [72.5915715, 23.1087099], [72.5918306, 23.1087633], [72.5920877, 23.108769], [72.592239, 23.1088128], [72.5922597, 23.1090264], [72.5914202, 23.1089863]]}}, {"type": "Feature", "properties": {"osm_id": 1180013600, "osm_type": "way", "name": "Kendriya Vidyalaya Sabarmati", "amenity": "school"}, "geometry": {"type": "LineString", "coordinates": [[72.5805047, 23.1020869], [72.5814016, 23.1005881], [72.5821581, 23.0993239], [72.5828289, 23.0996703], [72.5826991, 23.0998813], [72.5832874, 23.1001299], [72.5817298, 23.1026473], [72.5805047, 23.1020869]]}}, {"type": "Feature", "properties": {"osm_id": 1180013606, "osm_type": "way", "name": "Assembly Area", "amenity": "school"}, "geometry": {"type": "LineString", "coordinates": [[72.5821076, 23.1013698], [72.5822858, 23.1010829], [72.5824619, 23.1011629], [72.5823071, 23.1014634], [72.5821076, 23.1013698]]}}, {"type": "Feature", "properties": {"osm_id": 1394992780, "osm_type": "way", "name": "", "amenity": "school"}, "geometry": {"type": "LineString", "coordinates": [[72.6164252, 23.0572081], [72.6165256, 23.057789], [72.6156196, 23.0577847], [72.6153697, 23.0572441], [72.615366, 23.057234], [72.6153648, 23.0572253], [72.6153669, 23.0572169], [72.6153721, 23.0572089], [72.6153838, 23.0572003], [72.6153937, 23.0571956], [72.6154084, 23.057192], [72.6154235, 23.0571895], [72.6164252, 23.0572081]]}}]}