{"type": "FeatureCollection", "features": [{"type": "Feature", "properties": {"osm_id": 3011954391, "osm_type": "node", "name": "Godrej Garden City", "place": "quarter"}, "geometry": {"type": "Point", "coordinates": [72.5539974, 23.1109557]}}, {"type": "Feature", "properties": {"osm_id": 4486395734, "osm_type": "node", "name": "Chanakyapuri", "place": "suburb"}, "geometry": {"type": "Point", "coordinates": [72.534872, 23.086171]}}, {"type": "Feature", "properties": {"osm_id": 4486450276, "osm_type": "node", "name": "Sabarmati", "place": "suburb"}, "geometry": {"type": "Point", "coordinates": [72.5876185, 23.0839931]}}, {"type": "Feature", "properties": {"osm_id": 4487915096, "osm_type": "node", "name": "New Ranip", "place": "suburb"}, "geometry": {"type": "Point", "coordinates": [72.561323, 23.092529]}}, {"type": "Feature", "properties": {"osm_id": 4488251086, "osm_type": "node", "name": "Chandkheda", "place": "suburb"}, "geometry": {"type": "Point", "coordinates": [72.5811205, 23.1100643]}}, {"type": "Feature", "properties": {"osm_id": 10130918336, "osm_type": "node", "name": "Gota", "place": "suburb"}, "geometry": {"type": "Point", "coordinates": [72.5408363, 23.1010002]}}, {"type": "Feature", "properties": {"osm_id": 11148616279, "osm_type": "node", "name": "Amiyapur", "place": "neighbourhood"}, "geometry": {"type": "Point", "coordinates": [72.6160352, 23.1242671]}}, {"type": "Feature", "properties": {"osm_id": 113936314, "osm_type": "way", "name": "D-cabin", "place": "suburb"}, "geometry": {"type": "LineString", "coordinates": [[72.5676641, 23.103767], [72.5681289, 23.103498], [72.5692447, 23.1028665], [72.572635, 23.1010112], [72.5758108, 23.1004191], [72.5762763, 23.1020502], [72.5755962, 23.1034191], [72.5747379, 23.1044059], [72.5727209, 23.1055901], [72.5710901, 23.1068138], [72.5699743, 23.107169], [72.5678714, 23.107169], [72.5664434, 23.1072832], [72.5658973, 23.1073269], [72.5660261, 23.106498], [72.5676641, 23.103767]]}}, {"type": "Feature", "properties": {"osm_id": 339747755, "osm_type": "way", "name": "Sargasan", "place": "suburb", "landuse": "residential"}, "geometry": {"type": "LineString", "coordinates": [[72.6130029, 23.1836986], [72.6143785, 23.1841155], [72.6143405, 23.1846587], [72.6143321, 23.1848608], [72.6146719, 23.1848726], [72.6146461, 23.185507], [72.614645, 23.1857369], [72.6146598, 23.1862355], [72.6146929, 23.186911], [72.6150889, 23.1868945], [72.6158749, 23.1866027], [72.6157948, 23.1861468], [72.6159669, 23.1861876], [72.6160896, 23.1857508], [72.6166413, 23.1851325], [72.616989, 23.1844447], [72.6170343, 23.1827356], [72.6154471, 23.1819158], [72.6153111, 23.1819922], [72.6153034, 23.1827576], [72.6161932, 23.1827512], [72.6161954, 23.1828884], [72.6158704, 23.1829787], [72.6155529, 23.1831733], [72.615296, 23.1831663], [72.6145043, 23.1826564], [72.614226, 23.1824707], [72.6134896, 23.1834026], [72.6130029, 23.1836986]]}}, {"type": "Feature", "properties": {"osm_id": 451822018, "osm_type": "way", "name": "Koteshwar Village", "place": "suburb", "landuse": "residential"}, "geometry": {"type": "LineString", "coordinates": [[72.6125908, 23.0947696], [72.6121069, 23.0955326], [72.6129201, 23.0956932], [72.6128327, 23.096084], [72.6123946, 23.09607], [72.6122691, 23.0968409], [72.6116801, 23.0968563], [72.6118102, 23.0970283], [72.6120347, 23.0979605], [72.6122497, 23.0978474], [72.6124953, 23.0977388], [72.6127214, 23.0976855], [72.6140015, 23.0976641], [72.613909, 23.0973252], [72.6145432, 23.0972881], [72.6147595, 23.0958778], [72.6149919, 23.0959484], [72.6151236, 23.0956184], [72.6134039, 23.0951865], [72.6135218, 23.0945564], [72.6125908, 23.0947696]]}}, {"type": "Feature", "properties": {"osm_id": 993784184, "osm_type": "way", "name": "Zundal", "place": "suburb"}, "geometry": {"type": "LineString", "coordinates": [[72.5776969, 23.1334567], [72.5777147, 23.1339972], [72.5777412, 23.1348002], [72.5782135, 23.135913], [72.5793646, 23.1358316], [72.5792318, 23.1365373], [72.5796007, 23.1375416], [72.5800434, 23.1387222], [72.5804124, 23.1389122], [72.5819325, 23.1388715], [72.5825671, 23.1387222], [72.5839838, 23.1384508], [72.5846922, 23.1378944], [72.5856515, 23.137813], [72.5862861, 23.137718], [72.5864779, 23.1373516], [72.586168, 23.1366052], [72.585799, 23.1350581], [72.5852382, 23.1329681], [72.5849431, 23.1318552], [72.5832459, 23.1318959], [72.582449, 23.1320317], [72.5780806, 23.1330631], [72.5776969, 23.1334567]]}}, {"type": "Feature", "properties": {"osm_id": 1355784334, "osm_type": "way", "name": "Pride Heritage Villas", "place": "neighbourhood"}, "geometry": {"type": "LineString", "coordinates": [[72.5391128, 23.1431527], [72.5393092, 23.1431355], [72.5395226, 23.1431168], [72.5393398, 23.1424023], [72.5389513, 23.1424708], [72.5391128, 23.1431527]]}}, {"type": "Feature", "properties": {"osm_id": 4486353734, "osm_type": "node", "name": "Bhat", "place": "suburb"}, "geometry": {"type": "Point", "coordinates": [72.6329349, 23.1026771]}}, {"type": "Feature", "properties": {"osm_id": 4488657845, "osm_type": "node", "name": "Ambavadi / kubernagar", "place": "suburb"}, "geometry": {"type": "Point", "coordinates": [72.6340502, 23.0804086]}}, {"type": "Feature", "properties": {"osm_id": 9522559521, "osm_type": "node", "name": "Kudasan", "place": "suburb"}, "geometry": {"type": "Point", "coordinates": [72.6234269, 23.1704419]}}, {"type": "Feature", "properties": {"osm_id": 325162795, "osm_type": "way", "name": "Indroda", "place": "suburb", "landuse": "residential"}, "geometry": {"type": "LineString", "coordinates": [[72.6539392, 23.1959248], [72.6581478, 23.1947484], [72.658984, 23.1968257], [72.6586889, 23.1971998], [72.6583124, 23.197312], [72.6578239, 23.1973495], [72.6575187, 23.1975178], [72.657478, 23.1978171], [72.6575797, 23.1979668], [72.6578067, 23.1980217], [72.6579589, 23.1982661], [72.657804, 23.1988492], [72.6575797, 23.1990008], [72.6571704, 23.1993388], [72.6566435, 23.1998842], [72.656379, 23.2002302], [72.6562174, 23.2002578], [72.6552435, 23.2002778], [72.6550061, 23.1992059], [72.6539392, 23.1959248]]}}, {"type": "Feature", "properties": {"osm_id": 544499329, "osm_type": "way", "name": "GIFT City", "place": "suburb"}, "geometry": {"type": "LineString", "coordinates": [[72.6813586, 23.1517349], [72.6824033, 23.1511427], [72.6822531, 23.1495841], [72.6846221, 23.1489784], [72.6869094, 23.1497123], [72.6862631, 23.151159], [72.6869159, 23.1516142], [72.6874, 23.1515231], [72.6874719, 23.1515549], [72.6879175, 23.1517907], [72.6882839, 23.1521876], [72.6886954, 23.1524317], [72.6890901, 23.1524325], [72.6894629, 23.1523388], [72.6895165, 23.1524745], [72.6883578, 23.152657], [72.6886529, 23.1532439], [72.6898584, 23.1527714], [72.6900396, 23.1530811], [72.6890203, 23.1536434], [72.6890451, 23.1545208], [72.6894006, 23.1549616], [72.6895578, 23.1556074], [72.6902407, 23.1567076], [72.690889, 23.1574452], [72.6911058, 23.1578098], [72.6915091, 23.1584238], [72.6924133, 23.1591157], [72.6927727, 23.1588593], [72.6934576, 23.1578496], [72.6936981, 23.1586398], [72.6937086, 23.1594933], [72.694326, 23.1602553], [72.6944365, 23.1603917], [72.6956512, 23.1611243], [72.6958435, 23.1611966], [72.6960007, 23.161203], [72.6961143, 23.1611738], [72.6966516, 23.1610358], [72.6973066, 23.1609733], [72.6974808, 23.1610138], [72.6981901, 23.1616703], [72.6987153, 23.161708], [72.6990275, 23.1617619], [72.6991743, 23.1618236], [72.6996276, 23.161851], [72.6998773, 23.161963], [72.7004762, 23.162101], [72.7005674, 23.1620772], [72.7013259, 23.1617061], [72.7020004, 23.161173], [72.7024954, 23.160889], [72.7048091, 23.1641201], [72.7008891, 23.1644892], [72.6938885, 23.164361], [72.6938295, 23.1646174], [72.6933145, 23.1648048], [72.6931053, 23.1647111], [72.6927359, 23.1647751], [72.6923919, 23.1646224], [72.6917857, 23.1647259], [72.6914343, 23.1649922], [72.6914987, 23.1656556], [72.6915067, 23.1659145], [72.6919842, 23.1659885], [72.6918983, 23.1662795], [72.6912707, 23.1665655], [72.6917604, 23.1676376], [72.6926833, 23.1673536], [72.6927237, 23.1674899], [72.6926077, 23.1676878], [72.6925723, 23.1679703], [72.6934854, 23.1682963], [72.6938412, 23.1684798], [72.693743, 23.1686032], [72.6932167, 23.1687644], [72.6932481, 23.1688651], [72.6929675, 23.1689229], [72.6928552, 23.1688071], [72.6927489, 23.1685425], [72.6925648, 23.1684123], [72.6921803, 23.1681077], [72.6914876, 23.1680777], [72.6912193, 23.1686918], [72.6916158, 23.1687304], [72.6916476, 23.1689332], [72.6919769, 23.1690217], [72.691969, 23.1692415], [72.6914247, 23.169213], [72.6914483, 23.1689801], [72.6908683, 23.1689825], [72.6906599, 23.1701689], [72.6899992, 23.1702038], [72.6900672, 23.1690233], [72.6897579, 23.1690343], [72.6897318, 23.1693838], [72.6894664, 23.1693946], [72.689557, 23.1695796], [72.6892062, 23.1696266], [72.6888852, 23.1696175], [72.6889888, 23.1692742], [72.6891023, 23.1688979], [72.6892105, 23.1685409], [72.6895644, 23.168514], [72.6898722, 23.1682458], [72.6900674, 23.1681556], [72.6900135, 23.1671903], [72.689892, 23.1668466], [72.6885509, 23.1671697], [72.6884785, 23.1667973], [72.6895894, 23.1661214], [72.6893092, 23.1655864], [72.6890525, 23.165166], [72.6884416, 23.1650441], [72.6879943, 23.1650082], [72.6876937, 23.1650715], [72.6876873, 23.1653446], [72.6873296, 23.1653463], [72.687297, 23.1669274], [72.6869178, 23.1670369], [72.6867613, 23.1666861], [72.6868644, 23.1665043], [72.6867642, 23.1660639], [72.6861134, 23.1660458], [72.6860618, 23.1653416], [72.684991, 23.1655646], [72.6845002, 23.1656825], [72.684694, 23.1664381], [72.6847847, 23.1669514], [72.6848227, 23.167764], [72.6855066, 23.1682251], [72.6854181, 23.1682596], [72.6847744, 23.1680007], [72.6842594, 23.1693619], [72.6836318, 23.1689525], [72.6834547, 23.168553], [72.6838034, 23.1678626], [72.6834923, 23.1676209], [72.6830041, 23.1674039], [72.6829237, 23.1670045], [72.6828834, 23.1658159], [72.6818937, 23.1658603], [72.6803809, 23.166383], [72.6747842, 23.1663295], [72.6746381, 23.1677727], [72.665087, 23.1761576], [72.6615896, 23.1755942], [72.6637566, 23.1718277], [72.6675868, 23.1684544], [72.6722003, 23.1643569], [72.672919, 23.1635225], [72.6739825, 23.162288], [72.6747538, 23.1619036], [72.6772707, 23.1592871], [72.679187, 23.1561571], [72.6794608, 23.1549083], [72.6796379, 23.1519483], [72.6809013, 23.1519319], [72.6813586, 23.1517349]]}}, {"type": "Feature", "properties": {"osm_id": 3448268094, "osm_type": "node", "name": "Sector 10 A", "place": "neighbourhood"}, "geometry": {"type": "Point", "coordinates": [72.657701, 23.2203886]}}, {"type": "Feature", "properties": {"osm_id": 3448268095, "osm_type": "node", "name": "Sector 19", "place": "neighbourhood"}, "geometry": {"type": "Point", "coordinates": [72.6694735, 23.2222529]}}, {"type": "Feature", "properties": {"osm_id": 3448268096, "osm_type": "node", "name": "Sector 20", "place": "neighbourhood"}, "geometry": {"type": "Point", "coordinates": [72.6720674, 23.2282733]}}, {"type": "Feature", "properties": {"osm_id": 3448268098, "osm_type": "node", "name": "Sector 26", "place": "neighbourhood"}, "geometry": {"type": "Point", "coordinates": [72.6406076, 23.2543384]}}, {"type": "Feature", "properties": {"osm_id": 3448268099, "osm_type": "node", "name": "Sector 27", "place": "neighbourhood"}, "geometry": {"type": "Point", "coordinates": [72.6498194, 23.2514357]}}, {"type": "Feature", "properties": {"osm_id": 3448268194, "osm_type": "node", "name": "Sector 14", "place": "neighbourhood"}, "geometry": {"type": "Point", "coordinates": [72.6327593, 23.2369215]}}, {"type": "Feature", "properties": {"osm_id": 3448268195, "osm_type": "node", "name": "Sector 18", "place": "neighbourhood"}, "geometry": {"type": "Point", "coordinates": [72.6647445, 23.2167875]}}, {"type": "Feature", "properties": {"osm_id": 3448268196, "osm_type": "node", "name": "Sector 23", "place": "neighbourhood"}, "geometry": {"type": "Point", "coordinates": [72.6509168, 23.2376855]}}, {"type": "Feature", "properties": {"osm_id": 3448268197, "osm_type": "node", "name": "Sector 24", "place": "neighbourhood"}, "geometry": {"type": "Point", "coordinates": [72.6438666, 23.2421468]}}, {"type": "Feature", "properties": {"osm_id": 3448268198, "osm_type": "node", "name": "Sector 28", "place": "neighbourhood"}, "geometry": {"type": "Point", "coordinates": [72.6563375, 23.2470358]}}, {"type": "Feature", "properties": {"osm_id": 3448268199, "osm_type": "node", "name": "Sector 30", "place": "neighbourhood"}, "geometry": {"type": "Point", "coordinates": [72.6712027, 23.2402828]}}, {"type": "Feature", "properties": {"osm_id": 3448268200, "osm_type": "node", "name": "Sector 9", "place": "neighbourhood"}, "geometry": {"type": "Point", "coordinates": [72.6631549, 23.2138483]}}, {"type": "Feature", "properties": {"osm_id": 3448270793, "osm_type": "node", "name": "Sector 10 B", "place": "neighbourhood"}, "geometry": {"type": "Point", "coordinates": [72.6614921, 23.224331]}}, {"type": "Feature", "properties": {"osm_id": 3448270893, "osm_type": "node", "name": "Sector 10", "place": "neighbourhood"}, "geometry": {"type": "Point", "coordinates": [72.6550405, 23.2156209]}}, {"type": "Feature", "properties": {"osm_id": 3448270894, "osm_type": "node", "name": "Sector 5", "place": "neighbourhood"}, "geometry": {"type": "Point", "coordinates": [72.6277044, 23.2182493]}}, {"type": "Feature", "properties": {"osm_id": 3448270895, "osm_type": "node", "name": "Sector 7", "place": "neighbourhood"}, "geometry": {"type": "Point", "coordinates": [72.6430352, 23.2109753]}}, {"type": "Feature", "properties": {"osm_id": 3448270993, "osm_type": "node", "name": "Sector 11", "place": "neighbourhood"}, "geometry": {"type": "Point", "coordinates": [72.6478573, 23.2196246]}}, {"type": "Feature", "properties": {"osm_id": 3448270994, "osm_type": "node", "name": "Sector 15", "place": "neighbourhood"}, "geometry": {"type": "Point", "coordinates": [72.6390446, 23.2338962]}}, {"type": "Feature", "properties": {"osm_id": 3448271093, "osm_type": "node", "name": "Sector 12", "place": "neighbourhood"}, "geometry": {"type": "Point", "coordinates": [72.6411397, 23.2223751]}}, {"type": "Feature", "properties": {"osm_id": 3448271094, "osm_type": "node", "name": "Sector 16", "place": "neighbourhood"}, "geometry": {"type": "Point", "coordinates": [72.6464938, 23.2304431]}}, {"type": "Feature", "properties": {"osm_id": 3448271095, "osm_type": "node", "name": "Sector 17", "place": "neighbourhood"}, "geometry": {"type": "Point", "coordinates": [72.6537436, 23.227601]}}, {"type": "Feature", "properties": {"osm_id": 3448271096, "osm_type": "node", "name": "Sector 25", "place": "neighbourhood"}, "geometry": {"type": "Point", "coordinates": [72.637016, 23.247983]}}, {"type": "Feature", "properties": {"osm_id": 3448271193, "osm_type": "node", "name": "Sector 13", "place": "neighbourhood"}, "geometry": {"type": "Point", "coordinates": [72.6332581, 23.2275093]}}, {"type": "Feature", "properties": {"osm_id": 3448271194, "osm_type": "node", "name": "Sector 22", "place": "neighbourhood"}, "geometry": {"type": "Point", "coordinates": [72.6573352, 23.2357603]}}, {"type": "Feature", "properties": {"osm_id": 3448271393, "osm_type": "node", "name": "Sector 29", "place": "neighbourhood"}, "geometry": {"type": "Point", "coordinates": [72.6629221, 23.244133]}}, {"type": "Feature", "properties": {"osm_id": 3448271394, "osm_type": "node", "name": "Sector 6", "place": "neighbourhood"}, "geometry": {"type": "Point", "coordinates": [72.6356192, 23.2151625]}}, {"type": "Feature", "properties": {"osm_id": 12644813517, "osm_type": "node", "name": "Sector 7", "place": "neighbourhood"}, "geometry": {"type": "Point", "coordinates": [72.6419892, 23.2103509]}}, {"type": "Feature", "properties": {"osm_id": 8196383750, "osm_type": "node", "name": "Vandemataram Icon", "landuse": "residential"}, "geometry": {"type": "Point", "coordinates": [72.547552, 23.0975425]}}, {"type": "Feature", "properties": {"osm_id": 9120524223, "osm_type": "node", "name": "Avichal Park", "landuse": "residential"}, "geometry": {"type": "Point", "coordinates": [72.5785461, 23.1191796]}}, {"type": "Feature", "properties": {"osm_id": 10959671663, "osm_type": "node", "name": "Hariom Bungalows", "landuse": "residential"}, "geometry": {"type": "Point", "coordinates": [72.5943537, 23.1091252]}}, {"type": "Feature", "properties": {"osm_id": 13582340755, "osm_type": "node", "name": "Sakal Residency", "landuse": "residential"}, "geometry": {"type": "Point", "coordinates": [72.5915248, 23.1080196]}}, {"type": "Feature", "properties": {"osm_id": 118695847, "osm_type": "way", "name": "Vishwakarma Government Engineering College, Chandkheda", "landuse": "residential"}, "geometry": {"type": "LineString", "coordinates": [[72.5947372, 23.1083971], [72.5965837, 23.1079573], [72.5968476, 23.1073286], [72.5967864, 23.1063643], [72.5969848, 23.1057592], [72.5946723, 23.1038359], [72.5943065, 23.1044286], [72.5924997, 23.103461], [72.5916704, 23.1050611], [72.5918326, 23.1056439], [72.5921091, 23.1055916], [72.592044, 23.106661], [72.5918245, 23.1067358], [72.5919058, 23.1073939], [72.5927184, 23.1072547], [72.5927352, 23.1072518], [72.5929547, 23.108052], [72.5947372, 23.1083971]]}}, {"type": "Feature", "properties": {"osm_id": 118696147, "osm_type": "way", "name": "Railway Colony", "landuse": "residential"}, "geometry": {"type": "LineString", "coordinates": [[72.5759628, 23.1004768], [72.5790302, 23.1025453], [72.581133, 23.1035321], [72.5817298, 23.1026473], [72.5825988, 23.101359], [72.5832874, 23.1001299], [72.5838582, 23.099111], [72.5851671, 23.0971017], [72.5840727, 23.0965491], [72.5850169, 23.0947924], [72.5850075, 23.0945861], [72.5842312, 23.0929657], [72.5838679, 23.0921944], [72.5834627, 23.0920461], [72.5841423, 23.0904808], [72.5824849, 23.0895578], [72.5816909, 23.0921277], [72.5778296, 23.0989571], [72.5759628, 23.1004768]]}}, {"type": "Feature", "properties": {"osm_id": 118696271, "osm_type": "way", "name": "Adarsh Nagar", "landuse": "residential"}, "geometry": {"type": "LineString", "coordinates": [[72.5691122, 23.1043356], [72.5699107, 23.1041686], [72.5702077, 23.1048965], [72.5706089, 23.10588], [72.5703398, 23.1059696], [72.5701314, 23.1060083], [72.5697283, 23.1056242], [72.5695199, 23.1053521], [72.569224, 23.1047804], [72.5691122, 23.1043356]]}}, {"type": "Feature", "properties": {"osm_id": 120327574, "osm_type": "way", "name": "Adhikar Society", "landuse": "residential"}, "geometry": {"type": "LineString", "coordinates": [[72.5681409, 23.1045334], [72.5689884, 23.1043557], [72.5696751, 23.105757], [72.5683372, 23.1060121], [72.5682181, 23.1054768], [72.5681838, 23.1053228], [72.5679799, 23.1046123], [72.5681409, 23.1045334]]}}, {"type": "Feature", "properties": {"osm_id": 120327575, "osm_type": "way", "name": "Abu Nagar", "landuse": "residential"}, "geometry": {"type": "LineString", "coordinates": [[72.5670251, 23.104484], [72.5673914, 23.1054965], [72.5681054, 23.1052562], [72.5678083, 23.1040202], [72.5672611, 23.1042275], [72.5670251, 23.104484]]}}, {"type": "Feature", "properties": {"osm_id": 297317215, "osm_type": "way", "name": "Rajdhani Bungalows", "landuse": "residential"}, "geometry": {"type": "LineString", "coordinates": [[72.5640467, 23.089156], [72.5651094, 23.0890738], [72.564904, 23.0881866], [72.564136, 23.0883099], [72.5641807, 23.0885645], [72.5639217, 23.088622], [72.5640467, 23.089156]]}}, {"type": "Feature", "properties": {"osm_id": 343143991, "osm_type": "way", "name": "Sabarmati Society", "landuse": "residential"}, "geometry": {"type": "LineString", "coordinates": [[72.5916354, 23.0785818], [72.5913735, 23.0790693], [72.5914413, 23.0791033], [72.5911424, 23.0796588], [72.5913029, 23.0797275], [72.5916863, 23.0798916], [72.5923772, 23.0801873], [72.5927443, 23.0794659], [72.5923205, 23.0791571], [72.5922612, 23.079223], [72.5919023, 23.0789757], [72.5919883, 23.0788553], [72.5916354, 23.0785818]]}}, {"type": "Feature", "properties": {"osm_id": 343146002, "osm_type": "way", "name": "Varsoda ni Chali", "landuse": "residential"}, "geometry": {"type": "LineString", "coordinates": [[72.5901645, 23.0811014], [72.5917268, 23.0816942], [72.5924413, 23.0802383], [72.5897666, 23.0790706], [72.590009, 23.0799062], [72.5901645, 23.0811014]]}}, {"type": "Feature", "properties": {"osm_id": 343148383, "osm_type": "way", "name": "Dhaneshwar Society", "landuse": "residential"}, "geometry": {"type": "LineString", "coordinates": [[72.592496, 23.0802026], [72.5930124, 23.0803871], [72.5931719, 23.0800589], [72.5929926, 23.0799757], [72.593116, 23.0797654], [72.5928068, 23.0795884], [72.592496, 23.0802026]]}}, {"type": "Feature", "properties": {"osm_id": 424069259, "osm_type": "way", "name": "Hansol", "landuse": "residential"}, "geometry": {"type": "LineString", "coordinates": [[72.6196129, 23.0828509], [72.6178534, 23.0826041], [72.617494, 23.0824413], [72.6163675, 23.081553], [72.6176201, 23.0796991], [72.6205045, 23.0794856], [72.620657, 23.0796813], [72.6208683, 23.0796423], [72.6217018, 23.0796325], [72.622444, 23.0796325], [72.6242655, 23.0796261], [72.6247692, 23.0796018], [72.6249837, 23.0790541], [72.6254603, 23.0792184], [72.6254888, 23.0788741], [72.625681, 23.0788713], [72.6256973, 23.0787822], [72.6264508, 23.0789728], [72.6264761, 23.0788101], [72.6272198, 23.078957], [72.6279735, 23.0790534], [72.6279822, 23.0790021], [72.6280648, 23.079028], [72.6283401, 23.0785271], [72.6288618, 23.0786447], [72.628935, 23.0783611], [72.6297317, 23.0785398], [72.6295067, 23.0792045], [72.6295016, 23.0793299], [72.6294831, 23.0794104], [72.6295032, 23.0794736], [72.6299063, 23.0795514], [72.6309991, 23.0795163], [72.6325429, 23.0795055], [72.6334218, 23.0795123], [72.6337354, 23.0795251], [72.6344361, 23.0801136], [72.6346692, 23.0798982], [72.6348672, 23.0800323], [72.6362094, 23.0813079], [72.6361274, 23.0813896], [72.6363611, 23.0817207], [72.6371579, 23.082451], [72.637033, 23.0825249], [72.6370033, 23.082637], [72.6376931, 23.0836712], [72.6368874, 23.0843295], [72.6368247, 23.0847328], [72.6369346, 23.0852344], [72.6373209, 23.0858019], [72.6372565, 23.0861227], [72.6353107, 23.0860848], [72.6332976, 23.0859944], [72.630331, 23.0859056], [72.6246984, 23.0856736], [72.6224802, 23.0855619], [72.6220242, 23.0855125], [72.6217077, 23.0854237], [72.6212625, 23.085098], [72.6209835, 23.0847723], [72.6206966, 23.0841142], [72.6204578, 23.0829661], [72.6196129, 23.0828509]]}}, {"type": "Feature", "properties": {"osm_id": 454856460, "osm_type": "way", "name": "Water Lily", "landuse": "residential"}, "geometry": {"type": "LineString", "coordinates": [[72.5370907, 23.1678008], [72.5371263, 23.1677845], [72.5371578, 23.1677643], [72.5371893, 23.1677379], [72.5372145, 23.1677076], [72.5373511, 23.1675068], [72.5377382, 23.166979], [72.5376944, 23.1669519], [72.5388096, 23.1654343], [72.5388516, 23.1654605], [72.5390508, 23.1651902], [72.5395673, 23.1645156], [72.5381784, 23.1636725], [72.5375913, 23.1637681], [72.5376442, 23.16404], [72.5369376, 23.1640733], [72.5356633, 23.1642732], [72.5356693, 23.1646156], [72.5355928, 23.164623], [72.5355942, 23.1651538], [72.5348593, 23.1652303], [72.5350165, 23.1666194], [72.5360722, 23.1672714], [72.5361179, 23.1672061], [72.5361729, 23.1672404], [72.5362813, 23.1673925], [72.5369101, 23.1677834], [72.5369498, 23.1678037], [72.5369956, 23.1678126], [72.5370446, 23.1678122], [72.5370907, 23.1678008]]}}, {"type": "Feature", "properties": {"osm_id": 454888533, "osm_type": "way", "name": "The Meadows", "landuse": "residential"}, "geometry": {"type": "LineString", "coordinates": [[72.5428095, 23.1594743], [72.5428104, 23.1594427], [72.5432431, 23.1595858], [72.5404428, 23.1632946], [72.5395857, 23.1627916], [72.5395189, 23.1613514], [72.539718, 23.1613276], [72.5396982, 23.1587522], [72.5405009, 23.1588019], [72.5409596, 23.1588994], [72.5428095, 23.1594743]]}}, {"type": "Feature", "properties": {"osm_id": 460267704, "osm_type": "way", "name": "Riddhi Siddhi (Parinay) Society,", "landuse": "residential"}, "geometry": {"type": "LineString", "coordinates": [[72.5677983, 23.0845386], [72.5678619, 23.0848686], [72.5678773, 23.0849708], [72.5679026, 23.0849964], [72.5681483, 23.0850967], [72.5683399, 23.0851457], [72.56867, 23.0851718], [72.5689138, 23.0851709], [72.5687669, 23.0843811], [72.5686478, 23.0844005], [72.5684102, 23.0844391], [72.5680526, 23.0844973], [72.5677983, 23.0845386]]}}, {"type": "Feature", "properties": {"osm_id": 461843425, "osm_type": "way", "name": "IndraPrastha Appartment", "landuse": "residential"}, "geometry": {"type": "LineString", "coordinates": [[72.5581337, 23.0908076], [72.5592121, 23.0909181], [72.5593846, 23.0898269], [72.5583771, 23.0896881], [72.5581337, 23.0908076]]}}, {"type": "Feature", "properties": {"osm_id": 461843692, "osm_type": "way", "name": "AryaVilla Appartment", "landuse": "residential"}, "geometry": {"type": "LineString", "coordinates": [[72.5572243, 23.0891165], [72.5584147, 23.0893307], [72.5584749, 23.0890567], [72.5594613, 23.0892004], [72.5596222, 23.0884109], [72.5576448, 23.088055], [72.5574711, 23.0880358], [72.5572243, 23.0891165]]}}, {"type": "Feature", "properties": {"osm_id": 462034570, "osm_type": "way", "name": "Bhavana Society", "landuse": "residential"}, "geometry": {"type": "LineString", "coordinates": [[72.5689138, 23.0851709], [72.5692798, 23.0851732], [72.5691653, 23.0845663], [72.5697107, 23.0844676], [72.5694961, 23.0834061], [72.5685885, 23.0835776], [72.5687001, 23.0840802], [72.5687382, 23.0842518], [72.5687669, 23.0843811], [72.5689138, 23.0851709]]}}, {"type": "Feature", "properties": {"osm_id": 462034718, "osm_type": "way", "name": "Ami-Park Society", "landuse": "residential"}, "geometry": {"type": "LineString", "coordinates": [[72.5677983, 23.0845386], [72.5687669, 23.0843811], [72.5687382, 23.0842518], [72.567779, 23.0844145], [72.5677983, 23.0845386]]}}, {"type": "Feature", "properties": {"osm_id": 462035089, "osm_type": "way", "name": "Surya-Ami Appartment", "landuse": "residential"}, "geometry": {"type": "LineString", "coordinates": [[72.567745, 23.0842534], [72.5687001, 23.0840802], [72.5685885, 23.0835776], [72.5676539, 23.0837465], [72.567745, 23.0842534]]}}, {"type": "Feature", "properties": {"osm_id": 462299625, "osm_type": "way", "name": "Green Avenue Appartment", "landuse": "residential"}, "geometry": {"type": "LineString", "coordinates": [[72.5673959, 23.0848074], [72.567521, 23.084559], [72.5677164, 23.0846408], [72.567762, 23.0848321], [72.5677164, 23.0848925], [72.567648, 23.0849049], [72.5673959, 23.0848074]]}}, {"type": "Feature", "properties": {"osm_id": 462299752, "osm_type": "way", "name": "Saket Appartment", "landuse": "residential"}, "geometry": {"type": "LineString", "coordinates": [[72.567521, 23.084559], [72.5673959, 23.0848074], [72.5665762, 23.0844819], [72.5667026, 23.0842156], [72.567521, 23.084559]]}}, {"type": "Feature", "properties": {"osm_id": 462301379, "osm_type": "way", "name": "Nilkanth Mahadev", "landuse": "residential"}, "geometry": {"type": "LineString", "coordinates": [[72.5665207, 23.0804092], [72.5664081, 23.079896], [72.5668506, 23.0798195], [72.5667487, 23.079321], [72.5676553, 23.0791532], [72.568012, 23.0801106], [72.5665207, 23.0804092]]}}, {"type": "Feature", "properties": {"osm_id": 462739600, "osm_type": "way", "name": "AMC LIG-5, Chandkheda", "landuse": "residential"}, "geometry": {"type": "LineString", "coordinates": [[72.5853139, 23.1136503], [72.5855164, 23.1136639], [72.5854989, 23.1138823], [72.5852954, 23.1138701], [72.5853139, 23.1136503]]}}, {"type": "Feature", "properties": {"osm_id": 541501796, "osm_type": "way", "name": "Malabar county 2", "landuse": "residential"}, "geometry": {"type": "LineString", "coordinates": [[72.5481867, 23.1275811], [72.5485949, 23.1287121], [72.5495483, 23.1284211], [72.5491402, 23.1272901], [72.5481867, 23.1275811]]}}, {"type": "Feature", "properties": {"osm_id": 545635435, "osm_type": "way", "name": "The North Park", "landuse": "residential"}, "geometry": {"type": "LineString", "coordinates": [[72.538406, 23.1712269], [72.5364049, 23.1715541], [72.536317, 23.1717183], [72.5360507, 23.1726577], [72.5363026, 23.1727154], [72.5366082, 23.1728601], [72.537489, 23.1732994], [72.5386045, 23.1712833], [72.538406, 23.1712269]]}}, {"type": "Feature", "properties": {"osm_id": 551631345, "osm_type": "way", "name": "Shree Rang Earth & Heaven", "landuse": "residential"}, "geometry": {"type": "LineString", "coordinates": [[72.606121, 23.1181839], [72.6060977, 23.1184587], [72.6060644, 23.1188506], [72.6049648, 23.1187798], [72.6051196, 23.1181089], [72.606121, 23.1181839]]}}, {"type": "Feature", "properties": {"osm_id": 551631346, "osm_type": "way", "name": "Shree Rang Pineapple", "landuse": "residential"}, "geometry": {"type": "LineString", "coordinates": [[72.6060644, 23.1188506], [72.6060184, 23.1194302], [72.6048332, 23.1193467], [72.6048334, 23.1193459], [72.6049648, 23.1187798], [72.6060644, 23.1188506]]}}, {"type": "Feature", "properties": {"osm_id": 551631347, "osm_type": "way", "name": "Saamarth Heaven III", "landuse": "residential"}, "geometry": {"type": "LineString", "coordinates": [[72.6048334, 23.1193459], [72.6060184, 23.1194302], [72.6059252, 23.1205579], [72.6046103, 23.1203969], [72.6047412, 23.1195675], [72.6048332, 23.1193467], [72.6048334, 23.1193459]]}}, {"type": "Feature", "properties": {"osm_id": 551631348, "osm_type": "way", "name": "SWA Bungalows", "landuse": "residential"}, "geometry": {"type": "LineString", "coordinates": [[72.6060982, 23.1184582], [72.6096661, 23.1187088], [72.6096356, 23.1193764], [72.609604, 23.1200699], [72.6095716, 23.1207803], [72.6095272, 23.1208223], [72.6087731, 23.1207755], [72.6063645, 23.120628], [72.606193, 23.120598], [72.6059252, 23.1205579], [72.6060982, 23.1184582]]}}, {"type": "Feature", "properties": {"osm_id": 581765501, "osm_type": "way", "name": "Sector 4", "landuse": "residential"}, "geometry": {"type": "LineString", "coordinates": [[72.5772944, 23.1888331], [72.5769989, 23.1892006], [72.5775411, 23.1895437], [72.5779532, 23.1898044], [72.5786114, 23.1902208], [72.5790857, 23.1905209], [72.5790392, 23.1901081], [72.5807853, 23.1900262], [72.5805607, 23.1887949], [72.5788456, 23.1877379], [72.5787834, 23.1877246], [72.5787157, 23.1877147], [72.5786676, 23.1877207], [72.5786074, 23.1877458], [72.5785571, 23.1877814], [72.578523, 23.1878188], [72.5779515, 23.188303], [72.5783699, 23.1885816], [72.5778764, 23.1892251], [72.5772944, 23.1888331]]}}, {"type": "Feature", "properties": {"osm_id": 583406409, "osm_type": "way", "name": "Sector 3C", "landuse": "residential"}, "geometry": {"type": "LineString", "coordinates": [[72.5765856, 23.1868693], [72.5763818, 23.1869877], [72.5766339, 23.1893127], [72.577047, 23.1887924], [72.5777524, 23.1881662], [72.5777524, 23.18807], [72.5772311, 23.1875336], [72.5765856, 23.1868693]]}}, {"type": "Feature", "properties": {"osm_id": 583406410, "osm_type": "way", "name": "Sector 3B", "landuse": "residential"}, "geometry": {"type": "LineString", "coordinates": [[72.5766339, 23.1893127], [72.5764783, 23.1895543], [72.575789, 23.1891426], [72.5757132, 23.1885486], [72.5756454, 23.1879204], [72.575569, 23.1872127], [72.5755657, 23.1871813], [72.5755389, 23.1870259], [72.5755563, 23.1869901], [72.5757736, 23.186942], [72.5759453, 23.1868829], [72.5761652, 23.1867929], [72.5763664, 23.1866486], [72.5765856, 23.1868693], [72.5763818, 23.1869877], [72.5766339, 23.1893127]]}}, {"type": "Feature", "properties": {"osm_id": 583602815, "osm_type": "way", "name": "Sector 1A", "landuse": "residential"}, "geometry": {"type": "LineString", "coordinates": [[72.5718384, 23.1862771], [72.5716023, 23.1862574], [72.571489, 23.1862013], [72.5714327, 23.1858438], [72.5715655, 23.1856996], [72.5715373, 23.1856342], [72.5710424, 23.1854752], [72.571257, 23.1846887], [72.5713844, 23.1843423], [72.5714072, 23.1842646], [72.5718216, 23.1837185], [72.5718954, 23.183605], [72.5720315, 23.1835349], [72.5720812, 23.1835093], [72.5721394, 23.1834793], [72.5723004, 23.1835422], [72.5727242, 23.1836963], [72.572994, 23.1837914], [72.573899, 23.1841105], [72.5746352, 23.1843509], [72.5749249, 23.1837333], [72.5762607, 23.1838911], [72.5762177, 23.1841684], [72.5761835, 23.184354], [72.576323, 23.1844551], [72.5765081, 23.1846153], [72.5765611, 23.1846788], [72.5766308, 23.1847626], [72.5767032, 23.1848761], [72.5767756, 23.1850228], [72.5768279, 23.1851596], [72.5768695, 23.1853507], [72.5768729, 23.1853932], [72.5768809, 23.1854524], [72.5768836, 23.1856151], [72.5768782, 23.185768], [72.5768514, 23.1859085], [72.5768031, 23.1860417], [72.5767388, 23.1861896], [72.5766556, 23.1863178], [72.5765591, 23.1864288], [72.5764357, 23.1865545], [72.5764035, 23.186589], [72.5763664, 23.1866486], [72.5761652, 23.1867929], [72.5759453, 23.1868829], [72.5757736, 23.186942], [72.5755563, 23.1869901], [72.5753646, 23.1870037], [72.5751956, 23.1869988], [72.5750648, 23.1869852], [72.5750892, 23.1868849], [72.5750175, 23.1868706], [72.5747642, 23.1868203], [72.5746922, 23.186806], [72.5746799, 23.1867404], [72.5745263, 23.1866455], [72.5743654, 23.1865264], [72.5742485, 23.1864126], [72.5741393, 23.186369], [72.5740334, 23.1863678], [72.5739154, 23.1863764], [72.5738255, 23.1863961], [72.5736926, 23.1864553], [72.5736592, 23.1864701], [72.5732743, 23.1865983], [72.5730048, 23.1866452], [72.5727048, 23.1866315], [72.5726108, 23.1866285], [72.5726108, 23.1865446], [72.5725357, 23.1865446], [72.5725357, 23.1864288], [72.5726494, 23.1864245], [72.5727157, 23.1861096], [72.5726098, 23.1860906], [72.5724342, 23.1860142], [72.5723073, 23.1859319], [72.5719767, 23.1863096], [72.5718384, 23.1862771]]}}, {"type": "Feature", "properties": {"osm_id": 583602817, "osm_type": "way", "name": "Sector 1B", "landuse": "residential"}, "geometry": {"type": "LineString", "coordinates": [[72.5764035, 23.186589], [72.5764357, 23.1865545], [72.5765591, 23.1864288], [72.5766556, 23.1863178], [72.5767388, 23.1861896], [72.5768031, 23.1860417], [72.5768514, 23.1859085], [72.5768782, 23.185768], [72.5768836, 23.1856151], [72.5768809, 23.1854524], [72.5782006, 23.1853045], [72.5782073, 23.1854881], [72.5781992, 23.1858062], [72.5781161, 23.1862525], [72.5779364, 23.1867061], [72.5777057, 23.1870562], [72.5774831, 23.1873275], [72.5772311, 23.1875336], [72.5763664, 23.1866486], [72.5764035, 23.186589]]}}, {"type": "Feature", "properties": {"osm_id": 583602818, "osm_type": "way", "name": "Sector 1C", "landuse": "residential"}, "geometry": {"type": "LineString", "coordinates": [[72.5777524, 23.1881662], [72.5784983, 23.187558], [72.578627, 23.1873558], [72.5787021, 23.1870895], [72.578627, 23.1863351], [72.5784929, 23.1853686], [72.5784178, 23.1852897], [72.5782006, 23.1853045], [72.5782073, 23.1854881], [72.5781992, 23.1858062], [72.5781161, 23.1862525], [72.5779364, 23.1867061], [72.5777057, 23.1870562], [72.5774831, 23.1873275], [72.5772311, 23.1875336], [72.5777524, 23.18807], [72.5777524, 23.1881662]]}}, {"type": "Feature", "properties": {"osm_id": 583602819, "osm_type": "way", "name": "Sector 1D", "landuse": "residential"}, "geometry": {"type": "LineString", "coordinates": [[72.5762177, 23.1841684], [72.5771518, 23.1842566], [72.5772161, 23.1842568], [72.5783186, 23.1842245], [72.5784929, 23.1853686], [72.5784178, 23.1852897], [72.5782006, 23.1853045], [72.5768809, 23.1854524], [72.5768729, 23.1853932], [72.5768695, 23.1853507], [72.5768279, 23.1851596], [72.5767756, 23.1850228], [72.5767032, 23.1848761], [72.5766308, 23.1847626], [72.5765611, 23.1846788], [72.5765081, 23.1846153], [72.576323, 23.1844551], [72.5761835, 23.184354], [72.5762177, 23.1841684]]}}, {"type": "Feature", "properties": {"osm_id": 616132409, "osm_type": "way", "name": "Nijanand Society", "landuse": "residential"}, "geometry": {"type": "LineString", "coordinates": [[72.5609032, 23.0896634], [72.5608367, 23.0892963], [72.5608067, 23.0891304], [72.5627164, 23.0888639], [72.5628344, 23.0896239], [72.5618795, 23.0896535], [72.5609032, 23.0896634]]}}, {"type": "Feature", "properties": {"osm_id": 875814172, "osm_type": "way", "name": "Sector 3A", "landuse": "residential"}, "geometry": {"type": "LineString", "coordinates": [[72.5755563, 23.1869901], [72.5753646, 23.1870037], [72.5751956, 23.1869988], [72.5750648, 23.1869852], [72.574728, 23.1882967], [72.5749506, 23.1883411], [72.5748996, 23.1885852], [72.575789, 23.1891426], [72.5757132, 23.1885486], [72.5755657, 23.1871813], [72.5755389, 23.1870259], [72.5755563, 23.1869901]]}}, {"type": "Feature", "properties": {"osm_id": 986704166, "osm_type": "way", "name": "Avichal Park", "landuse": "residential"}, "geometry": {"type": "LineString", "coordinates": [[72.5783819, 23.119854], [72.5779612, 23.1192953], [72.5779384, 23.1192633], [72.5785871, 23.1188154], [72.579035, 23.1195282], [72.5783819, 23.119854]]}}, {"type": "Feature", "properties": {"osm_id": 1004137265, "osm_type": "way", "name": "Vatsalya and Sinchan", "landuse": "residential"}, "geometry": {"type": "LineString", "coordinates": [[72.5711102, 23.184637], [72.5711505, 23.184346], [72.5717164, 23.1835866], [72.569922, 23.1831354], [72.5701419, 23.1824302], [72.5700803, 23.1818508], [72.5697986, 23.1817546], [72.5698174, 23.1816166], [72.5696806, 23.1815722], [72.5692675, 23.182413], [72.5692649, 23.1824462], [72.5692407, 23.1827508], [72.5688982, 23.1836384], [72.5688706, 23.1837099], [72.569238, 23.1839022], [72.5690101, 23.1843978], [72.5699354, 23.1847997], [72.5701929, 23.1843781], [72.5711102, 23.184637]]}}, {"type": "Feature", "properties": {"osm_id": 1033827286, "osm_type": "way", "name": "Aditya Residency", "landuse": "residential"}, "geometry": {"type": "LineString", "coordinates": [[72.598715, 23.101812], [72.5993353, 23.1013616], [72.5990778, 23.1009237], [72.5983829, 23.1014394], [72.598715, 23.101812]]}}, {"type": "Feature", "properties": {"osm_id": 1072528781, "osm_type": "way", "name": "Shukan Residency", "landuse": "residential"}, "geometry": {"type": "LineString", "coordinates": [[72.5445383, 23.0943427], [72.5444713, 23.0941895], [72.5444568, 23.0941588], [72.5445185, 23.0941401], [72.5444981, 23.0940769], [72.5445045, 23.0940681], [72.5444906, 23.0940483], [72.5444562, 23.0939832], [72.5445271, 23.0939398], [72.5444359, 23.093691], [72.5445929, 23.0936194], [72.5447881, 23.0935537], [72.5456365, 23.0932943], [72.5457782, 23.0937074], [72.5460155, 23.0943154], [72.5459768, 23.0943315], [72.545745, 23.094428], [72.5456097, 23.094475], [72.5454605, 23.0940842], [72.5445383, 23.0943427]]}}, {"type": "Feature", "properties": {"osm_id": 1072528783, "osm_type": "way", "name": "Aaryan60 Appartment", "landuse": "residential"}, "geometry": {"type": "LineString", "coordinates": [[72.5452313, 23.0946049], [72.5452256, 23.0945886], [72.5451699, 23.0944293], [72.5451634, 23.0944105], [72.5451068, 23.0942487], [72.5450962, 23.0942183], [72.5454482, 23.0940996], [72.5454977, 23.0942282], [72.5455453, 23.0943517], [72.5455939, 23.0944779], [72.5452313, 23.0946049]]}}, {"type": "Feature", "properties": {"osm_id": 1074703589, "osm_type": "way", "name": "Casa Elite", "landuse": "residential"}, "geometry": {"type": "LineString", "coordinates": [[72.5400424, 23.1210555], [72.5406309, 23.1209167], [72.540818, 23.1216813], [72.5406888, 23.1218014], [72.5402386, 23.121857], [72.5400424, 23.1210555]]}}, {"type": "Feature", "properties": {"osm_id": 1081886776, "osm_type": "way", "name": "Sector 6", "landuse": "residential"}, "geometry": {"type": "LineString", "coordinates": [[72.5772161, 23.1842568], [72.5772523, 23.18356], [72.5778799, 23.1835909], [72.5778129, 23.1832863], [72.5793753, 23.1832716], [72.5794316, 23.183475], [72.5794048, 23.1842257], [72.5772161, 23.1842568]]}}, {"type": "Feature", "properties": {"osm_id": 1104385405, "osm_type": "way", "name": "Swagat City", "landuse": "residential"}, "geometry": {"type": "LineString", "coordinates": [[72.5838684, 23.1608918], [72.5847718, 23.158861], [72.585298, 23.1590435], [72.5851342, 23.159509], [72.5872172, 23.1600389], [72.5870651, 23.1607869], [72.5860425, 23.1605769], [72.5858738, 23.1613665], [72.5838684, 23.1608918]]}}, {"type": "Feature", "properties": {"osm_id": 1241921148, "osm_type": "way", "name": "Green Glades", "landuse": "residential"}, "geometry": {"type": "LineString", "coordinates": [[72.5521185, 23.1117954], [72.5524461, 23.1127581], [72.5506404, 23.1132778], [72.5503128, 23.1123154], [72.5521185, 23.1117954]]}}, {"type": "Feature", "properties": {"osm_id": 1355784337, "osm_type": "way", "name": "Magnate Lavish", "landuse": "residential"}, "geometry": {"type": "LineString", "coordinates": [[72.532918, 23.145154], [72.5330795, 23.1446141], [72.5338547, 23.1447919], [72.5337501, 23.1453286], [72.532918, 23.145154]]}}, {"type": "Feature", "properties": {"osm_id": 1368330295, "osm_type": "way", "name": "Tremont Group", "landuse": "residential"}, "geometry": {"type": "LineString", "coordinates": [[72.5523639, 23.1360469], [72.5530966, 23.1359834], [72.5530928, 23.1359463], [72.5530329, 23.135361], [72.5523002, 23.1354245], [72.5523639, 23.1360469]]}}, {"type": "Feature", "properties": {"osm_id": 1368330299, "osm_type": "way", "name": "Ratna Paradise", "landuse": "residential"}, "geometry": {"type": "LineString", "coordinates": [[72.5519565, 23.1365137], [72.5523703, 23.1364782], [72.5522655, 23.1354466], [72.5518517, 23.1354822], [72.5519565, 23.1365137]]}}, {"type": "Feature", "properties": {"osm_id": 1368330315, "osm_type": "way", "name": "Malabar Exotica", "landuse": "residential"}, "geometry": {"type": "LineString", "coordinates": [[72.5516698, 23.1293865], [72.5525629, 23.1290979], [72.5523484, 23.128464], [72.5514498, 23.1287402], [72.5516698, 23.1293865]]}}, {"type": "Feature", "properties": {"osm_id": 1426329709, "osm_type": "way", "name": "Devbhumi Society", "landuse": "residential"}, "geometry": {"type": "LineString", "coordinates": [[72.5850034, 23.1322984], [72.5846575, 23.1322508], [72.584641, 23.1325257], [72.5846645, 23.132556], [72.5846575, 23.1327529], [72.5839843, 23.1328655], [72.5840197, 23.1337182], [72.584095, 23.1338502], [72.5850599, 23.1335342], [72.5848952, 23.1327789], [72.5850034, 23.1322984]]}}, {"type": "Feature", "properties": {"osm_id": 1466485196, "osm_type": "way", "name": "Kalasagar Heights", "landuse": "residential"}, "geometry": {"type": "LineString", "coordinates": [[72.5576862, 23.0945153], [72.5584852, 23.0944511], [72.5583826, 23.0933434], [72.5578305, 23.0933846], [72.5578834, 23.0939942], [72.5576252, 23.0940264], [72.5576862, 23.0945153]]}}, {"type": "Feature", "properties": {"osm_id": 1488485678, "osm_type": "way", "name": "Green Part Society Part II", "landuse": "residential"}, "geometry": {"type": "LineString", "coordinates": [[72.5616166, 23.1139129], [72.5638056, 23.1081934], [72.5608468, 23.1081934], [72.5616166, 23.1139129]]}}, {"type": "Feature", "properties": {"osm_id": 1539982391, "osm_type": "way", "name": "Shivalik Greenview", "landuse": "residential"}, "geometry": {"type": "LineString", "coordinates": [[72.5435745, 23.1576899], [72.5442889, 23.1581413], [72.5449298, 23.1572839], [72.5442154, 23.1568325], [72.5435745, 23.1576899]]}}, {"type": "Feature", "properties": {"osm_id": 11384955028, "osm_type": "node", "name": "Shyam Elegance", "landuse": "residential"}, "geometry": {"type": "Point", "coordinates": [72.6597701, 23.1073065]}}, {"type": "Feature", "properties": {"osm_id": 62531507, "osm_type": "way", "name": "Sector 1", "landuse": "residential"}, "geometry": {"type": "LineString", "coordinates": [[72.640516, 23.1961985], [72.6403654, 23.1961895], [72.6401999, 23.1961985], [72.6400517, 23.1962939], [72.63999, 23.1964119], [72.6399159, 23.1966594], [72.6401628, 23.1980986], [72.6403478, 23.1987417], [72.6404567, 23.1991201], [72.6409803, 23.2007046], [72.6414224, 23.2017329], [72.6418003, 23.2023458], [72.6429536, 23.2041686], [72.6430277, 23.2041958], [72.6431537, 23.2042026], [72.6433414, 23.2041436], [72.6516948, 23.1997086], [72.6516701, 23.1996519], [72.6488361, 23.1984743], [72.6468973, 23.1978245], [72.6446653, 23.1971718], [72.6426988, 23.1966639], [72.640516, 23.1961985]]}}, {"type": "Feature", "properties": {"osm_id": 62531513, "osm_type": "way", "name": "Sector 2", "landuse": "residential"}, "geometry": {"type": "LineString", "coordinates": [[72.6322657, 23.1974768], [72.6319893, 23.1975416], [72.6318477, 23.1976034], [72.6316424, 23.1978181], [72.6316095, 23.1984044], [72.6316811, 23.1991308], [72.6317824, 23.1997982], [72.6322244, 23.201394], [72.6325924, 23.2023588], [72.6330444, 23.203344], [72.6336026, 23.2042588], [72.6357833, 23.2077454], [72.6358871, 23.2078498], [72.6359957, 23.207902], [72.6361242, 23.2079065], [72.6362872, 23.2078838], [72.6364749, 23.2077908], [72.6425158, 23.2045811], [72.6426714, 23.2044313], [72.642664, 23.2043405], [72.6425998, 23.2041929], [72.6410982, 23.2018866], [72.6408537, 23.2013486], [72.6403474, 23.1999049], [72.639888, 23.1983817], [72.6395014, 23.1968332], [72.6393022, 23.1966277], [72.639164, 23.1965343], [72.639038, 23.1964782], [72.6389201, 23.1964296], [72.638729, 23.1963998], [72.6384973, 23.1964184], [72.6340589, 23.1973031], [72.6331269, 23.197426], [72.6322657, 23.1974768]]}}, {"type": "Feature", "properties": {"osm_id": 62531515, "osm_type": "way", "name": "Sector 3", "landuse": "residential"}, "geometry": {"type": "LineString", "coordinates": [[72.631299, 23.1984927], [72.631168, 23.1977873], [72.631058, 23.1976493], [72.6308756, 23.1975408], [72.6290383, 23.1975531], [72.6272251, 23.1974323], [72.6253315, 23.1971562], [72.6243256, 23.1969836], [72.624075, 23.1970058], [72.6239793, 23.1975989], [72.6239917, 23.1985296], [72.6239731, 23.2014891], [72.6239762, 23.2021304], [72.6242325, 23.2033704], [72.6244455, 23.2041252], [72.6248283, 23.2047352], [72.6290792, 23.2115417], [72.6292143, 23.2115771], [72.6294362, 23.2115505], [72.6354272, 23.2083364], [72.635515, 23.2082459], [72.6355613, 23.2081466], [72.6355575, 23.2079977], [72.63292, 23.2038111], [72.6323122, 23.2026008], [72.631825, 23.2013417], [72.6314729, 23.2000382], [72.631299, 23.1984927]]}}, {"type": "Feature", "properties": {"osm_id": 62553550, "osm_type": "way", "name": "Sector 8", "landuse": "residential"}, "geometry": {"type": "LineString", "coordinates": [[72.647944, 23.2121617], [72.64805, 23.2122566], [72.6481804, 23.2122965], [72.6483325, 23.2123065], [72.6485281, 23.2122491], [72.6545895, 23.2089281], [72.654946, 23.2085547], [72.6584476, 23.2036673], [72.6584286, 23.2035724], [72.6549318, 23.2014382], [72.6518721, 23.199812], [72.6432806, 23.2043534], [72.6432466, 23.2044377], [72.6432364, 23.2045625], [72.6432908, 23.2047279], [72.647944, 23.2121617]]}}, {"type": "Feature", "properties": {"osm_id": 239876591, "osm_type": "way", "name": "Urjanagar-1 Society", "landuse": "residential"}, "geometry": {"type": "LineString", "coordinates": [[72.6415882, 23.1744658], [72.6415905, 23.1737924], [72.6405543, 23.173783], [72.640553, 23.1735105], [72.640412, 23.1735195], [72.6403633, 23.1731758], [72.6406628, 23.1731857], [72.64066, 23.1730873], [72.6414644, 23.1730894], [72.6423232, 23.1730876], [72.6430064, 23.1730865], [72.6430248, 23.1733157], [72.6434414, 23.1733198], [72.6434284, 23.1734612], [72.6435686, 23.1734645], [72.6435547, 23.173867], [72.6438069, 23.1738746], [72.6438504, 23.1745302], [72.6431191, 23.1745098], [72.6429668, 23.1745088], [72.6424875, 23.1745009], [72.6424892, 23.1743337], [72.6423522, 23.1743339], [72.6423515, 23.1744992], [72.6415882, 23.1744658]]}}, {"type": "Feature", "properties": {"osm_id": 338847132, "osm_type": "way", "name": "Dholakuva", "landuse": "residential"}, "geometry": {"type": "LineString", "coordinates": [[72.6476518, 23.1913631], [72.6479271, 23.1863524], [72.6417934, 23.1861937], [72.6421126, 23.1895334], [72.6425527, 23.1897173], [72.6423927, 23.1900023], [72.6427228, 23.1905356], [72.6427244, 23.190791], [72.6476518, 23.1913631]]}}, {"type": "Feature", "properties": {"osm_id": 401444176, "osm_type": "way", "name": "Shukan Sky", "landuse": "residential"}, "geometry": {"type": "LineString", "coordinates": [[72.6378036, 23.1740919], [72.6388395, 23.1739762], [72.6387727, 23.1734703], [72.639961, 23.1733376], [72.6398209, 23.1722779], [72.6384159, 23.1724348], [72.6383681, 23.1720732], [72.637549, 23.1721646], [72.6378036, 23.1740919]]}}, {"type": "Feature", "properties": {"osm_id": 401450635, "osm_type": "way", "name": "Shree Rang Upvan", "landuse": "residential"}, "geometry": {"type": "LineString", "coordinates": [[72.6572143, 23.1583993], [72.6584176, 23.1579331], [72.6580566, 23.157206], [72.6568446, 23.1577197], [72.6572143, 23.1583993]]}}, {"type": "Feature", "properties": {"osm_id": 544496006, "osm_type": "way", "name": "Aawaass River Front", "landuse": "residential"}, "geometry": {"type": "LineString", "coordinates": [[72.6506492, 23.1838029], [72.6526799, 23.1837215], [72.6526297, 23.182768], [72.6518013, 23.182776], [72.6518036, 23.1830593], [72.6506883, 23.1830785], [72.6506492, 23.1838029]]}}, {"type": "Feature", "properties": {"osm_id": 544496007, "osm_type": "way", "name": "Shree Rang Oasis શ્રી રંગ ઓએસિસ", "landuse": "residential"}, "geometry": {"type": "LineString", "coordinates": [[72.6506492, 23.1838029], [72.6526799, 23.1837215], [72.6528585, 23.1846495], [72.6506909, 23.185144], [72.6506492, 23.1838029]]}}, {"type": "Feature", "properties": {"osm_id": 544496008, "osm_type": "way", "name": "Shree Rang Aroma", "landuse": "residential"}, "geometry": {"type": "LineString", "coordinates": [[72.6506492, 23.1838029], [72.6506571, 23.1845862], [72.6506976, 23.1853585], [72.6497413, 23.1856103], [72.6496799, 23.1837955], [72.6506492, 23.1838029]]}}, {"type": "Feature", "properties": {"osm_id": 547618486, "osm_type": "way", "name": "Sparsh Residency", "landuse": "residential"}, "geometry": {"type": "LineString", "coordinates": [[72.6579096, 23.1136992], [72.6590296, 23.1134595], [72.6589123, 23.112983], [72.6588709, 23.1128051], [72.6577055, 23.1130499], [72.6579096, 23.1136992]]}}, {"type": "Feature", "properties": {"osm_id": 547618487, "osm_type": "way", "name": "Crystal Bungalows", "landuse": "residential"}, "geometry": {"type": "LineString", "coordinates": [[72.6589123, 23.112983], [72.659539, 23.1128787], [72.6593409, 23.1120362], [72.6587184, 23.1121512], [72.6588709, 23.1128051], [72.6589123, 23.112983]]}}, {"type": "Feature", "properties": {"osm_id": 547618488, "osm_type": "way", "name": "Keshav Bungalows", "landuse": "residential"}, "geometry": {"type": "LineString", "coordinates": [[72.6602293, 23.1135783], [72.6612204, 23.1133956], [72.6610877, 23.1128142], [72.6619953, 23.11265], [72.6618642, 23.1121391], [72.6609715, 23.1123054], [72.6609549, 23.1122329], [72.6601241, 23.1123824], [72.6602293, 23.1135783]]}}, {"type": "Feature", "properties": {"osm_id": 547618489, "osm_type": "way", "name": "Coral Bungalows", "landuse": "residential"}, "geometry": {"type": "LineString", "coordinates": [[72.661717, 23.1096338], [72.661568, 23.1076695], [72.6620602, 23.10763], [72.6621369, 23.108417], [72.6624846, 23.1084004], [72.6625613, 23.1095756], [72.661717, 23.1096338]]}}, {"type": "Feature", "properties": {"osm_id": 547622939, "osm_type": "way", "name": "Prince Residency", "landuse": "residential"}, "geometry": {"type": "LineString", "coordinates": [[72.6588275, 23.104733], [72.6594425, 23.1046571], [72.6594222, 23.104113], [72.6587066, 23.1040653], [72.6588275, 23.104733]]}}, {"type": "Feature", "properties": {"osm_id": 547622945, "osm_type": "way", "name": "Kailash Kunj", "landuse": "residential"}, "geometry": {"type": "LineString", "coordinates": [[72.6675082, 23.1038751], [72.6679543, 23.1048053], [72.6677753, 23.1048626], [72.6681332, 23.105602], [72.6673682, 23.1059204], [72.6668806, 23.1059515], [72.6666589, 23.1055221], [72.6666771, 23.1054243], [72.6671299, 23.1052501], [72.6668703, 23.1046833], [72.6672292, 23.1045462], [72.6669786, 23.1040977], [72.6675082, 23.1038751]]}}, {"type": "Feature", "properties": {"osm_id": 551640841, "osm_type": "way", "name": "Shikhar Bunglows", "landuse": "residential"}, "geometry": {"type": "LineString", "coordinates": [[72.6321462, 23.1198722], [72.6348207, 23.1196911], [72.6346854, 23.1183373], [72.6320243, 23.1185623], [72.6320456, 23.1187908], [72.6320588, 23.1189326], [72.6321462, 23.1198722]]}}, {"type": "Feature", "properties": {"osm_id": 551655654, "osm_type": "way", "name": "Narayan Avenue", "landuse": "residential"}, "geometry": {"type": "LineString", "coordinates": [[72.6333179, 23.1023264], [72.6338228, 23.1024213], [72.633878, 23.1030849], [72.6338854, 23.103173], [72.6339342, 23.1037258], [72.6336084, 23.1037482], [72.6332042, 23.1032178], [72.6332736, 23.1026734], [72.6333179, 23.1023264]]}}, {"type": "Feature", "properties": {"osm_id": 551655658, "osm_type": "way", "name": "Anurag Bungalows", "landuse": "residential"}, "geometry": {"type": "LineString", "coordinates": [[72.6329964, 23.1053814], [72.6321678, 23.1054297], [72.6321567, 23.1049969], [72.6329018, 23.1047896], [72.6329557, 23.104813], [72.6329964, 23.1053814]]}}, {"type": "Feature", "properties": {"osm_id": 551912361, "osm_type": "way", "name": "Shree Balaji Agora Residency", "landuse": "residential"}, "geometry": {"type": "LineString", "coordinates": [[72.6242497, 23.1191208], [72.6264611, 23.1187479], [72.626639, 23.1198704], [72.6265253, 23.1210138], [72.6248372, 23.1210416], [72.6247196, 23.12067], [72.6246545, 23.1205651], [72.6244537, 23.1206449], [72.6245167, 23.1203433], [72.6242497, 23.1191208]]}}, {"type": "Feature", "properties": {"osm_id": 551912362, "osm_type": "way", "name": "Parshwanath Atlantis Park", "landuse": "residential"}, "geometry": {"type": "LineString", "coordinates": [[72.6223021, 23.1190149], [72.622509, 23.1190156], [72.6225051, 23.1188801], [72.6224612, 23.1185549], [72.6226501, 23.1184893], [72.6239538, 23.1184602], [72.6239265, 23.1185832], [72.6241643, 23.1191577], [72.6242142, 23.1193179], [72.6243045, 23.1198272], [72.6243933, 23.1204234], [72.624265, 23.1207259], [72.6241831, 23.1208778], [72.6241421, 23.1210033], [72.624108, 23.1211539], [72.623936, 23.1211301], [72.623674, 23.1209669], [72.6233751, 23.1206343], [72.6230926, 23.1206104], [72.6230939, 23.1204887], [72.6223351, 23.1204397], [72.6223021, 23.1190149]]}}, {"type": "Feature", "properties": {"osm_id": 551912363, "osm_type": "way", "name": "Parshwanath Divine", "landuse": "residential"}, "geometry": {"type": "LineString", "coordinates": [[72.622509, 23.1190156], [72.6206192, 23.1189968], [72.620509, 23.1188043], [72.6204579, 23.1186175], [72.6204033, 23.11827], [72.6204377, 23.1180055], [72.6205839, 23.1177094], [72.6208963, 23.1176733], [72.6209914, 23.1176886], [72.622291, 23.1177411], [72.6224612, 23.1185549], [72.6225051, 23.1188801], [72.622509, 23.1190156]]}}, {"type": "Feature", "properties": {"osm_id": 554794122, "osm_type": "way", "name": "Krushnakunj complex", "landuse": "residential"}, "geometry": {"type": "LineString", "coordinates": [[72.6347542, 23.1851808], [72.6352689, 23.1852178], [72.635077, 23.1834489], [72.6349014, 23.183468], [72.63501, 23.1844565], [72.6348538, 23.1844509], [72.6348169, 23.184697], [72.6347953, 23.1848865], [72.6347542, 23.1851808]]}}, {"type": "Feature", "properties": {"osm_id": 692144297, "osm_type": "way", "name": "Kanam Residency 1", "landuse": "residential"}, "geometry": {"type": "LineString", "coordinates": [[72.6300749, 23.1809373], [72.6305683, 23.1809819], [72.6307581, 23.1794294], [72.6302109, 23.1793801], [72.6300749, 23.1809373]]}}, {"type": "Feature", "properties": {"osm_id": 693880238, "osm_type": "way", "name": "Shree Range Entire Society", "landuse": "residential"}, "geometry": {"type": "LineString", "coordinates": [[72.649561, 23.1662284], [72.6496949, 23.1662289], [72.6497707, 23.1662304], [72.6498861, 23.1662321], [72.6499921, 23.1662326], [72.6500827, 23.1662355], [72.6501968, 23.1662358], [72.6502105, 23.1662361], [72.6503762, 23.1662391], [72.6511383, 23.1662531], [72.6511336, 23.1661721], [72.6511302, 23.166114], [72.6511292, 23.1660966], [72.6511253, 23.1660292], [72.6511163, 23.1658747], [72.651108, 23.1657507], [72.6511074, 23.1657507], [72.6510385, 23.1657469], [72.6509644, 23.1657497], [72.6509333, 23.1657494], [72.6508679, 23.1657489], [72.6507971, 23.1657483], [72.6507733, 23.1657481], [72.6507068, 23.1657475], [72.6506368, 23.1657469], [72.6505925, 23.1657466], [72.6505259, 23.165746], [72.6504547, 23.1657454], [72.6504267, 23.1657452], [72.6503589, 23.1657446], [72.6502947, 23.1657441], [72.6502632, 23.1657438], [72.6501954, 23.1657432], [72.6501266, 23.1657427], [72.6500834, 23.1657423], [72.6500157, 23.1657417], [72.6499479, 23.1657412], [72.6499234, 23.165741], [72.6498487, 23.1657403], [72.6497834, 23.1657398], [72.6495599, 23.1657379], [72.6495605, 23.165936], [72.6495608, 23.1660031], [72.6495607, 23.1660651], [72.6495614, 23.1660921], [72.6495614, 23.166153], [72.649561, 23.1662284]]}}, {"type": "Feature", "properties": {"osm_id": 693886085, "osm_type": "way", "name": "Jainam Bunglows", "landuse": "residential"}, "geometry": {"type": "LineString", "coordinates": [[72.6502734, 23.163547], [72.6508813, 23.1635474], [72.6508116, 23.1627558], [72.6502362, 23.1627968], [72.6502734, 23.163547]]}}, {"type": "Feature", "properties": {"osm_id": 693886086, "osm_type": "way", "name": "Swarnim Bunglows", "landuse": "residential"}, "geometry": {"type": "LineString", "coordinates": [[72.6504227, 23.1649851], [72.6510315, 23.1649653], [72.6509564, 23.1642231], [72.6509042, 23.164214], [72.650388, 23.1642303], [72.6504058, 23.1646184], [72.6504227, 23.1649851]]}}, {"type": "Feature", "properties": {"osm_id": 693886088, "osm_type": "way", "name": "GUDA Apartment", "landuse": "residential"}, "geometry": {"type": "LineString", "coordinates": [[72.6511929, 23.1655504], [72.6512373, 23.1665369], [72.653338, 23.1665348], [72.653298, 23.1662176], [72.6528543, 23.1661921], [72.6520902, 23.1660391], [72.6518748, 23.165911], [72.6511929, 23.1655504]]}}, {"type": "Feature", "properties": {"osm_id": 693901596, "osm_type": "way", "name": "Swagat Afford", "landuse": "residential"}, "geometry": {"type": "LineString", "coordinates": [[72.6214827, 23.1920975], [72.6208867, 23.1918567], [72.6204805, 23.1916876], [72.6212168, 23.1899947], [72.621671, 23.190168], [72.6216698, 23.1902774], [72.6214827, 23.1920975]]}}, {"type": "Feature", "properties": {"osm_id": 693906120, "osm_type": "way", "name": "Kanam Residecy 2", "landuse": "residential"}, "geometry": {"type": "LineString", "coordinates": [[72.6296227, 23.1811119], [72.6296536, 23.1809061], [72.6297068, 23.1800376], [72.6289906, 23.1799768], [72.6290271, 23.1802538], [72.6290635, 23.1805295], [72.6290969, 23.1808051], [72.6291411, 23.1810779], [72.6296227, 23.1811119]]}}, {"type": "Feature", "properties": {"osm_id": 694241016, "osm_type": "way", "name": "Vrundavan Bunglows", "landuse": "residential"}, "geometry": {"type": "LineString", "coordinates": [[72.6488359, 23.1650177], [72.6496388, 23.1650033], [72.6496287, 23.164478], [72.6488592, 23.164481], [72.6488359, 23.1650177]]}}, {"type": "Feature", "properties": {"osm_id": 694478093, "osm_type": "way", "name": "GUDA Apartment", "landuse": "residential"}, "geometry": {"type": "LineString", "coordinates": [[72.6511074, 23.1657507], [72.6498487, 23.1657403], [72.6498607, 23.1650759], [72.6510844, 23.1650505], [72.6511074, 23.1657507]]}}, {"type": "Feature", "properties": {"osm_id": 761459674, "osm_type": "way", "name": "Raysan", "landuse": "residential"}, "geometry": {"type": "LineString", "coordinates": [[72.6595741, 23.1671807], [72.6596652, 23.1674143], [72.659881, 23.1676435], [72.6603269, 23.1682563], [72.6605619, 23.1681549], [72.6607872, 23.1684723], [72.6613674, 23.1679697], [72.6612955, 23.1676832], [72.6616886, 23.1673129], [72.6616503, 23.166925], [72.6619188, 23.1668104], [72.6625373, 23.1663123], [72.6622108, 23.1659975], [72.6620435, 23.1658362], [72.6613434, 23.1659596], [72.6611564, 23.1656995], [72.6609311, 23.1657789], [72.6607489, 23.1654791], [72.6594543, 23.1658229], [72.6586295, 23.1661403], [72.6584425, 23.166255], [72.6585336, 23.1672292], [72.6595837, 23.1669382], [72.6595741, 23.1671807]]}}, {"type": "Feature", "properties": {"osm_id": 761459675, "osm_type": "way", "name": "Radesan", "landuse": "residential"}, "geometry": {"type": "LineString", "coordinates": [[72.6533008, 23.1761247], [72.6535214, 23.1754856], [72.6543748, 23.1756663], [72.6552475, 23.175274], [72.6552379, 23.17508], [72.655751, 23.1750315], [72.6560866, 23.1752035], [72.6563359, 23.1752035], [72.6563551, 23.1758867], [72.6558517, 23.1761071], [72.6553674, 23.1761776], [72.6550461, 23.1761688], [72.6550461, 23.1763583], [72.6554537, 23.1763804], [72.6555256, 23.1765831], [72.6554441, 23.1768476], [72.6549263, 23.1767859], [72.6546338, 23.1768212], [72.6541303, 23.1768873], [72.6539002, 23.1770019], [72.6537611, 23.1771209], [72.6536748, 23.1772708], [72.6533727, 23.1772708], [72.6534446, 23.1768785], [72.6535933, 23.1768873], [72.6537515, 23.1762569], [72.6533008, 23.1761247]]}}, {"type": "Feature", "properties": {"osm_id": 798332274, "osm_type": "way", "name": "Suyash Status", "landuse": "residential"}, "geometry": {"type": "LineString", "coordinates": [[72.6412649, 23.1755177], [72.6412137, 23.174666], [72.6420549, 23.1746556], [72.6421001, 23.1755793], [72.6417264, 23.1755551], [72.6412649, 23.1755177]]}}, {"type": "Feature", "properties": {"osm_id": 798335668, "osm_type": "way", "name": "BAPS Swaminarayan Vidyamandir Raysan", "landuse": "residential"}, "geometry": {"type": "LineString", "coordinates": [[72.6438995, 23.1744959], [72.6458666, 23.1740337], [72.6460493, 23.1714084], [72.6454723, 23.1711659], [72.6463696, 23.1671607], [72.6446358, 23.1671653], [72.6445685, 23.168783], [72.6436455, 23.1688979], [72.6437268, 23.1724832], [72.6435533, 23.17248], [72.6435939, 23.173274], [72.6438857, 23.1732805], [72.6438995, 23.1744959]]}}, {"type": "Feature", "properties": {"osm_id": 922315021, "osm_type": "way", "name": "Sobha Dream Heritage", "landuse": "residential"}, "geometry": {"type": "LineString", "coordinates": [[72.6961881, 23.1616608], [72.6961738, 23.1615665], [72.6961196, 23.1612085], [72.6961143, 23.1611738], [72.6960007, 23.161203], [72.6958435, 23.1611966], [72.6956512, 23.1611243], [72.6944365, 23.1603917], [72.694326, 23.1602553], [72.6943975, 23.1608435], [72.6941795, 23.161146], [72.6942949, 23.1618808], [72.6961881, 23.1616608]]}}, {"type": "Feature", "properties": {"osm_id": 62531510, "osm_type": "way", "name": "Sector 4", "landuse": "residential"}, "geometry": {"type": "LineString", "coordinates": [[72.6175349, 23.207104], [72.6174353, 23.2071709], [72.6174069, 23.2072595], [72.617429, 23.2073902], [72.6224313, 23.2152306], [72.6288361, 23.2118154], [72.6238422, 23.2037901], [72.6175854, 23.2070779], [72.6175349, 23.207104]]}}, {"type": "Feature", "properties": {"osm_id": 693902518, "osm_type": "way", "name": "Shalin-3", "landuse": "residential"}, "geometry": {"type": "LineString", "coordinates": [[72.6184084, 23.2279152], [72.619068, 23.2279723], [72.6191112, 23.227714], [72.6189842, 23.227637], [72.6189788, 23.2269787], [72.6184462, 23.2267675], [72.6182597, 23.2267054], [72.6181489, 23.2266955], [72.6183597, 23.2276792], [72.6184084, 23.2279152]]}}, {"type": "Feature", "properties": {"osm_id": 693902519, "osm_type": "way", "name": "Tulsi Bunglows", "landuse": "residential"}, "geometry": {"type": "LineString", "coordinates": [[72.6165723, 23.229814], [72.616948, 23.2297284], [72.6164294, 23.2288238], [72.6162959, 23.2288837], [72.6161748, 23.2286697], [72.6155848, 23.2289722], [72.6160506, 23.2297455], [72.6164232, 23.2295457], [72.6165723, 23.229814]]}}, {"type": "Feature", "properties": {"osm_id": 13764283849, "osm_type": "node", "name": "Bansari Greencity 1", "landuse": "residential"}, "geometry": {"type": "Point", "coordinates": [72.6433813, 23.2661166]}}, {"type": "Feature", "properties": {"osm_id": 13764283850, "osm_type": "node", "name": "Bansari Greencity 2", "landuse": "residential"}, "geometry": {"type": "Point", "coordinates": [72.6440966, 23.2665874]}}, {"type": "Feature", "properties": {"osm_id": 326055812, "osm_type": "way", "name": "GEB Colony", "landuse": "residential"}, "geometry": {"type": "LineString", "coordinates": [[72.6695425, 23.2557764], [72.6701524, 23.2589212], [72.6724048, 23.2589483], [72.6734278, 23.2592375], [72.6738704, 23.2591833], [72.6739196, 23.2586591], [72.6746868, 23.258623], [72.675395, 23.2581711], [72.6768606, 23.2582163], [72.6767328, 23.2560927], [72.6760639, 23.2556408], [72.6760737, 23.2546829], [72.6695425, 23.2557764]]}}, {"type": "Feature", "properties": {"osm_id": 678188813, "osm_type": "way", "name": "Housing Block", "landuse": "residential"}, "geometry": {"type": "LineString", "coordinates": [[72.6893052, 23.2109045], [72.6902101, 23.2103655], [72.6883868, 23.2078066], [72.6872609, 23.2060119], [72.6862303, 23.2066272], [72.6879856, 23.209108], [72.6893052, 23.2109045]]}}, {"type": "Feature", "properties": {"osm_id": 1281184385, "osm_type": "way", "name": "Staff Quater", "landuse": "residential"}, "geometry": {"type": "LineString", "coordinates": [[72.6851733, 23.206786], [72.6851862, 23.2067782], [72.6852113, 23.2068133], [72.6851929, 23.2068244], [72.6852298, 23.206876], [72.6852518, 23.2068627], [72.6852653, 23.2068816], [72.6852235, 23.2069069], [72.6852325, 23.2069196], [72.6852184, 23.2069281], [72.6852628, 23.2069903], [72.6853001, 23.2069678], [72.6852915, 23.2069558], [72.6853295, 23.2069329], [72.6853327, 23.2069507], [72.6853962, 23.2069228], [72.6853798, 23.2068913], [72.6854243, 23.2068718], [72.6854319, 23.2068865], [72.6854951, 23.2068587], [72.6854829, 23.2068353], [72.6855301, 23.2068146], [72.6855301, 23.2068363], [72.6855969, 23.2067959], [72.6855862, 23.2067808], [72.6856008, 23.206772], [72.6855219, 23.2066616], [72.6855027, 23.2066732], [72.6854921, 23.2066583], [72.6854419, 23.2066886], [72.6854591, 23.2067126], [72.6854372, 23.2067258], [72.685468, 23.2067689], [72.6853898, 23.206816], [72.6853404, 23.2067468], [72.6853, 23.2067712], [72.6852514, 23.2067031], [72.6852717, 23.2066908], [72.685283, 23.2067067], [72.6853708, 23.206654], [72.6853611, 23.2066402], [72.6853744, 23.2066323], [72.6853822, 23.2066433], [72.6854599, 23.2065972], [72.6854515, 23.2065851], [72.6854701, 23.2065741], [72.6854361, 23.2065254], [72.6855076, 23.2064833], [72.6854893, 23.2064714], [72.6854138, 23.2065136], [72.6853788, 23.2064606], [72.6853574, 23.2064665], [72.6853454, 23.2064496], [72.6852731, 23.2064926], [72.6852911, 23.2065181], [72.685261, 23.206536], [72.6852506, 23.2065213], [72.6852034, 23.2065495], [72.6852215, 23.2065751], [72.6851637, 23.2066096], [72.6851516, 23.2065925], [72.685116, 23.2066139], [72.6851279, 23.2066307], [72.6851132, 23.2066395], [72.6851613, 23.2067069], [72.6851302, 23.2067257], [72.6851733, 23.206786]]}}, {"type": "Feature", "properties": {"osm_id": 1281184386, "osm_type": "way", "name": "Staff Quater", "landuse": "residential"}, "geometry": {"type": "LineString", "coordinates": [[72.6849965, 23.2063062], [72.6849563, 23.2063312], [72.6849992, 23.2063895], [72.6850214, 23.2063544], [72.6850318, 23.2063707], [72.6851258, 23.2063199], [72.685092, 23.2062671], [72.6851022, 23.2062616], [72.6851291, 23.2063042], [72.6852223, 23.2062546], [72.6852179, 23.2062476], [72.6852474, 23.2062323], [72.6852036, 23.2061607], [72.6853084, 23.2061067], [72.6853443, 23.2061658], [72.6853684, 23.2061535], [72.6853751, 23.2061647], [72.6854447, 23.2061296], [72.685436, 23.2061149], [72.6854591, 23.2061033], [72.6854267, 23.2060483], [72.6854548, 23.2060344], [72.6854964, 23.2061051], [72.6855944, 23.2060565], [72.6855612, 23.206027], [72.6855764, 23.2060179], [72.6854822, 23.2058851], [72.6854567, 23.2059004], [72.6854321, 23.2058657], [72.6854089, 23.2058796], [72.6854354, 23.205917], [72.6853984, 23.2059391], [72.6853874, 23.2059236], [72.6853127, 23.2059684], [72.6853568, 23.2060305], [72.6853401, 23.2060405], [72.6853006, 23.205985], [72.6852154, 23.2060363], [72.6852276, 23.2060534], [72.68517, 23.2060881], [72.6851538, 23.2060654], [72.6850714, 23.2061149], [72.6851144, 23.2061754], [72.6850904, 23.2061898], [72.6850534, 23.2061378], [72.6849758, 23.2061845], [72.684998, 23.2062015], [72.6849362, 23.2062398], [72.6849064, 23.2061994], [72.6849356, 23.2061813], [72.6849136, 23.2061513], [72.6848477, 23.2061923], [72.684935, 23.2063111], [72.6849797, 23.2062833], [72.6849965, 23.2063062]]}}, {"type": "Feature", "properties": {"osm_id": 1333460314, "osm_type": "way", "name": "Panchsheel Park", "landuse": "residential"}, "geometry": {"type": "LineString", "coordinates": [[72.6642916, 23.2369848], [72.6662463, 23.2359419], [72.6656017, 23.2349085], [72.6657434, 23.2346289], [72.6633173, 23.2332993], [72.6630421, 23.2339488], [72.6621941, 23.2343892], [72.6619958, 23.2344917], [72.6621888, 23.2348011], [72.6633011, 23.2365744], [72.6634958, 23.2364662], [72.6637889, 23.2369127], [72.6639603, 23.2371643], [72.6642916, 23.2369848]]}}, {"type": "Feature", "properties": {"osm_id": 1504111199, "osm_type": "way", "name": "Bansari Greencity", "landuse": "residential"}, "geometry": {"type": "LineString", "coordinates": [[72.6429734, 23.265838], [72.6429145, 23.2662568], [72.6438238, 23.2663893], [72.6437272, 23.2667774], [72.6444855, 23.2669285], [72.6445821, 23.2665513], [72.6439318, 23.2661382], [72.6436235, 23.2659893], [72.6433173, 23.265865], [72.6429734, 23.265838]]}}, {"type": "Feature", "properties": {"osm_id": 1504115136, "osm_type": "way", "name": "Tilak", "landuse": "residential"}, "geometry": {"type": "LineString", "coordinates": [[72.6445173, 23.2669262], [72.6446089, 23.2665868], [72.6450581, 23.2669464], [72.6448893, 23.2671856], [72.6445173, 23.2669262]]}}]}