{"type": "FeatureCollection", "features": [{"type": "Feature", "properties": {"osm_id": 3775187616, "osm_type": "node", "name": "CHANDLODIA MARKET", "amenity": "marketplace"}, "geometry": {"type": "Point", "coordinates": [72.5415308, 23.0891843]}}, {"type": "Feature", "properties": {"osm_id": 8138856440, "osm_type": "node", "name": "4D Square mall.", "shop": "mall"}, "geometry": {"type": "Point", "coordinates": [72.5957915, 23.1029944]}}, {"type": "Feature", "properties": {"osm_id": 454888532, "osm_type": "way", "name": "Shoppers’ Plaza", "shop": "mall", "building": "retail"}, "geometry": {"type": "LineString", "coordinates": [[72.5389431, 23.1639494], [72.5395364, 23.1643141], [72.5397777, 23.1639823], [72.5396602, 23.1639101], [72.5395241, 23.1640972], [72.5391735, 23.1638921], [72.5393174, 23.1636919], [72.5391874, 23.1636135], [72.5389431, 23.1639494]]}}, {"type": "Feature", "properties": {"osm_id": 1104384659, "osm_type": "way", "name": "Swagat Mall", "shop": "mall", "building": "yes"}, "geometry": {"type": "LineString", "coordinates": [[72.5872136, 23.160404], [72.587274, 23.1600529], [72.5875353, 23.1601021], [72.5874817, 23.1604574], [72.5872136, 23.160404]]}}, {"type": "Feature", "properties": {"osm_id": 1180003746, "osm_type": "way", "name": "Aradhna Clothing", "shop": "mall", "building": "yes"}, "geometry": {"type": "LineString", "coordinates": [[72.5814402, 23.1085926], [72.5814165, 23.1084975], [72.5815204, 23.1084673], [72.5815521, 23.1086055], [72.5814402, 23.1085926]]}}, {"type": "Feature", "properties": {"osm_id": 1180014250, "osm_type": "way", "name": "", "shop": "mall", "building": "retail"}, "geometry": {"type": "LineString", "coordinates": [[72.5950767, 23.1026354], [72.5955848, 23.1023672], [72.5964356, 23.1035571], [72.5961466, 23.10369], [72.5955794, 23.1032549], [72.5954591, 23.1030504], [72.5952526, 23.1029823], [72.5950892, 23.1027518], [72.5950767, 23.1026354]]}}, {"type": "Feature", "properties": {"osm_id": 369657149, "osm_type": "way", "name": "Agora Mall", "shop": "mall", "building": "retail"}, "geometry": {"type": "LineString", "coordinates": [[72.6242263, 23.1190395], [72.6249665, 23.1189544], [72.624958, 23.1188913], [72.6250998, 23.118875], [72.6249832, 23.1180175], [72.6242899, 23.1180867], [72.6242955, 23.1181798], [72.6242042, 23.1182894], [72.6241255, 23.1182985], [72.6242263, 23.1190395]]}}, {"type": "Feature", "properties": {"osm_id": 401950864, "osm_type": "way", "name": "", "shop": "mall", "building": "retail"}, "geometry": {"type": "LineString", "coordinates": [[72.6352384, 23.1933037], [72.6358892, 23.1932446], [72.6358788, 23.1931477], [72.6359258, 23.1931435], [72.635911, 23.1930061], [72.6358593, 23.1929951], [72.6358498, 23.1929065], [72.6352171, 23.192964], [72.6352313, 23.193096], [72.635151, 23.1931033], [72.6351639, 23.1932228], [72.6352291, 23.1932168], [72.6352384, 23.1933037]]}}, {"type": "Feature", "properties": {"osm_id": 401950865, "osm_type": "way", "name": "", "shop": "mall", "building": "retail"}, "geometry": {"type": "LineString", "coordinates": [[72.6361333, 23.1931274], [72.636184, 23.1931243], [72.636189, 23.1931923], [72.6368846, 23.1931491], [72.636862, 23.1928425], [72.6367521, 23.1928493], [72.6367481, 23.1927948], [72.6362475, 23.1928258], [72.6362564, 23.1929459], [72.6361718, 23.1929511], [72.6361769, 23.1930215], [72.6361257, 23.1930247], [72.6361333, 23.1931274]]}}, {"type": "Feature", "properties": {"osm_id": 401951034, "osm_type": "way", "name": "", "shop": "mall", "building": "retail"}, "geometry": {"type": "LineString", "coordinates": [[72.6291023, 23.1845792], [72.6292938, 23.1845547], [72.6292736, 23.1844213], [72.6291905, 23.1844319], [72.629184, 23.1843888], [72.6292733, 23.1843774], [72.6292357, 23.1841289], [72.6291461, 23.1841404], [72.6291419, 23.1841123], [72.6292409, 23.1840997], [72.6292009, 23.1838348], [72.6291363, 23.1838431], [72.6291305, 23.1838043], [72.6291825, 23.1837977], [72.6291051, 23.1832863], [72.6289104, 23.1833112], [72.6291023, 23.1845792]]}}, {"type": "Feature", "properties": {"osm_id": 1337372835, "osm_type": "way", "name": "Sector 21 Market", "amenity": "marketplace", "building": "warehouse"}, "geometry": {"type": "LineString", "coordinates": [[72.6672574, 23.231357], [72.6668774, 23.2307409], [72.6664963, 23.2309394], [72.6666473, 23.2311842], [72.6664333, 23.2312957], [72.6666623, 23.231667], [72.6672574, 23.231357]]}}, {"type": "Feature", "properties": {"osm_id": 2211695012, "osm_type": "node", "name": "Shree Aaiji Super Market", "shop": "supermarket"}, "geometry": {"type": "Point", "coordinates": [72.5646439, 23.0856343]}}, {"type": "Feature", "properties": {"osm_id": 2211707797, "osm_type": "node", "name": "Samruddhi Jwellers", "shop": "jewelry"}, "geometry": {"type": "Point", "coordinates": [72.5646659, 23.0849901]}}, {"type": "Feature", "properties": {"osm_id": 3500454470, "osm_type": "node", "name": "", "shop": "supermarket"}, "geometry": {"type": "Point", "coordinates": [72.5914619, 23.0843928]}}, {"type": "Feature", "properties": {"osm_id": 4337979891, "osm_type": "node", "name": "Maheshwari kirana and parlour", "shop": "supermarket"}, "geometry": {"type": "Point", "coordinates": [72.6169583, 23.1972877]}}, {"type": "Feature", "properties": {"osm_id": 4423366689, "osm_type": "node", "name": "Jain Nagar", "shop": "wine"}, "geometry": {"type": "Point", "coordinates": [72.5844263, 23.0886047]}}, {"type": "Feature", "properties": {"osm_id": 4810668977, "osm_type": "node", "name": "Amba Cash N Carry", "shop": "supermarket"}, "geometry": {"type": "Point", "coordinates": [72.5737904, 23.1876995]}}, {"type": "Feature", "properties": {"osm_id": 6113414383, "osm_type": "node", "name": "B-Mart Supermarket", "shop": "supermarket"}, "geometry": {"type": "Point", "coordinates": [72.6136546, 23.1925439]}}, {"type": "Feature", "properties": {"osm_id": 6668029662, "osm_type": "node", "name": "AMUL store", "shop": "yes"}, "geometry": {"type": "Point", "coordinates": [72.5392037, 23.1262799]}}, {"type": "Feature", "properties": {"osm_id": 7554841091, "osm_type": "node", "name": "Hind Store", "shop": "supermarket"}, "geometry": {"type": "Point", "coordinates": [72.5555815, 23.1135557]}}, {"type": "Feature", "properties": {"osm_id": 8138924274, "osm_type": "node", "name": "Monte Carlo Exclusive Showroom", "shop": "clothes"}, "geometry": {"type": "Point", "coordinates": [72.5951743, 23.1028203]}}, {"type": "Feature", "properties": {"osm_id": 9316233977, "osm_type": "node", "name": "", "shop": "convenience"}, "geometry": {"type": "Point", "coordinates": [72.5750767, 23.1766106]}}, {"type": "Feature", "properties": {"osm_id": 9316233978, "osm_type": "node", "name": "", "shop": "laundry"}, "geometry": {"type": "Point", "coordinates": [72.5753865, 23.1760274]}}, {"type": "Feature", "properties": {"osm_id": 9316233979, "osm_type": "node", "name": "", "shop": "convenience"}, "geometry": {"type": "Point", "coordinates": [72.5797518, 23.188413]}}, {"type": "Feature", "properties": {"osm_id": 10959583957, "osm_type": "node", "name": "Bharat Bakery", "shop": "bakery"}, "geometry": {"type": "Point", "coordinates": [72.5823813, 23.1082895]}}, {"type": "Feature", "properties": {"osm_id": 10959599250, "osm_type": "node", "name": "Hello Stationary services", "shop": "stationery"}, "geometry": {"type": "Point", "coordinates": [72.5827474, 23.108341]}}, {"type": "Feature", "properties": {"osm_id": 10959625993, "osm_type": "node", "name": "Hira Misthan", "shop": "confectionery"}, "geometry": {"type": "Point", "coordinates": [72.5846468, 23.1078617]}}, {"type": "Feature", "properties": {"osm_id": 10959647097, "osm_type": "node", "name": "Magson Fresh and Frozen", "shop": "confectionery"}, "geometry": {"type": "Point", "coordinates": [72.5914101, 23.1094665]}}, {"type": "Feature", "properties": {"osm_id": 10959671657, "osm_type": "node", "name": "My Stationaries", "shop": "stationery"}, "geometry": {"type": "Point", "coordinates": [72.5938955, 23.1095409]}}, {"type": "Feature", "properties": {"osm_id": 10959671668, "osm_type": "node", "name": "Jalandhar Sports", "shop": "yes"}, "geometry": {"type": "Point", "coordinates": [72.5953445, 23.1088755]}}, {"type": "Feature", "properties": {"osm_id": 10959675371, "osm_type": "node", "name": "United Colors Of Benetton", "shop": "clothes"}, "geometry": {"type": "Point", "coordinates": [72.5954156, 23.1028912]}}, {"type": "Feature", "properties": {"osm_id": 10959710275, "osm_type": "node", "name": "Titan World", "shop": "watches"}, "geometry": {"type": "Point", "coordinates": [72.5956392, 23.1032208]}}, {"type": "Feature", "properties": {"osm_id": 10959743712, "osm_type": "node", "name": "Will's Lifestyle.", "shop": "clothes"}, "geometry": {"type": "Point", "coordinates": [72.5956096, 23.1030052]}}, {"type": "Feature", "properties": {"osm_id": 10959748667, "osm_type": "node", "name": "Zudio-North Plaza Motera", "shop": "yes"}, "geometry": {"type": "Point", "coordinates": [72.5942029, 23.1020396]}}, {"type": "Feature", "properties": {"osm_id": 10959755469, "osm_type": "node", "name": "Go Colors Clothing", "shop": "yes"}, "geometry": {"type": "Point", "coordinates": [72.5946267, 23.1023326]}}, {"type": "Feature", "properties": {"osm_id": 10959757849, "osm_type": "node", "name": "Puma", "shop": "yes"}, "geometry": {"type": "Point", "coordinates": [72.5955664, 23.1031162]}}, {"type": "Feature", "properties": {"osm_id": 10959757850, "osm_type": "node", "name": "Bata Store", "shop": "yes"}, "geometry": {"type": "Point", "coordinates": [72.5957005, 23.1027979]}}, {"type": "Feature", "properties": {"osm_id": 10959757851, "osm_type": "node", "name": "Arrow Clothing Store", "shop": "yes"}, "geometry": {"type": "Point", "coordinates": [72.595789, 23.1029015]}}, {"type": "Feature", "properties": {"osm_id": 11278874172, "osm_type": "node", "name": "Permit Shop", "shop": "alcohol"}, "geometry": {"type": "Point", "coordinates": [72.6166076, 23.0826062]}}, {"type": "Feature", "properties": {"osm_id": 11966336269, "osm_type": "node", "name": "Farm Fresh Organic", "shop": "grocery"}, "geometry": {"type": "Point", "coordinates": [72.5749737, 23.1876906]}}, {"type": "Feature", "properties": {"osm_id": 12612453818, "osm_type": "node", "name": "Plant zone Nursery & Farm", "shop": "garden_centre"}, "geometry": {"type": "Point", "coordinates": [72.6172259, 23.117548]}}, {"type": "Feature", "properties": {"osm_id": 12612477935, "osm_type": "node", "name": "Dharti Horticulture Nursery & Farm", "shop": "garden_centre"}, "geometry": {"type": "Point", "coordinates": [72.5318893, 23.1360644]}}, {"type": "Feature", "properties": {"osm_id": 12612477936, "osm_type": "node", "name": "Maurya Nursery", "shop": "garden_centre"}, "geometry": {"type": "Point", "coordinates": [72.5872655, 23.113362]}}, {"type": "Feature", "properties": {"osm_id": 12612477937, "osm_type": "node", "name": "Gauri Plants Nursery Farm", "shop": "garden_centre"}, "geometry": {"type": "Point", "coordinates": [72.5660508, 23.1336148]}}, {"type": "Feature", "properties": {"osm_id": 13911496602, "osm_type": "node", "name": "KB ROYAL", "shop": "stationery"}, "geometry": {"type": "Point", "coordinates": [72.5717867, 23.120525]}}, {"type": "Feature", "properties": {"osm_id": 13911502301, "osm_type": "node", "name": "OWND", "shop": "clothes"}, "geometry": {"type": "Point", "coordinates": [72.5674778, 23.1197257]}}, {"type": "Feature", "properties": {"osm_id": 581759129, "osm_type": "way", "name": "", "shop": "books", "building": "yes"}, "geometry": {"type": "LineString", "coordinates": [[72.5724057, 23.178135], [72.5725613, 23.1780426], [72.572513, 23.1779735], [72.5723561, 23.178061], [72.5724057, 23.178135]]}}, {"type": "Feature", "properties": {"osm_id": 764490978, "osm_type": "way", "name": "DAIRY RICH ICE CREAM", "shop": "dairy", "building": "commercial"}, "geometry": {"type": "LineString", "coordinates": [[72.5405519, 23.0927472], [72.540652, 23.0927394], [72.5406342, 23.0925465], [72.5405341, 23.0925543], [72.5405519, 23.0927472]]}}, {"type": "Feature", "properties": {"osm_id": 1180004499, "osm_type": "way", "name": "Hello Stationary services", "shop": "stationery", "building": "yes"}, "geometry": {"type": "LineString", "coordinates": [[72.5827215, 23.1083866], [72.5827043, 23.1083173], [72.5827861, 23.1082955], [72.5827926, 23.1083727], [72.5827215, 23.1083866]]}}, {"type": "Feature", "properties": {"osm_id": 1180004827, "osm_type": "way", "name": "", "shop": "bakery", "building": "yes"}, "geometry": {"type": "LineString", "coordinates": [[72.5823403, 23.1083529], [72.5823188, 23.1082578], [72.5824071, 23.1082262], [72.5824373, 23.1083252], [72.5823403, 23.1083529]]}}, {"type": "Feature", "properties": {"osm_id": 1180005661, "osm_type": "way", "name": "", "shop": "confectionery", "building": "yes"}, "geometry": {"type": "LineString", "coordinates": [[72.5845994, 23.107933], [72.5845714, 23.1078181], [72.584692, 23.1077884], [72.5847221, 23.1078875], [72.5845994, 23.107933]]}}, {"type": "Feature", "properties": {"osm_id": 1180008371, "osm_type": "way", "name": "", "shop": "confectionery", "building": "yes"}, "geometry": {"type": "LineString", "coordinates": [[72.5912691, 23.1093731], [72.5915552, 23.1093788], [72.5915552, 23.1095485], [72.5912753, 23.109558], [72.5912691, 23.1093731]]}}, {"type": "Feature", "properties": {"osm_id": 1202579571, "osm_type": "way", "name": "", "shop": "laundry", "building": "yes"}, "geometry": {"type": "LineString", "coordinates": [[72.6143633, 23.1251572], [72.6143554, 23.1251195], [72.6143509, 23.1250981], [72.6144158, 23.1250865], [72.6144283, 23.1251457], [72.6143633, 23.1251572]]}}, {"type": "Feature", "properties": {"osm_id": 1289613623, "osm_type": "way", "name": "", "shop": "car_repair", "building": "retail"}, "geometry": {"type": "LineString", "coordinates": [[72.593304, 23.0827019], [72.593428, 23.0827271], [72.5934958, 23.0824452], [72.5933966, 23.082425], [72.5933879, 23.0824613], [72.5933625, 23.0824561], [72.5933503, 23.0825068], [72.5933923, 23.0825154], [72.5933621, 23.0826409], [72.5933206, 23.0826325], [72.593304, 23.0827019]]}}, {"type": "Feature", "properties": {"osm_id": 1241884694, "osm_type": "node", "name": "Bike Auto Care products", "shop": "doityourself"}, "geometry": {"type": "Point", "coordinates": [72.6346938, 23.1959555]}}, {"type": "Feature", "properties": {"osm_id": 1691619605, "osm_type": "node", "name": "Gujraj International Finance tea center", "shop": "garden_centre"}, "geometry": {"type": "Point", "coordinates": [72.691482, 23.1505901]}}, {"type": "Feature", "properties": {"osm_id": 4404465899, "osm_type": "node", "name": "Jagdamba Sales Corporation", "shop": "electronics"}, "geometry": {"type": "Point", "coordinates": [72.6301401, 23.0857612]}}, {"type": "Feature", "properties": {"osm_id": 4447208789, "osm_type": "node", "name": "Amul Dairy", "shop": "bakery"}, "geometry": {"type": "Point", "coordinates": [72.6288132, 23.0971579]}}, {"type": "Feature", "properties": {"osm_id": 9337509404, "osm_type": "node", "name": "White House-The Kitchen Store", "shop": "yes"}, "geometry": {"type": "Point", "coordinates": [72.6368721, 23.178689]}}, {"type": "Feature", "properties": {"osm_id": 10223459792, "osm_type": "node", "name": "Capital Security System", "shop": "electronics"}, "geometry": {"type": "Point", "coordinates": [72.6831131, 23.0863499]}}, {"type": "Feature", "properties": {"osm_id": 11257230323, "osm_type": "node", "name": "Kreations Hair & Beauty Studio", "shop": "hairdresser"}, "geometry": {"type": "Point", "coordinates": [72.6300012, 23.1850039]}}, {"type": "Feature", "properties": {"osm_id": 11278863976, "osm_type": "node", "name": "Permit Shop", "shop": "alcohol"}, "geometry": {"type": "Point", "coordinates": [72.629092, 23.1121131]}}, {"type": "Feature", "properties": {"osm_id": 12381697239, "osm_type": "node", "name": "Unlock The Salon", "shop": "hairdresser"}, "geometry": {"type": "Point", "coordinates": [72.6297208, 23.1844953]}}, {"type": "Feature", "properties": {"osm_id": 12612453822, "osm_type": "node", "name": "Madhuvan Nursery", "shop": "garden_centre"}, "geometry": {"type": "Point", "coordinates": [72.6828073, 23.1299058]}}, {"type": "Feature", "properties": {"osm_id": 13806081629, "osm_type": "node", "name": "Mantra - The Luxurious Spa™ Gandhinagar", "shop": "massage"}, "geometry": {"type": "Point", "coordinates": [72.6286828, 23.1820573]}}, {"type": "Feature", "properties": {"osm_id": 1432594580, "osm_type": "way", "name": "Laxmi Bakery", "shop": "bakery"}, "geometry": {"type": "LineString", "coordinates": [[72.6266658, 23.1883283], [72.6267812, 23.1884255], [72.6267412, 23.1884625], [72.626627, 23.1883651], [72.6266658, 23.1883283]]}}, {"type": "Feature", "properties": {"osm_id": 1432594582, "osm_type": "way", "name": "Kaka's Shop", "shop": "general"}, "geometry": {"type": "LineString", "coordinates": [[72.6270292, 23.1885519], [72.6270711, 23.1885205], [72.6270361, 23.1884863], [72.6269968, 23.1885207], [72.6270292, 23.1885519]]}}, {"type": "Feature", "properties": {"osm_id": 441127236, "osm_type": "node", "name": "Laxmi Bakery", "shop": "bakery"}, "geometry": {"type": "Point", "coordinates": [72.6647593, 23.2313584]}}, {"type": "Feature", "properties": {"osm_id": 4879606323, "osm_type": "node", "name": "Electronics and Quality Development Centre", "shop": "electronics"}, "geometry": {"type": "Point", "coordinates": [72.6299698, 23.2464835]}}, {"type": "Feature", "properties": {"osm_id": 11404899069, "osm_type": "node", "name": "", "shop": "car"}, "geometry": {"type": "Point", "coordinates": [72.6549558, 23.2145364]}}, {"type": "Feature", "properties": {"osm_id": 12336252970, "osm_type": "node", "name": "Uma Tools and Traders", "shop": "hardware"}, "geometry": {"type": "Point", "coordinates": [72.6486071, 23.2436272]}}, {"type": "Feature", "properties": {"osm_id": 12336769980, "osm_type": "node", "name": "Dhanlaxmi", "shop": "hardware"}, "geometry": {"type": "Point", "coordinates": [72.6491094, 23.2433691]}}, {"type": "Feature", "properties": {"osm_id": 12353279459, "osm_type": "node", "name": "Shree Charbhuja Book Store", "shop": "stationery"}, "geometry": {"type": "Point", "coordinates": [72.6491232, 23.2444675]}}, {"type": "Feature", "properties": {"osm_id": 12383812439, "osm_type": "node", "name": "Smart Point", "shop": "supermarket"}, "geometry": {"type": "Point", "coordinates": [72.6671191, 23.2293754]}}, {"type": "Feature", "properties": {"osm_id": 12384722990, "osm_type": "node", "name": "The Raymond Shop", "shop": "clothes"}, "geometry": {"type": "Point", "coordinates": [72.6675924, 23.2306684]}}, {"type": "Feature", "properties": {"osm_id": 12682723460, "osm_type": "node", "name": "Umiya Xerox", "shop": "copyshop"}, "geometry": {"type": "Point", "coordinates": [72.6535185, 23.2291618]}}, {"type": "Feature", "properties": {"osm_id": 12726452189, "osm_type": "node", "name": "Vodafone Idea", "shop": "mobile_phone"}, "geometry": {"type": "Point", "coordinates": [72.6489572, 23.2157026]}}, {"type": "Feature", "properties": {"osm_id": 1135220068, "osm_type": "way", "name": "TeaPost", "shop": "tea", "building": "yes"}, "geometry": {"type": "LineString", "coordinates": [[72.6850201, 23.2105632], [72.68506, 23.2105633], [72.6850611, 23.2105284], [72.6850212, 23.2105291], [72.6850201, 23.2105632]]}}, {"type": "Feature", "properties": {"osm_id": 1135220069, "osm_type": "way", "name": "Atul Bakery", "shop": "bakery", "building": "yes"}, "geometry": {"type": "LineString", "coordinates": [[72.6850886, 23.2106804], [72.6851388, 23.2107161], [72.6850883, 23.2107153], [72.685033, 23.2106787], [72.6850886, 23.2106804]]}}, {"type": "Feature", "properties": {"osm_id": 1135614438, "osm_type": "way", "name": "Amul Store", "shop": "dairy", "building": "yes"}, "geometry": {"type": "LineString", "coordinates": [[72.685444, 23.2105991], [72.6854695, 23.2105722], [72.6854433, 23.2105512], [72.6854178, 23.2105781], [72.685444, 23.2105991]]}}, {"type": "Feature", "properties": {"osm_id": 1135614439, "osm_type": "way", "name": "Krupa General Store", "shop": "supermarket", "building": "yes"}, "geometry": {"type": "LineString", "coordinates": [[72.685455, 23.2105503], [72.6854816, 23.2105238], [72.6855029, 23.210542], [72.6854762, 23.2105684], [72.685455, 23.2105503]]}}]}