{"type": "FeatureCollection", "features": [{"type": "Feature", "properties": {"osm_id": 10959588191, "osm_type": "node", "name": "Devi Public park", "leisure": "park"}, "geometry": {"type": "Point", "coordinates": [72.5846963, 23.1082123]}}, {"type": "Feature", "properties": {"osm_id": 462300706, "osm_type": "way", "name": "Senior Citizen Park-AMC", "leisure": "park"}, "geometry": {"type": "LineString", "coordinates": [[72.5667016, 23.0817551], [72.5671052, 23.0816785], [72.5670467, 23.0813781], [72.5670221, 23.0813612], [72.5669953, 23.0813709], [72.5667016, 23.0817551]]}}, {"type": "Feature", "properties": {"osm_id": 462303087, "osm_type": "way", "name": "AMC-Garden", "leisure": "park"}, "geometry": {"type": "LineString", "coordinates": [[72.5621762, 23.0826201], [72.5622625, 23.0821652], [72.5624874, 23.082185], [72.5624397, 23.0825081], [72.5622486, 23.0824784], [72.5622194, 23.0826357], [72.5621762, 23.0826201]]}}, {"type": "Feature", "properties": {"osm_id": 462303433, "osm_type": "way", "name": "AMC- Garden", "leisure": "park"}, "geometry": {"type": "LineString", "coordinates": [[72.5632016, 23.081236], [72.5636015, 23.0812929], [72.5637112, 23.0806763], [72.5636847, 23.080629], [72.5636582, 23.0806136], [72.5633436, 23.0805449], [72.5632016, 23.081236]]}}, {"type": "Feature", "properties": {"osm_id": 538916426, "osm_type": "way", "name": "Botanical Garden", "leisure": "park"}, "geometry": {"type": "LineString", "coordinates": [[72.5484184, 23.1294556], [72.5484613, 23.1297245], [72.5481261, 23.129722], [72.5481207, 23.1293125], [72.5483245, 23.1293125], [72.5484184, 23.1294556]]}}, {"type": "Feature", "properties": {"osm_id": 547590911, "osm_type": "way", "name": "", "leisure": "garden"}, "geometry": {"type": "LineString", "coordinates": [[72.5454663, 23.1474429], [72.5455675, 23.1474426], [72.5456626, 23.1474104], [72.5457399, 23.1473503], [72.5457903, 23.1472695], [72.5458075, 23.1471778], [72.5457896, 23.1470861], [72.5457386, 23.1470056], [72.5456696, 23.1469508], [72.5455855, 23.1469183], [72.5454945, 23.1469113], [72.5454057, 23.1469304], [72.5453277, 23.1469739], [72.5452681, 23.1470374], [72.5452327, 23.1471147], [72.5452251, 23.1471983], [72.5452459, 23.14728], [72.5452932, 23.1473518], [72.545371, 23.1474114], [72.5454663, 23.1474429]]}}, {"type": "Feature", "properties": {"osm_id": 551631352, "osm_type": "way", "name": "", "leisure": "garden"}, "geometry": {"type": "LineString", "coordinates": [[72.6141034, 23.1189711], [72.6141061, 23.1190638], [72.6141372, 23.1191411], [72.6141962, 23.1191889], [72.6142868, 23.1192417], [72.6143607, 23.1192613], [72.6144594, 23.1192614], [72.6145652, 23.119232], [72.6146617, 23.1191855], [72.6147033, 23.1191203], [72.6147138, 23.1190577], [72.614714, 23.1189655], [72.6146811, 23.1189109], [72.6146315, 23.1188676], [72.6145106, 23.118813], [72.6144171, 23.1187993], [72.6142943, 23.1188116], [72.6141558, 23.1188907], [72.6141034, 23.1189711]]}}, {"type": "Feature", "properties": {"osm_id": 551635219, "osm_type": "way", "name": "", "leisure": "garden"}, "geometry": {"type": "LineString", "coordinates": [[72.6070608, 23.1171366], [72.607214, 23.1168571], [72.6073867, 23.1166368], [72.6075179, 23.1165217], [72.6076553, 23.116411], [72.6077745, 23.1163439], [72.6078559, 23.1163092], [72.6079039, 23.116312], [72.6079416, 23.1163199], [72.607986, 23.1163506], [72.6080371, 23.1164395], [72.6080741, 23.1164708], [72.6081446, 23.1165278], [72.6082, 23.116563], [72.6082407, 23.1166245], [72.6082486, 23.1166609], [72.6082407, 23.1167028], [72.6082158, 23.1167598], [72.6081696, 23.1168308], [72.6081051, 23.1168918], [72.6080431, 23.116946], [72.6079805, 23.116941], [72.6079203, 23.1169175], [72.6078723, 23.1168823], [72.6077909, 23.116837], [72.6077429, 23.1168208], [72.6076499, 23.1168068], [72.6075562, 23.116809], [72.6074663, 23.1168202], [72.6074043, 23.1168319], [72.6073234, 23.1168733], [72.6072402, 23.1169432], [72.6071697, 23.1170377], [72.6071387, 23.1171159], [72.6071289, 23.1171551], [72.6071113, 23.1171702], [72.60709, 23.1171679], [72.6070669, 23.1171573], [72.6070608, 23.1171366]]}}, {"type": "Feature", "properties": {"osm_id": 551635222, "osm_type": "way", "name": "", "leisure": "garden"}, "geometry": {"type": "LineString", "coordinates": [[72.6070544, 23.1176768], [72.6073006, 23.1176849], [72.6073632, 23.1176583], [72.6074562, 23.1175978], [72.6075316, 23.1175211], [72.6076391, 23.1173913], [72.6077738, 23.1172349], [72.6078605, 23.1171235], [72.6078653, 23.1170815], [72.6078436, 23.1170343], [72.6078003, 23.1170062], [72.6077466, 23.1169738], [72.6076599, 23.1169458], [72.6076014, 23.1169369], [72.6075019, 23.1169428], [72.6074386, 23.1169664], [72.6073455, 23.1170276], [72.607295, 23.1170874], [72.6072581, 23.1171626], [72.6072573, 23.1172342], [72.6072533, 23.1173197], [72.6071675, 23.1173965], [72.6070648, 23.1174872], [72.6070247, 23.1175573], [72.6070159, 23.1176133], [72.6070239, 23.1176583], [72.6070544, 23.1176768]]}}, {"type": "Feature", "properties": {"osm_id": 583408963, "osm_type": "way", "name": "", "leisure": "park"}, "geometry": {"type": "LineString", "coordinates": [[72.5744398, 23.1796134], [72.5745095, 23.179527], [72.5745974, 23.1794198], [72.5747141, 23.1785568], [72.5747263, 23.178469], [72.5747248, 23.1784225], [72.5747167, 23.178378], [72.5745732, 23.178367], [72.5745196, 23.1783398], [72.5745089, 23.1782239], [72.574478, 23.1781808], [72.5742366, 23.1781549], [72.5741374, 23.1782511], [72.5740086, 23.1787319], [72.5739067, 23.1792423], [72.5738785, 23.1794247], [72.5738511, 23.1795314], [72.5744398, 23.1796134]]}}, {"type": "Feature", "properties": {"osm_id": 583602816, "osm_type": "way", "name": "Bliss Garden", "leisure": "park"}, "geometry": {"type": "LineString", "coordinates": [[72.5727157, 23.1861096], [72.5726098, 23.1860906], [72.5724342, 23.1860142], [72.5723073, 23.1859319], [72.5722463, 23.1858924], [72.5721683, 23.1858174], [72.5726089, 23.1854826], [72.5726069, 23.1854447], [72.5725451, 23.1853198], [72.5725492, 23.1851912], [72.5725925, 23.1850795], [72.572648, 23.1849962], [72.5726357, 23.1849489], [72.5722855, 23.1845727], [72.5723617, 23.1845132], [72.5723893, 23.1844857], [72.5724169, 23.1844508], [72.5724503, 23.1844255], [72.5724848, 23.184409], [72.5725316, 23.1843986], [72.5725728, 23.1844047], [72.5726315, 23.1843867], [72.5727527, 23.1843551], [72.5728426, 23.1848518], [72.5728615, 23.1848942], [72.572923, 23.1849051], [72.5730388, 23.1849214], [72.5731784, 23.1849931], [72.5733924, 23.1850811], [72.5736137, 23.185148], [72.5736939, 23.185167], [72.5739919, 23.1851996], [72.5742981, 23.185167], [72.5743667, 23.1851453], [72.5743986, 23.1850594], [72.5744684, 23.1848616], [72.5744247, 23.1847648], [72.5743342, 23.1846112], [72.5745314, 23.1844711], [72.5746005, 23.1844318], [72.5746655, 23.1844356], [72.574883, 23.1845178], [72.5750091, 23.1846187], [72.5750843, 23.1846953], [72.5752896, 23.1848037], [72.5755172, 23.1848429], [72.5756433, 23.1848822], [72.5757815, 23.1849488], [72.5758059, 23.1849606], [72.5759848, 23.1851251], [72.5761067, 23.1853213], [72.5761663, 23.1854928], [72.5761616, 23.1856763], [72.5761332, 23.1858295], [72.5760417, 23.1860164], [72.5759197, 23.1861378], [72.57569, 23.1862836], [72.5754441, 23.1863509], [72.5752688, 23.1863484], [72.5751971, 23.1863359], [72.5750901, 23.1863172], [72.5748898, 23.1862407], [72.574859, 23.1862152], [72.5747358, 23.1861133], [72.5746125, 23.186], [72.5744462, 23.1859207], [72.5742705, 23.1858782], [72.5741899, 23.1858719], [72.5743259, 23.1854782], [72.5743322, 23.1854266], [72.5742947, 23.1853994], [72.574134, 23.185375], [72.5738937, 23.185352], [72.5736269, 23.185352], [72.5735661, 23.1853664], [72.5733945, 23.185408], [72.5732228, 23.1854825], [72.5730746, 23.1855543], [72.5729451, 23.185593], [72.5728936, 23.1855958], [72.5728312, 23.1856001], [72.5728094, 23.1856389], [72.5727157, 23.1861096]]}}, {"type": "Feature", "properties": {"osm_id": 677535842, "osm_type": "way", "name": "", "leisure": "park"}, "geometry": {"type": "LineString", "coordinates": [[72.5787801, 23.1856214], [72.5799562, 23.1854916], [72.5798817, 23.1853626], [72.5798098, 23.1852393], [72.5797176, 23.1850193], [72.5796569, 23.1850043], [72.5787439, 23.1851609], [72.5787568, 23.1854894], [72.5787801, 23.1856214]]}}, {"type": "Feature", "properties": {"osm_id": 996610811, "osm_type": "way", "name": "", "leisure": "park"}, "geometry": {"type": "LineString", "coordinates": [[72.5961411, 23.1028568], [72.5965853, 23.1032475], [72.5969932, 23.1028938], [72.5969932, 23.1027866], [72.5966526, 23.1023351], [72.5961411, 23.1028568]]}}, {"type": "Feature", "properties": {"osm_id": 1006174677, "osm_type": "way", "name": "AUDA garden, Gota", "leisure": "park"}, "geometry": {"type": "LineString", "coordinates": [[72.5397443, 23.1014722], [72.5398879, 23.1014408], [72.5404235, 23.1013234], [72.5404115, 23.101277], [72.5400915, 23.1000422], [72.5400737, 23.0999736], [72.5390129, 23.1002061], [72.5391165, 23.1006059], [72.5394982, 23.1005222], [72.5397443, 23.1014722]]}}, {"type": "Feature", "properties": {"osm_id": 1018475012, "osm_type": "way", "name": "Orchard Building park", "leisure": "park"}, "geometry": {"type": "LineString", "coordinates": [[72.5540268, 23.115003], [72.5540166, 23.1148082], [72.5539949, 23.1145958], [72.5539439, 23.114536], [72.5538877, 23.1145559], [72.5538329, 23.1146909], [72.5538112, 23.1148681], [72.5538227, 23.114908], [72.5537716, 23.114942], [72.5537704, 23.1150206], [72.5537755, 23.1152271], [72.5537908, 23.1153586], [72.5538125, 23.1154653], [72.553861, 23.1155921], [72.553912, 23.1157036], [72.5539554, 23.1157963], [72.5540217, 23.1158819], [72.5540791, 23.1158749], [72.5540268, 23.115003]]}}, {"type": "Feature", "properties": {"osm_id": 1107167554, "osm_type": "way", "name": "", "leisure": "park"}, "geometry": {"type": "LineString", "coordinates": [[72.5427782, 23.0916296], [72.5439745, 23.0912151], [72.5442642, 23.0919109], [72.5430304, 23.0923057], [72.5427782, 23.0916296]]}}, {"type": "Feature", "properties": {"osm_id": 1107167566, "osm_type": "way", "name": "Chandlodiya Garden 1", "leisure": "park"}, "geometry": {"type": "LineString", "coordinates": [[72.5533944, 23.0840351], [72.5535795, 23.0842843], [72.5535125, 23.0844299], [72.5534213, 23.0844595], [72.5532496, 23.084415], [72.5529814, 23.084346], [72.5530484, 23.0842645], [72.553145, 23.0841264], [72.5533944, 23.0840351]]}}, {"type": "Feature", "properties": {"osm_id": 1107167567, "osm_type": "way", "name": "Chandlodiya Garden 2", "leisure": "park"}, "geometry": {"type": "LineString", "coordinates": [[72.5534481, 23.0838377], [72.553778, 23.0842448], [72.5538772, 23.0842177], [72.553719, 23.0837636], [72.5534481, 23.0838377]]}}, {"type": "Feature", "properties": {"osm_id": 1180002877, "osm_type": "way", "name": "Kali Cultural Garden", "leisure": "park"}, "geometry": {"type": "LineString", "coordinates": [[72.5742679, 23.10792], [72.5742032, 23.1070221], [72.5741907, 23.1068183], [72.5746963, 23.1067954], [72.5746913, 23.1079292], [72.5742679, 23.10792]]}}, {"type": "Feature", "properties": {"osm_id": 1180004257, "osm_type": "way", "name": "Devi Public Park", "leisure": "park"}, "geometry": {"type": "LineString", "coordinates": [[72.5846123, 23.1086817], [72.584412, 23.1079984], [72.5850042, 23.1078716], [72.5848821, 23.1083335], [72.5847967, 23.1085789], [72.5846123, 23.1086817]]}}, {"type": "Feature", "properties": {"osm_id": 1180013601, "osm_type": "way", "name": "Childrens Park", "leisure": "park"}, "geometry": {"type": "LineString", "coordinates": [[72.5824483, 23.1004018], [72.5825743, 23.1001513], [72.5827598, 23.1002311], [72.5826304, 23.1004879], [72.5824483, 23.1004018]]}}, {"type": "Feature", "properties": {"osm_id": 1192008348, "osm_type": "way", "name": "Chharodi Park", "leisure": "park"}, "geometry": {"type": "LineString", "coordinates": [[72.53941, 23.1235815], [72.5394305, 23.1236483], [72.5394779, 23.123803], [72.5395335, 23.1239396], [72.5397038, 23.1238957], [72.5397483, 23.1239816], [72.539855, 23.1240435], [72.5400506, 23.1240825], [72.5402009, 23.1240661], [72.540765, 23.1239196], [72.5409741, 23.1238812], [72.5413583, 23.123784], [72.5416397, 23.1237144], [72.5419254, 23.1236506], [72.541939, 23.1232009], [72.5417117, 23.1229015], [72.5416709, 23.1225713], [72.5416685, 23.1225069], [72.5417223, 23.1224406], [72.5418046, 23.1223176], [72.5418918, 23.1221887], [72.5419018, 23.1221665], [72.5419159, 23.1220789], [72.5418894, 23.1219683], [72.5416665, 23.1218754], [72.541511, 23.1218487], [72.541356, 23.1218355], [72.5411981, 23.1218474], [72.5411273, 23.1218592], [72.5409754, 23.1218845], [72.5406859, 23.1219343], [72.5405677, 23.1219633], [72.5403134, 23.1220258], [72.5401304, 23.1220871], [72.5400469, 23.122115], [72.5398454, 23.122169], [72.5397353, 23.1221903], [72.5396887, 23.1223683], [72.5396232, 23.1225042], [72.5395404, 23.1226167], [72.5394473, 23.1226973], [72.5393933, 23.1227965], [72.5393904, 23.1229209], [72.5394116, 23.1230162], [72.5392726, 23.1231063], [72.5393153, 23.1232772], [72.5393901, 23.1235177], [72.53941, 23.1235815]]}}, {"type": "Feature", "properties": {"osm_id": 1200946273, "osm_type": "way", "name": "", "leisure": "garden"}, "geometry": {"type": "LineString", "coordinates": [[72.5762764, 23.1753686], [72.5762469, 23.1754475], [72.5762951, 23.1755387], [72.5763729, 23.175593], [72.5779903, 23.1755585], [72.5780654, 23.1755264], [72.5780922, 23.1754376], [72.5780547, 23.1753686], [72.5778508, 23.1751146], [72.577765, 23.1749248], [72.577706, 23.1746289], [72.5777596, 23.1743626], [72.5762764, 23.1753686]]}}, {"type": "Feature", "properties": {"osm_id": 1200946274, "osm_type": "way", "name": "", "leisure": "garden"}, "geometry": {"type": "LineString", "coordinates": [[72.5798142, 23.1753587], [72.5799832, 23.1752083], [72.5801575, 23.1749124], [72.5802165, 23.1745993], [72.5801763, 23.1743872], [72.5801817, 23.174328], [72.5802487, 23.174328], [72.5803265, 23.1743848], [72.5805974, 23.1745993], [72.5812304, 23.1749617], [72.581225, 23.1750209], [72.5811794, 23.1750431], [72.5806403, 23.1751417], [72.5803077, 23.1752182], [72.5799644, 23.1753415], [72.5798464, 23.1753859], [72.5798142, 23.1753587]]}}, {"type": "Feature", "properties": {"osm_id": 1200946275, "osm_type": "way", "name": "", "leisure": "garden"}, "geometry": {"type": "LineString", "coordinates": [[72.5756729, 23.1747275], [72.5756353, 23.1746017], [72.5756273, 23.1740149], [72.5756407, 23.1739286], [72.5757024, 23.1739261], [72.5757721, 23.1739779], [72.5758982, 23.1741086], [72.5760859, 23.1742023], [72.576271, 23.1742615], [72.576448, 23.1742984], [72.5764507, 23.1743404], [72.576212, 23.174439], [72.5761181, 23.1744834], [72.5758821, 23.1746338], [72.5757882, 23.17473], [72.5757104, 23.1747349], [72.5756729, 23.1747275]]}}, {"type": "Feature", "properties": {"osm_id": 1200946276, "osm_type": "way", "name": "", "leisure": "garden"}, "geometry": {"type": "LineString", "coordinates": [[72.5755495, 23.1729595], [72.5756192, 23.1724984], [72.5756139, 23.1722074], [72.5755817, 23.1719165], [72.5756326, 23.1717981], [72.5757399, 23.1717883], [72.5758633, 23.1718302], [72.5764078, 23.172168], [72.5761932, 23.172237], [72.5760752, 23.1722814], [72.5758955, 23.1724269], [72.5757533, 23.1726143], [72.5755495, 23.1729595]]}}, {"type": "Feature", "properties": {"osm_id": 1200946277, "osm_type": "way", "name": "", "leisure": "garden"}, "geometry": {"type": "LineString", "coordinates": [[72.5764212, 23.1714504], [72.5776765, 23.1721581], [72.5777167, 23.1719189], [72.5777918, 23.1715836], [72.5779098, 23.1713543], [72.5780439, 23.1712014], [72.5782236, 23.1710485], [72.5783497, 23.17094], [72.5763702, 23.1713469], [72.5763729, 23.171411], [72.5764212, 23.1714504]]}}, {"type": "Feature", "properties": {"osm_id": 1200946278, "osm_type": "way", "name": "", "leisure": "garden"}, "geometry": {"type": "LineString", "coordinates": [[72.581284, 23.1740987], [72.5818714, 23.1744069], [72.5818285, 23.1737831], [72.5817105, 23.1739163], [72.5815684, 23.1740321], [72.5814021, 23.1740815], [72.581284, 23.1740987]]}}, {"type": "Feature", "properties": {"osm_id": 1200946279, "osm_type": "way", "name": "", "leisure": "garden"}, "geometry": {"type": "LineString", "coordinates": [[72.5801736, 23.1721187], [72.5802004, 23.1717833], [72.5801602, 23.1715959], [72.5800556, 23.1713666], [72.5799081, 23.1711644], [72.5795782, 23.1709178], [72.5794199, 23.1708586], [72.5822765, 23.1708463], [72.5801736, 23.1721187]]}}, {"type": "Feature", "properties": {"osm_id": 1200946280, "osm_type": "way", "name": "", "leisure": "garden"}, "geometry": {"type": "LineString", "coordinates": [[72.5811607, 23.1721433], [72.5813886, 23.1721828], [72.5815308, 23.1722617], [72.5816837, 23.1723776], [72.5818527, 23.1726217], [72.5819948, 23.1715589], [72.5819546, 23.1715367], [72.5818983, 23.1715367], [72.5810641, 23.1721261], [72.5811607, 23.1721433]]}}, {"type": "Feature", "properties": {"osm_id": 1200946281, "osm_type": "way", "name": "", "leisure": "garden"}, "geometry": {"type": "LineString", "coordinates": [[72.5788566, 23.1736278], [72.5792241, 23.17383], [72.5795272, 23.1740568], [72.5796667, 23.1742467], [72.5797176, 23.1744489], [72.5797042, 23.1746856], [72.5796318, 23.1749248], [72.579472, 23.1750688], [72.5792, 23.1752305], [72.5790068, 23.1752552], [72.5787279, 23.1752453], [72.5784758, 23.175159], [72.5782934, 23.1750308], [72.5781754, 23.174873], [72.5780681, 23.1746264], [72.5780761, 23.174402], [72.5781646, 23.1741209], [72.5783443, 23.1739286], [72.578567, 23.1737461], [72.5788566, 23.1736278]]}}, {"type": "Feature", "properties": {"osm_id": 1200946282, "osm_type": "way", "name": "", "leisure": "garden"}, "geometry": {"type": "LineString", "coordinates": [[72.578398, 23.1733467], [72.5775343, 23.1738201], [72.577073, 23.1740075], [72.5767833, 23.1740667], [72.5766116, 23.1740469], [72.5764024, 23.1739878], [72.5762629, 23.1739064], [72.5761369, 23.1737782], [72.5760028, 23.1735587], [72.5759464, 23.1733097], [72.5759706, 23.1731173], [72.5760832, 23.1728387], [72.5762629, 23.1726612], [72.5765097, 23.1725601], [72.5769228, 23.1725132], [72.5773546, 23.1727154], [72.578398, 23.1733467]]}}, {"type": "Feature", "properties": {"osm_id": 1200946283, "osm_type": "way", "name": "", "leisure": "garden"}, "geometry": {"type": "LineString", "coordinates": [[72.5790189, 23.172909], [72.5783122, 23.1724269], [72.5781941, 23.1722444], [72.5781271, 23.1720373], [72.5781378, 23.1718548], [72.5781861, 23.1716329], [72.5783846, 23.1713666], [72.5786152, 23.1712482], [72.5788513, 23.1711718], [72.5792214, 23.1711841], [72.5794816, 23.1712852], [72.5796264, 23.171411], [72.5797901, 23.1716847], [72.5798196, 23.1718524], [72.5797847, 23.1721902], [72.5795862, 23.1724836], [72.5790189, 23.172909]]}}, {"type": "Feature", "properties": {"osm_id": 1200946284, "osm_type": "way", "name": "", "leisure": "garden"}, "geometry": {"type": "LineString", "coordinates": [[72.5794065, 23.173142], [72.5804177, 23.1737609], [72.5805947, 23.173825], [72.5808737, 23.1738916], [72.5811526, 23.1738694], [72.5813967, 23.1737362], [72.5815898, 23.1735439], [72.5817078, 23.1733614], [72.5817373, 23.1730976], [72.5816113, 23.172745], [72.581394, 23.1725576], [72.5811017, 23.1724096], [72.5807288, 23.1724047], [72.5804472, 23.1725132], [72.5794065, 23.173142]]}}, {"type": "Feature", "properties": {"osm_id": 1275046999, "osm_type": "way", "name": "Khoraj Lake Garden", "leisure": "park"}, "geometry": {"type": "LineString", "coordinates": [[72.5498083, 23.1388875], [72.54976, 23.1388949], [72.5496849, 23.138155], [72.5496152, 23.1374373], [72.5496072, 23.1373879], [72.5504976, 23.1372794], [72.55068, 23.1370821], [72.5506425, 23.1367368], [72.5505191, 23.1355874], [72.5513265, 23.1354863], [72.5514472, 23.1365987], [72.5525375, 23.1364975], [72.5526877, 23.1379392], [72.5516376, 23.1380206], [72.5517207, 23.1386705], [72.551693, 23.1386736], [72.5498083, 23.1388875]]}}, {"type": "Feature", "properties": {"osm_id": 1368330314, "osm_type": "way", "name": "લલિતા ગોવિંદ ઉદ્યાન", "leisure": "park"}, "geometry": {"type": "LineString", "coordinates": [[72.5529143, 23.1301339], [72.5529546, 23.1301265], [72.5530976, 23.1300746], [72.553212, 23.1300377], [72.5537968, 23.129754], [72.5540516, 23.1294999], [72.5545907, 23.1287057], [72.5541615, 23.1278991], [72.5523725, 23.1284344], [72.5529143, 23.1301339]]}}, {"type": "Feature", "properties": {"osm_id": 1450460285, "osm_type": "way", "name": "", "leisure": "garden"}, "geometry": {"type": "LineString", "coordinates": [[72.5524139, 23.1358771], [72.5527661, 23.1358501], [72.5527556, 23.1357349], [72.5524034, 23.1357619], [72.5524139, 23.1358771]]}}, {"type": "Feature", "properties": {"osm_id": 4488099093, "osm_type": "node", "name": "Picnic Party Plot", "leisure": "park"}, "geometry": {"type": "Point", "coordinates": [72.6489696, 23.0855359]}}, {"type": "Feature", "properties": {"osm_id": 7132838716, "osm_type": "node", "name": "Hansol Garden", "leisure": "garden"}, "geometry": {"type": "Point", "coordinates": [72.622746, 23.083742]}}, {"type": "Feature", "properties": {"osm_id": 338754918, "osm_type": "way", "name": "", "leisure": "park"}, "geometry": {"type": "LineString", "coordinates": [[72.6484291, 23.2012464], [72.6512982, 23.1997369], [72.6482393, 23.1985675], [72.6474439, 23.1983458], [72.6471874, 23.1992042], [72.6475312, 23.1992844], [72.6474798, 23.1994919], [72.6478148, 23.199568], [72.648111, 23.199624], [72.6479314, 23.2004305], [72.6484291, 23.2012464]]}}, {"type": "Feature", "properties": {"osm_id": 397268846, "osm_type": "way", "name": "", "leisure": "garden"}, "geometry": {"type": "LineString", "coordinates": [[72.6279046, 23.1871568], [72.628099, 23.1871604], [72.6281041, 23.1869324], [72.6279097, 23.1869288], [72.6279046, 23.1871568]]}}, {"type": "Feature", "properties": {"osm_id": 397269934, "osm_type": "way", "name": "", "leisure": "garden"}, "geometry": {"type": "LineString", "coordinates": [[72.6278138, 23.1885747], [72.6279525, 23.1885793], [72.6279639, 23.1882884], [72.6278252, 23.1882838], [72.6278138, 23.1885747]]}}, {"type": "Feature", "properties": {"osm_id": 399908683, "osm_type": "way", "name": "", "leisure": "garden"}, "geometry": {"type": "LineString", "coordinates": [[72.6265276, 23.1924716], [72.6275859, 23.1923289], [72.6279081, 23.1922874], [72.627724, 23.1911208], [72.6266008, 23.1912706], [72.6263802, 23.1915375], [72.6265276, 23.1924716]]}}, {"type": "Feature", "properties": {"osm_id": 401449775, "osm_type": "way", "name": "", "leisure": "garden"}, "geometry": {"type": "LineString", "coordinates": [[72.6602974, 23.1540596], [72.660733, 23.1539511], [72.6607675, 23.1538421], [72.6607215, 23.1536859], [72.6602238, 23.1538099], [72.6602974, 23.1540596]]}}, {"type": "Feature", "properties": {"osm_id": 401449776, "osm_type": "way", "name": "", "leisure": "garden"}, "geometry": {"type": "LineString", "coordinates": [[72.6608967, 23.1536312], [72.6609551, 23.1538194], [72.661039, 23.1538739], [72.6614847, 23.153757], [72.6614044, 23.1534981], [72.6608967, 23.1536312]]}}, {"type": "Feature", "properties": {"osm_id": 401450190, "osm_type": "way", "name": "", "leisure": "garden"}, "geometry": {"type": "LineString", "coordinates": [[72.6595403, 23.1542892], [72.6601763, 23.1541008], [72.6599153, 23.1532319], [72.6592612, 23.1534069], [72.6595403, 23.1542892]]}}, {"type": "Feature", "properties": {"osm_id": 401450192, "osm_type": "way", "name": "", "leisure": "garden"}, "geometry": {"type": "LineString", "coordinates": [[72.661619, 23.1536966], [72.6622748, 23.1535042], [72.6619708, 23.1526281], [72.661315, 23.1528205], [72.661619, 23.1536966]]}}, {"type": "Feature", "properties": {"osm_id": 452834975, "osm_type": "way", "name": "", "leisure": "park"}, "geometry": {"type": "LineString", "coordinates": [[72.6270102, 23.0860606], [72.6270054, 23.0862593], [72.6273703, 23.086171], [72.6273655, 23.0860606], [72.6270102, 23.0860606]]}}, {"type": "Feature", "properties": {"osm_id": 455035338, "osm_type": "way", "name": "", "leisure": "park"}, "geometry": {"type": "LineString", "coordinates": [[72.6371277, 23.1991271], [72.637379, 23.1990407], [72.6374735, 23.1992729], [72.6372223, 23.1993592], [72.6371277, 23.1991271]]}}, {"type": "Feature", "properties": {"osm_id": 455035339, "osm_type": "way", "name": "", "leisure": "park"}, "geometry": {"type": "LineString", "coordinates": [[72.6361449, 23.1988982], [72.6363862, 23.1988128], [72.6364795, 23.1990358], [72.6362382, 23.1991211], [72.6361449, 23.1988982]]}}, {"type": "Feature", "properties": {"osm_id": 455035341, "osm_type": "way", "name": "", "leisure": "park"}, "geometry": {"type": "LineString", "coordinates": [[72.6329546, 23.2000236], [72.6332005, 23.1999501], [72.6332808, 23.2001773], [72.6330349, 23.2002507], [72.6329546, 23.2000236]]}}, {"type": "Feature", "properties": {"osm_id": 455500037, "osm_type": "way", "name": "", "leisure": "park"}, "geometry": {"type": "LineString", "coordinates": [[72.6335644, 23.1997586], [72.6341228, 23.1996038], [72.6341791, 23.1997754], [72.6336207, 23.1999301], [72.6335644, 23.1997586]]}}, {"type": "Feature", "properties": {"osm_id": 455500038, "osm_type": "way", "name": "", "leisure": "park"}, "geometry": {"type": "LineString", "coordinates": [[72.6368267, 23.1992346], [72.6370001, 23.1996778], [72.6367345, 23.1997656], [72.6365611, 23.1993224], [72.6368267, 23.1992346]]}}, {"type": "Feature", "properties": {"osm_id": 511943889, "osm_type": "way", "name": "Bhat Circle", "leisure": "garden"}, "geometry": {"type": "LineString", "coordinates": [[72.6309967, 23.1168587], [72.6310312, 23.1169437], [72.6310952, 23.1170128], [72.631181, 23.1170576], [72.6312677, 23.1170727], [72.6313553, 23.1170626], [72.6314353, 23.1170284], [72.6315, 23.1169733], [72.6315434, 23.1169026], [72.6315611, 23.1168231], [72.6315514, 23.1167424], [72.6315154, 23.1166683], [72.6314565, 23.1166079], [72.6313704, 23.1165637], [72.631273, 23.1165491], [72.631176, 23.116566], [72.6310912, 23.1166122], [72.6310286, 23.1166824], [72.6309957, 23.116768], [72.6309967, 23.1168587]]}}, {"type": "Feature", "properties": {"osm_id": 544517711, "osm_type": "way", "name": "", "leisure": "garden"}, "geometry": {"type": "LineString", "coordinates": [[72.702141, 23.1627315], [72.7024679, 23.1628024], [72.7028456, 23.1629119], [72.7032484, 23.1630342], [72.7038064, 23.1631121], [72.7040125, 23.1631405], [72.7040808, 23.1631373], [72.7041234, 23.1631142], [72.7028876, 23.1613716], [72.7028491, 23.1613367], [72.7027294, 23.1612991], [72.7026016, 23.1612771], [72.7022996, 23.1614407], [72.7025984, 23.1618968], [72.7020955, 23.162049], [72.702141, 23.1627315]]}}, {"type": "Feature", "properties": {"osm_id": 547617475, "osm_type": "way", "name": "", "leisure": "garden"}, "geometry": {"type": "LineString", "coordinates": [[72.6512325, 23.119273], [72.6518886, 23.1196033], [72.6517901, 23.1190774], [72.6512429, 23.1191704], [72.6512325, 23.119273]]}}, {"type": "Feature", "properties": {"osm_id": 547622943, "osm_type": "way", "name": "", "leisure": "garden"}, "geometry": {"type": "LineString", "coordinates": [[72.6587688, 23.1047403], [72.6587717, 23.1047834], [72.658015, 23.1050601], [72.6579111, 23.1048462], [72.6587688, 23.1047403]]}}, {"type": "Feature", "properties": {"osm_id": 551648439, "osm_type": "way", "name": "", "leisure": "garden"}, "geometry": {"type": "LineString", "coordinates": [[72.6332342, 23.1188369], [72.6335495, 23.1188127], [72.6336761, 23.118803], [72.6336628, 23.1186568], [72.6334603, 23.1186723], [72.6334152, 23.1186758], [72.6332209, 23.1186907], [72.6332342, 23.1188369]]}}, {"type": "Feature", "properties": {"osm_id": 551648441, "osm_type": "way", "name": "", "leisure": "garden"}, "geometry": {"type": "LineString", "coordinates": [[72.6335495, 23.1188127], [72.6338958, 23.1187867], [72.6339216, 23.1190862], [72.633814, 23.1190955], [72.6337545, 23.1191007], [72.6335789, 23.1191159], [72.6335495, 23.1188127]]}}, {"type": "Feature", "properties": {"osm_id": 551648443, "osm_type": "way", "name": "", "leisure": "garden"}, "geometry": {"type": "LineString", "coordinates": [[72.6321709, 23.1187821], [72.6321778, 23.1189257], [72.6320588, 23.1189326], [72.6320456, 23.1187908], [72.6321709, 23.1187821]]}}, {"type": "Feature", "properties": {"osm_id": 551654829, "osm_type": "way", "name": "", "leisure": "garden"}, "geometry": {"type": "LineString", "coordinates": [[72.6357099, 23.1109042], [72.6357155, 23.1109492], [72.6357292, 23.1110031], [72.6357428, 23.1110518], [72.635758, 23.1110864], [72.6357853, 23.1111388], [72.6358182, 23.111186], [72.6358503, 23.1112148], [72.6358792, 23.1112347], [72.6359185, 23.1112413], [72.635961, 23.1112413], [72.6359987, 23.1112236], [72.6360396, 23.1111838], [72.636066, 23.1111469], [72.6360805, 23.1111063], [72.6360997, 23.1110621], [72.6361101, 23.1109765], [72.6361085, 23.1108998], [72.6361037, 23.1108371], [72.6360933, 23.1107655], [72.6360716, 23.1107095], [72.6360291, 23.1106357], [72.6359987, 23.1105892], [72.6359706, 23.1105656], [72.6359425, 23.1105472], [72.6359072, 23.1105391], [72.6358631, 23.110542], [72.6358254, 23.1105553], [72.6357989, 23.1105789], [72.6357733, 23.1106069], [72.63575, 23.1106497], [72.6357356, 23.110694], [72.6357155, 23.110767], [72.6357059, 23.1108304], [72.6357099, 23.1109042]]}}, {"type": "Feature", "properties": {"osm_id": 693880236, "osm_type": "way", "name": "GUDA Garden", "leisure": "park"}, "geometry": {"type": "LineString", "coordinates": [[72.6509042, 23.164214], [72.650388, 23.1642303], [72.6501338, 23.1642383], [72.6501277, 23.1636234], [72.6508656, 23.1636159], [72.6509042, 23.164214]]}}, {"type": "Feature", "properties": {"osm_id": 694477838, "osm_type": "way", "name": "", "leisure": "park"}, "geometry": {"type": "LineString", "coordinates": [[72.6502105, 23.1662361], [72.6502128, 23.1660039], [72.6503809, 23.166006], [72.6503762, 23.1662391], [72.6502105, 23.1662361]]}}, {"type": "Feature", "properties": {"osm_id": 761456870, "osm_type": "way", "name": "Joggers Park", "leisure": "park"}, "geometry": {"type": "LineString", "coordinates": [[72.6507862, 23.162156], [72.6498447, 23.1621788], [72.6498217, 23.1617249], [72.6501686, 23.1617135], [72.6501757, 23.1619331], [72.6507667, 23.1619152], [72.6507862, 23.162156]]}}, {"type": "Feature", "properties": {"osm_id": 763326396, "osm_type": "way", "name": "", "leisure": "park"}, "geometry": {"type": "LineString", "coordinates": [[72.6274314, 23.0839844], [72.6279035, 23.0840337], [72.6283863, 23.0811419], [72.6276516, 23.0809905], [72.6274314, 23.0825927], [72.6275923, 23.0826026], [72.6275065, 23.0830073], [72.6275065, 23.0832441], [72.6274314, 23.0839844]]}}, {"type": "Feature", "properties": {"osm_id": 763326648, "osm_type": "way", "name": "", "leisure": "park"}, "geometry": {"type": "LineString", "coordinates": [[72.6280661, 23.0835463], [72.6293626, 23.0836982], [72.629545, 23.0812504], [72.6285365, 23.0811616], [72.6282897, 23.0823953], [72.6280661, 23.0835463]]}}, {"type": "Feature", "properties": {"osm_id": 763326790, "osm_type": "way", "name": "santshree satramdas udyan", "leisure": "park"}, "geometry": {"type": "LineString", "coordinates": [[72.6292339, 23.0846753], [72.6294592, 23.0846802], [72.629604, 23.0839696], [72.6293572, 23.083935], [72.6293358, 23.0840781], [72.6292339, 23.0846753]]}}, {"type": "Feature", "properties": {"osm_id": 763327672, "osm_type": "way", "name": "", "leisure": "park"}, "geometry": {"type": "LineString", "coordinates": [[72.6304784, 23.0876139], [72.6316049, 23.0876411], [72.6315754, 23.0864641], [72.6304838, 23.0864888], [72.630473, 23.0871081], [72.6304784, 23.0876139]]}}, {"type": "Feature", "properties": {"osm_id": 763328615, "osm_type": "way", "name": "Manorama Garden", "leisure": "garden"}, "geometry": {"type": "LineString", "coordinates": [[72.6378241, 23.0903765], [72.6382937, 23.0885375], [72.6387014, 23.0885925], [72.6389088, 23.0880618], [72.6393048, 23.0882175], [72.6390697, 23.0890586], [72.6397134, 23.0895126], [72.6399387, 23.0891475], [72.6404365, 23.089305], [72.6402941, 23.0900876], [72.6410497, 23.0899576], [72.6409687, 23.0907562], [72.6406252, 23.0912317], [72.640136, 23.0909441], [72.639156, 23.0906127], [72.6387884, 23.090502], [72.6378241, 23.0903765]]}}, {"type": "Feature", "properties": {"osm_id": 763329771, "osm_type": "way", "name": "SardarNagar Community Garden", "leisure": "garden"}, "geometry": {"type": "LineString", "coordinates": [[72.6238356, 23.0812443], [72.6239295, 23.080926], [72.624611, 23.0809931], [72.6245544, 23.0812295], [72.6241709, 23.0812418], [72.6238356, 23.0812443]]}}, {"type": "Feature", "properties": {"osm_id": 763330804, "osm_type": "way", "name": "Hansol Garden", "leisure": "garden"}, "geometry": {"type": "LineString", "coordinates": [[72.6225797, 23.0837321], [72.6225904, 23.0838851], [72.6231134, 23.0839887], [72.6231671, 23.0837543], [72.6231912, 23.0836532], [72.6229096, 23.0835323], [72.6227701, 23.0836532], [72.622746, 23.083742], [72.6225797, 23.0837321]]}}, {"type": "Feature", "properties": {"osm_id": 763333993, "osm_type": "way", "name": "Shree Kaniyalal Nathuram Gurjar Park", "leisure": "park"}, "geometry": {"type": "LineString", "coordinates": [[72.6332723, 23.0806677], [72.6336076, 23.0809613], [72.6337766, 23.0808034], [72.6334225, 23.0805073], [72.6332723, 23.0806677]]}}, {"type": "Feature", "properties": {"osm_id": 922077113, "osm_type": "way", "name": "", "leisure": "park"}, "geometry": {"type": "LineString", "coordinates": [[72.6907983, 23.1608986], [72.6908076, 23.1605609], [72.6907095, 23.1605528], [72.6907304, 23.1601335], [72.6910232, 23.1603454], [72.6912708, 23.1605739], [72.6915178, 23.1609251], [72.6907983, 23.1608986]]}}, {"type": "Feature", "properties": {"osm_id": 922160499, "osm_type": "way", "name": "", "leisure": "park"}, "geometry": {"type": "LineString", "coordinates": [[72.6761151, 23.1629521], [72.6773783, 23.1627582], [72.677297, 23.1622048], [72.6759011, 23.162397], [72.6757943, 23.1624916], [72.6757614, 23.162528], [72.6757438, 23.1626027], [72.6757724, 23.1626653], [72.6761151, 23.1629521]]}}, {"type": "Feature", "properties": {"osm_id": 996262760, "osm_type": "way", "name": "Botanical Garden", "leisure": "garden"}, "geometry": {"type": "LineString", "coordinates": [[72.6480606, 23.1934263], [72.6480583, 23.1933303], [72.6480212, 23.1932405], [72.6479536, 23.1931672], [72.6478633, 23.1931189], [72.6477605, 23.1931011], [72.6476573, 23.1931159], [72.6475653, 23.1931615], [72.6474952, 23.1932328], [72.647455, 23.1933214], [72.6474494, 23.1934174], [72.6474754, 23.1935026], [72.6475287, 23.1935764], [72.6476042, 23.1936314], [72.6476945, 23.1936623], [72.6477907, 23.1936661], [72.6478835, 23.1936424], [72.6479638, 23.1935935], [72.6480279, 23.1935176], [72.6480606, 23.1934263]]}}, {"type": "Feature", "properties": {"osm_id": 996262761, "osm_type": "way", "name": "Cactus Garden", "leisure": "garden"}, "geometry": {"type": "LineString", "coordinates": [[72.6487947, 23.1924676], [72.6487613, 23.1924044], [72.6487065, 23.1923554], [72.6486368, 23.1923265], [72.6485606, 23.1923212], [72.6484869, 23.1923399], [72.6484246, 23.1923807], [72.6483811, 23.1924384], [72.6483616, 23.1925064], [72.6483685, 23.1925764], [72.6484008, 23.19264], [72.6484467, 23.1926843], [72.6485049, 23.192714], [72.6485701, 23.1927265], [72.6486363, 23.1927205], [72.6486976, 23.1926968], [72.6487485, 23.1926573], [72.6487843, 23.1926057], [72.6488026, 23.1925375], [72.6487947, 23.1924676]]}}, {"type": "Feature", "properties": {"osm_id": 996262762, "osm_type": "way", "name": "", "leisure": "park"}, "geometry": {"type": "LineString", "coordinates": [[72.6475159, 23.1923064], [72.6475484, 23.1917339], [72.6478791, 23.1916779], [72.6479014, 23.1921516], [72.6477594, 23.1922318], [72.6476559, 23.1922766], [72.6475159, 23.1923064]]}}, {"type": "Feature", "properties": {"osm_id": 1103412260, "osm_type": "way", "name": "", "leisure": "park"}, "geometry": {"type": "LineString", "coordinates": [[72.6644297, 23.1571056], [72.6641186, 23.1564861], [72.6653545, 23.1559613], [72.6657, 23.1566242], [72.6654189, 23.1567584], [72.6653395, 23.1567446], [72.6651936, 23.1567742], [72.6644297, 23.1571056]]}}, {"type": "Feature", "properties": {"osm_id": 1337080364, "osm_type": "way", "name": "", "leisure": "park"}, "geometry": {"type": "LineString", "coordinates": [[72.6328941, 23.1623301], [72.6329852, 23.1633479], [72.6353952, 23.1631657], [72.6353041, 23.1621475], [72.6328941, 23.1623301]]}}, {"type": "Feature", "properties": {"osm_id": 1374643669, "osm_type": "way", "name": "", "leisure": "park"}, "geometry": {"type": "LineString", "coordinates": [[72.6282998, 23.1865368], [72.6281101, 23.1866114], [72.6280993, 23.1866465], [72.6281826, 23.1867066], [72.6281964, 23.1867704], [72.6282797, 23.1868296], [72.628387, 23.1868735], [72.6285204, 23.1868389], [72.6285997, 23.1867788], [72.6285989, 23.1866885], [72.6285554, 23.1866286], [72.6284259, 23.1866176], [72.6282998, 23.1865368]]}}, {"type": "Feature", "properties": {"osm_id": 1416039838, "osm_type": "way", "name": "", "leisure": "garden"}, "geometry": {"type": "LineString", "coordinates": [[72.6297421, 23.1879677], [72.629647, 23.1880445], [72.6296273, 23.1880798], [72.6296009, 23.1881112], [72.6295687, 23.1881375], [72.6295317, 23.1881579], [72.6294912, 23.1881717], [72.6294487, 23.1881783], [72.6294056, 23.1881776], [72.6293626, 23.1881694], [72.6293221, 23.188154], [72.6292855, 23.1881318], [72.629254, 23.1881037], [72.6292328, 23.1880669], [72.629218, 23.1880275], [72.6292098, 23.1879866], [72.6292088, 23.1879387], [72.6292169, 23.1878913], [72.6292339, 23.187846], [72.6292579, 23.1877992], [72.6292728, 23.1877494], [72.6292783, 23.1876979], [72.6292741, 23.1876463], [72.629262, 23.1876003], [72.6292422, 23.1875566], [72.6292152, 23.1875163], [72.6291817, 23.1874803], [72.6291424, 23.1874496], [72.629132, 23.1874725], [72.6290885, 23.1875512], [72.6290392, 23.1876269], [72.6289844, 23.1876993], [72.6289469, 23.1877489], [72.6289145, 23.1878015], [72.6288876, 23.1878566], [72.6288664, 23.1879138], [72.6288511, 23.1879732], [72.6288419, 23.1880336], [72.628839, 23.1880945], [72.6288423, 23.1881555], [72.6288606, 23.1882041], [72.6288868, 23.1882497], [72.6289201, 23.1882911], [72.6289604, 23.1883278], [72.6290063, 23.1883585], [72.6290569, 23.1883823], [72.6291213, 23.1884115], [72.6291882, 23.1884353], [72.6292573, 23.1884536], [72.6293278, 23.1884661], [72.6294028, 23.188473], [72.6294782, 23.1884734], [72.6295533, 23.1884673], [72.6296274, 23.1884548], [72.6296999, 23.1884359], [72.6298169, 23.1883801], [72.6297421, 23.1879677]]}}, {"type": "Feature", "properties": {"osm_id": 1416039871, "osm_type": "way", "name": "", "leisure": "garden"}, "geometry": {"type": "LineString", "coordinates": [[72.6299517, 23.189134], [72.6298854, 23.1887549], [72.629718, 23.1887595], [72.629688, 23.1887574], [72.6296594, 23.188749], [72.6296335, 23.1887349], [72.6296081, 23.1887112], [72.6295907, 23.1886822], [72.6295826, 23.1886498], [72.6290931, 23.1886424], [72.6290688, 23.1886541], [72.6290479, 23.1886704], [72.6290314, 23.1886905], [72.6290195, 23.1887148], [72.6290461, 23.1887928], [72.6290644, 23.1888727], [72.6290743, 23.1889539], [72.6290756, 23.1890356], [72.6290685, 23.1891171], [72.6290533, 23.1891955], [72.6290302, 23.1892723], [72.6289994, 23.1893467], [72.6289802, 23.1893826], [72.6290077, 23.1894173], [72.6290423, 23.1894461], [72.6290827, 23.1894676], [72.6291271, 23.189481], [72.6291735, 23.1894856], [72.6292143, 23.1894823], [72.6292536, 23.1894723], [72.6292904, 23.1894559], [72.6293233, 23.1894336], [72.6293513, 23.1894062], [72.6293734, 23.1893747], [72.6293942, 23.1893445], [72.6294096, 23.1893118], [72.6294185, 23.1892808], [72.6294225, 23.1892489], [72.6294217, 23.1892169], [72.6294424, 23.1891804], [72.6294689, 23.1891471], [72.6295004, 23.1891179], [72.6295364, 23.1890933], [72.6295759, 23.1890739], [72.6296236, 23.1890587], [72.6296735, 23.1890512], [72.629724, 23.1890515], [72.6297737, 23.1890595], [72.6298213, 23.1890751], [72.6299517, 23.189134]]}}, {"type": "Feature", "properties": {"osm_id": 1416058001, "osm_type": "way", "name": "Tulip Garden", "leisure": "garden"}, "geometry": {"type": "LineString", "coordinates": [[72.626384, 23.1863162], [72.6265902, 23.1863204], [72.6265973, 23.1860314], [72.6263912, 23.1860271], [72.626384, 23.1863162]]}}, {"type": "Feature", "properties": {"osm_id": 1416058018, "osm_type": "way", "name": "", "leisure": "garden"}, "geometry": {"type": "LineString", "coordinates": [[72.6278833, 23.190488], [72.6278904, 23.1904966], [72.6280215, 23.1906558], [72.6283553, 23.1904235], [72.6280924, 23.1901043], [72.6279207, 23.1902238], [72.6278724, 23.1902575], [72.6279989, 23.1904032], [72.6278833, 23.190488]]}}, {"type": "Feature", "properties": {"osm_id": 1416058060, "osm_type": "way", "name": "", "leisure": "garden"}, "geometry": {"type": "LineString", "coordinates": [[72.6280316, 23.1866336], [72.6280429, 23.1866092], [72.6280592, 23.1865873], [72.6280799, 23.1865689], [72.6281057, 23.1865539], [72.6281344, 23.1865442], [72.6281647, 23.1865403], [72.6281952, 23.1865424], [72.6282211, 23.1865228], [72.6282495, 23.1865066], [72.6282803, 23.186494], [72.6283127, 23.1864853], [72.6283461, 23.1864807], [72.6283541, 23.1864086], [72.628331, 23.1863582], [72.6283005, 23.1863112], [72.6282656, 23.1862712], [72.6282418, 23.1862658], [72.6282173, 23.1862644], [72.628192, 23.1862672], [72.6281677, 23.1862742], [72.6281145, 23.1862875], [72.628064, 23.1863077], [72.6280173, 23.1863345], [72.6279753, 23.1863674], [72.6279391, 23.1864055], [72.6279141, 23.1864402], [72.6278939, 23.1864773], [72.6278787, 23.1865165], [72.6278863, 23.1865421], [72.6278995, 23.1865658], [72.6279132, 23.186582], [72.6279297, 23.186596], [72.6279364, 23.1866071], [72.6279398, 23.1866195], [72.6279397, 23.1866324], [72.6279605, 23.1866402], [72.6279826, 23.1866435], [72.6280078, 23.1866415], [72.6280316, 23.1866336]]}}, {"type": "Feature", "properties": {"osm_id": 1416058065, "osm_type": "way", "name": "", "leisure": "garden"}, "geometry": {"type": "LineString", "coordinates": [[72.6269264, 23.1870018], [72.6268863, 23.1870029], [72.6268783, 23.1870032], [72.6266047, 23.1872288], [72.6265571, 23.187268], [72.6265824, 23.187294], [72.6266269, 23.1872574], [72.626867, 23.1875034], [72.6268757, 23.1875023], [72.6268865, 23.1875008], [72.6271507, 23.1872766], [72.6271912, 23.1873169], [72.6272191, 23.1872932], [72.6271757, 23.18725], [72.6269264, 23.1870018]]}}, {"type": "Feature", "properties": {"osm_id": 1416059064, "osm_type": "way", "name": "", "leisure": "garden"}, "geometry": {"type": "LineString", "coordinates": [[72.6287651, 23.1886507], [72.6287977, 23.188685], [72.6288404, 23.1887076], [72.6288885, 23.1887161], [72.6289368, 23.1887102], [72.6289807, 23.1886899], [72.6290149, 23.188658], [72.6290364, 23.1886176], [72.6290424, 23.1885728], [72.6290324, 23.1885289], [72.6290076, 23.1884901], [72.6289703, 23.1884606], [72.6289243, 23.1884439], [72.6288747, 23.1884418], [72.6288269, 23.1884547], [72.6287864, 23.1884815], [72.6287577, 23.1885187], [72.6287439, 23.1885627], [72.6287464, 23.1886084], [72.6287651, 23.1886507]]}}, {"type": "Feature", "properties": {"osm_id": 386795631, "osm_type": "way", "name": "", "leisure": "park"}, "geometry": {"type": "LineString", "coordinates": [[72.6198817, 23.2094391], [72.6201075, 23.2093234], [72.6202341, 23.209532], [72.6200083, 23.2096478], [72.6198817, 23.2094391]]}}, {"type": "Feature", "properties": {"osm_id": 386795633, "osm_type": "way", "name": "", "leisure": "park"}, "geometry": {"type": "LineString", "coordinates": [[72.6194598, 23.2087465], [72.6196856, 23.2086307], [72.6198122, 23.2088394], [72.6195864, 23.2089551], [72.6194598, 23.2087465]]}}, {"type": "Feature", "properties": {"osm_id": 62519997, "osm_type": "way", "name": "Sector 28 Garden", "leisure": "park"}, "geometry": {"type": "LineString", "coordinates": [[72.6571097, 23.2500934], [72.6579352, 23.251498], [72.6613301, 23.2497335], [72.6614686, 23.2496354], [72.6614875, 23.2495505], [72.6614897, 23.2494968], [72.6614384, 23.2493618], [72.6593199, 23.2460033], [72.6592398, 23.245968], [72.6591611, 23.2459437], [72.6590082, 23.2459558], [72.6575714, 23.2467516], [72.6575429, 23.2468039], [72.6575271, 23.2469143], [72.6575335, 23.2469913], [72.6575619, 23.2470537], [72.6586557, 23.2489388], [72.6586857, 23.2490797], [72.6586589, 23.2491552], [72.6585514, 23.2492467], [72.6571525, 23.2499859], [72.657113, 23.2500367], [72.6571097, 23.2500934]]}}, {"type": "Feature", "properties": {"osm_id": 338493096, "osm_type": "way", "name": "", "leisure": "park"}, "geometry": {"type": "LineString", "coordinates": [[72.6531113, 23.2198318], [72.6549724, 23.2188218], [72.6561653, 23.2207302], [72.6542434, 23.2217554], [72.6531113, 23.2198318]]}}, {"type": "Feature", "properties": {"osm_id": 338754918, "osm_type": "way", "name": "", "leisure": "park"}, "geometry": {"type": "LineString", "coordinates": [[72.6484291, 23.2012464], [72.6489543, 23.2009701], [72.6505897, 23.2001096], [72.6512982, 23.1997369], [72.6482393, 23.1985675], [72.6474439, 23.1983458], [72.6473147, 23.1987783], [72.6471874, 23.1992042], [72.6475312, 23.1992844], [72.6474798, 23.1994919], [72.6476406, 23.1995284], [72.6478148, 23.199568], [72.648111, 23.199624], [72.6479314, 23.2004305], [72.6484291, 23.2012464]]}}, {"type": "Feature", "properties": {"osm_id": 373788662, "osm_type": "way", "name": "Sector 7 Garden", "leisure": "park"}, "geometry": {"type": "LineString", "coordinates": [[72.6429073, 23.2117943], [72.64301, 23.2116183], [72.6439767, 23.2110604], [72.6432015, 23.2100217], [72.6423516, 23.2104895], [72.6427532, 23.2111161], [72.6429073, 23.2117943]]}}, {"type": "Feature", "properties": {"osm_id": 379699488, "osm_type": "way", "name": "", "leisure": "park"}, "geometry": {"type": "LineString", "coordinates": [[72.6249289, 23.2077994], [72.6250462, 23.2079885], [72.6252673, 23.2078726], [72.6251499, 23.2076836], [72.6249289, 23.2077994]]}}, {"type": "Feature", "properties": {"osm_id": 379699489, "osm_type": "way", "name": "", "leisure": "park"}, "geometry": {"type": "LineString", "coordinates": [[72.6237898, 23.2077952], [72.6239154, 23.2079944], [72.6241546, 23.207867], [72.624029, 23.2076678], [72.6237898, 23.2077952]]}}, {"type": "Feature", "properties": {"osm_id": 379885020, "osm_type": "way", "name": "", "leisure": "park"}, "geometry": {"type": "LineString", "coordinates": [[72.6240569, 23.2064083], [72.6241836, 23.2066169], [72.6244094, 23.2065012], [72.6242827, 23.2062925], [72.6240569, 23.2064083]]}}, {"type": "Feature", "properties": {"osm_id": 379885021, "osm_type": "way", "name": "", "leisure": "park"}, "geometry": {"type": "LineString", "coordinates": [[72.6244864, 23.2071111], [72.624613, 23.2073197], [72.6248388, 23.2072039], [72.6247122, 23.2069953], [72.6244864, 23.2071111]]}}, {"type": "Feature", "properties": {"osm_id": 379885022, "osm_type": "way", "name": "", "leisure": "park"}, "geometry": {"type": "LineString", "coordinates": [[72.6233649, 23.2070771], [72.6235907, 23.2069613], [72.6237173, 23.20717], [72.6234915, 23.2072857], [72.6233649, 23.2070771]]}}, {"type": "Feature", "properties": {"osm_id": 379885023, "osm_type": "way", "name": "", "leisure": "park"}, "geometry": {"type": "LineString", "coordinates": [[72.6225506, 23.2065993], [72.6227764, 23.2064836], [72.622903, 23.2066922], [72.6226772, 23.206808], [72.6225506, 23.2065993]]}}, {"type": "Feature", "properties": {"osm_id": 379885024, "osm_type": "way", "name": "", "leisure": "park"}, "geometry": {"type": "LineString", "coordinates": [[72.6220651, 23.2058244], [72.6221917, 23.2060331], [72.6224176, 23.2059173], [72.6222909, 23.2057086], [72.6220651, 23.2058244]]}}, {"type": "Feature", "properties": {"osm_id": 386795602, "osm_type": "way", "name": "", "leisure": "park"}, "geometry": {"type": "LineString", "coordinates": [[72.6287661, 23.2059622], [72.6289919, 23.2058464], [72.6291185, 23.2060551], [72.6288927, 23.2061708], [72.6287661, 23.2059622]]}}, {"type": "Feature", "properties": {"osm_id": 386795603, "osm_type": "way", "name": "", "leisure": "park"}, "geometry": {"type": "LineString", "coordinates": [[72.6246041, 23.2127503], [72.6248299, 23.2126346], [72.6249565, 23.2128432], [72.6247307, 23.2129589], [72.6246041, 23.2127503]]}}, {"type": "Feature", "properties": {"osm_id": 386795605, "osm_type": "way", "name": "", "leisure": "park"}, "geometry": {"type": "LineString", "coordinates": [[72.6275697, 23.2047774], [72.6277955, 23.2046616], [72.6279221, 23.2048703], [72.6276963, 23.204986], [72.6275697, 23.2047774]]}}, {"type": "Feature", "properties": {"osm_id": 386795607, "osm_type": "way", "name": "", "leisure": "park"}, "geometry": {"type": "LineString", "coordinates": [[72.622528, 23.2119153], [72.6227538, 23.2117996], [72.6228804, 23.2120082], [72.6226546, 23.212124], [72.622528, 23.2119153]]}}, {"type": "Feature", "properties": {"osm_id": 386795608, "osm_type": "way", "name": "", "leisure": "park"}, "geometry": {"type": "LineString", "coordinates": [[72.6205059, 23.2086064], [72.6207317, 23.2084907], [72.6208583, 23.2086993], [72.6206325, 23.208815], [72.6205059, 23.2086064]]}}, {"type": "Feature", "properties": {"osm_id": 386795610, "osm_type": "way", "name": "", "leisure": "park"}, "geometry": {"type": "LineString", "coordinates": [[72.6233373, 23.2124], [72.6235631, 23.2122843], [72.6236897, 23.2124929], [72.6234639, 23.2126087], [72.6233373, 23.2124]]}}, {"type": "Feature", "properties": {"osm_id": 386795612, "osm_type": "way", "name": "", "leisure": "park"}, "geometry": {"type": "LineString", "coordinates": [[72.6200018, 23.2068957], [72.6202276, 23.2067799], [72.6203542, 23.2069886], [72.6201284, 23.2071043], [72.6200018, 23.2068957]]}}, {"type": "Feature", "properties": {"osm_id": 386795614, "osm_type": "way", "name": "", "leisure": "park"}, "geometry": {"type": "LineString", "coordinates": [[72.6298076, 23.2157741], [72.6300334, 23.2156584], [72.63016, 23.215867], [72.6299342, 23.2159828], [72.6298076, 23.2157741]]}}, {"type": "Feature", "properties": {"osm_id": 386795622, "osm_type": "way", "name": "", "leisure": "park"}, "geometry": {"type": "LineString", "coordinates": [[72.6215608, 23.2121728], [72.6217866, 23.2120571], [72.6219133, 23.2122657], [72.6216874, 23.2123815], [72.6215608, 23.2121728]]}}, {"type": "Feature", "properties": {"osm_id": 386795623, "osm_type": "way", "name": "", "leisure": "park"}, "geometry": {"type": "LineString", "coordinates": [[72.6240919, 23.2119751], [72.6243177, 23.2118594], [72.6244443, 23.212068], [72.6242185, 23.2121838], [72.6240919, 23.2119751]]}}, {"type": "Feature", "properties": {"osm_id": 386795624, "osm_type": "way", "name": "", "leisure": "park"}, "geometry": {"type": "LineString", "coordinates": [[72.622009, 23.2128635], [72.6222348, 23.2127478], [72.6223614, 23.2129564], [72.6221356, 23.2130721], [72.622009, 23.2128635]]}}, {"type": "Feature", "properties": {"osm_id": 386795625, "osm_type": "way", "name": "", "leisure": "park"}, "geometry": {"type": "LineString", "coordinates": [[72.6276079, 23.2056779], [72.6278337, 23.2055621], [72.6279604, 23.2057708], [72.6277345, 23.2058865], [72.6276079, 23.2056779]]}}, {"type": "Feature", "properties": {"osm_id": 386795626, "osm_type": "way", "name": "", "leisure": "park"}, "geometry": {"type": "LineString", "coordinates": [[72.6211391, 23.2114791], [72.6213649, 23.2113633], [72.6214916, 23.211572], [72.6212657, 23.2116877], [72.6211391, 23.2114791]]}}, {"type": "Feature", "properties": {"osm_id": 386795627, "osm_type": "way", "name": "", "leisure": "park"}, "geometry": {"type": "LineString", "coordinates": [[72.6238457, 23.2131637], [72.6240715, 23.2130479], [72.6241981, 23.2132566], [72.6239723, 23.2133723], [72.6238457, 23.2131637]]}}, {"type": "Feature", "properties": {"osm_id": 386795628, "osm_type": "way", "name": "", "leisure": "park"}, "geometry": {"type": "LineString", "coordinates": [[72.6204514, 23.2077081], [72.6206772, 23.2075923], [72.6208038, 23.207801], [72.620578, 23.2079167], [72.6204514, 23.2077081]]}}, {"type": "Feature", "properties": {"osm_id": 386795629, "osm_type": "way", "name": "", "leisure": "park"}, "geometry": {"type": "LineString", "coordinates": [[72.6288529, 23.2160285], [72.6290787, 23.2159128], [72.6292053, 23.2161214], [72.6289795, 23.2162371], [72.6288529, 23.2160285]]}}, {"type": "Feature", "properties": {"osm_id": 386795630, "osm_type": "way", "name": "", "leisure": "park"}, "geometry": {"type": "LineString", "coordinates": [[72.6220907, 23.2112228], [72.6223165, 23.211107], [72.6224431, 23.2113157], [72.6222173, 23.2114314], [72.6220907, 23.2112228]]}}, {"type": "Feature", "properties": {"osm_id": 386795631, "osm_type": "way", "name": "", "leisure": "park"}, "geometry": {"type": "LineString", "coordinates": [[72.6198817, 23.2094391], [72.6201075, 23.2093234], [72.6202341, 23.209532], [72.6200083, 23.2096478], [72.6198817, 23.2094391]]}}, {"type": "Feature", "properties": {"osm_id": 386795632, "osm_type": "way", "name": "", "leisure": "park"}, "geometry": {"type": "LineString", "coordinates": [[72.6293703, 23.2150688], [72.6295961, 23.2149531], [72.6297228, 23.2151617], [72.629497, 23.2152774], [72.6293703, 23.2150688]]}}, {"type": "Feature", "properties": {"osm_id": 386832836, "osm_type": "way", "name": "", "leisure": "park"}, "geometry": {"type": "LineString", "coordinates": [[72.6255342, 23.2159683], [72.62576, 23.2158526], [72.6258866, 23.2160612], [72.6256608, 23.2161769], [72.6255342, 23.2159683]]}}, {"type": "Feature", "properties": {"osm_id": 386832838, "osm_type": "way", "name": "", "leisure": "park"}, "geometry": {"type": "LineString", "coordinates": [[72.6305839, 23.20958], [72.6308097, 23.2094642], [72.6309363, 23.2096729], [72.6307105, 23.2097886], [72.6305839, 23.20958]]}}, {"type": "Feature", "properties": {"osm_id": 386832839, "osm_type": "way", "name": "", "leisure": "park"}, "geometry": {"type": "LineString", "coordinates": [[72.6273617, 23.2139794], [72.6275875, 23.2138636], [72.6277141, 23.2140723], [72.6274883, 23.214188], [72.6273617, 23.2139794]]}}, {"type": "Feature", "properties": {"osm_id": 386832842, "osm_type": "way", "name": "", "leisure": "park"}, "geometry": {"type": "LineString", "coordinates": [[72.6319547, 23.2046921], [72.6321805, 23.2045763], [72.6323071, 23.204785], [72.6320813, 23.2049007], [72.6319547, 23.2046921]]}}, {"type": "Feature", "properties": {"osm_id": 386832843, "osm_type": "way", "name": "", "leisure": "park"}, "geometry": {"type": "LineString", "coordinates": [[72.6284438, 23.2153289], [72.6286696, 23.2152131], [72.6287962, 23.2154218], [72.6285704, 23.2155375], [72.6284438, 23.2153289]]}}, {"type": "Feature", "properties": {"osm_id": 386832846, "osm_type": "way", "name": "", "leisure": "park"}, "geometry": {"type": "LineString", "coordinates": [[72.6269808, 23.2064654], [72.6272066, 23.2063496], [72.6273332, 23.2065583], [72.6271074, 23.206674], [72.6269808, 23.2064654]]}}, {"type": "Feature", "properties": {"osm_id": 386832847, "osm_type": "way", "name": "", "leisure": "park"}, "geometry": {"type": "LineString", "coordinates": [[72.6293893, 23.2085261], [72.6296151, 23.2084103], [72.6297417, 23.208619], [72.6295159, 23.2087347], [72.6293893, 23.2085261]]}}, {"type": "Feature", "properties": {"osm_id": 386832849, "osm_type": "way", "name": "", "leisure": "park"}, "geometry": {"type": "LineString", "coordinates": [[72.6318143, 23.2078737], [72.6320401, 23.2077579], [72.6321667, 23.2079666], [72.6319409, 23.2080823], [72.6318143, 23.2078737]]}}, {"type": "Feature", "properties": {"osm_id": 386832851, "osm_type": "way", "name": "", "leisure": "park"}, "geometry": {"type": "LineString", "coordinates": [[72.6289658, 23.2078315], [72.6291916, 23.2077157], [72.6293182, 23.2079244], [72.6290924, 23.2080401], [72.6289658, 23.2078315]]}}, {"type": "Feature", "properties": {"osm_id": 386832852, "osm_type": "way", "name": "", "leisure": "park"}, "geometry": {"type": "LineString", "coordinates": [[72.6322865, 23.2070555], [72.6325123, 23.2069397], [72.6326389, 23.2071484], [72.6324131, 23.2072641], [72.6322865, 23.2070555]]}}, {"type": "Feature", "properties": {"osm_id": 386832854, "osm_type": "way", "name": "", "leisure": "park"}, "geometry": {"type": "LineString", "coordinates": [[72.632687, 23.2084438], [72.6329128, 23.208328], [72.6330394, 23.2085367], [72.6328136, 23.2086524], [72.632687, 23.2084438]]}}, {"type": "Feature", "properties": {"osm_id": 386832855, "osm_type": "way", "name": "", "leisure": "park"}, "geometry": {"type": "LineString", "coordinates": [[72.6255817, 23.2168627], [72.6258075, 23.216747], [72.6259341, 23.2169556], [72.6257083, 23.2170713], [72.6255817, 23.2168627]]}}, {"type": "Feature", "properties": {"osm_id": 386832857, "osm_type": "way", "name": "", "leisure": "park"}, "geometry": {"type": "LineString", "coordinates": [[72.6301474, 23.2044997], [72.6303732, 23.2043839], [72.6304998, 23.2045926], [72.630274, 23.2047083], [72.6301474, 23.2044997]]}}, {"type": "Feature", "properties": {"osm_id": 386832858, "osm_type": "way", "name": "", "leisure": "park"}, "geometry": {"type": "LineString", "coordinates": [[72.6315186, 23.2039934], [72.6317444, 23.2038776], [72.631871, 23.2040863], [72.6316452, 23.204202], [72.6315186, 23.2039934]]}}, {"type": "Feature", "properties": {"osm_id": 386832860, "osm_type": "way", "name": "", "leisure": "park"}, "geometry": {"type": "LineString", "coordinates": [[72.6276162, 23.2148468], [72.627842, 23.214731], [72.6279686, 23.2149397], [72.6277428, 23.2150554], [72.6276162, 23.2148468]]}}, {"type": "Feature", "properties": {"osm_id": 386832861, "osm_type": "way", "name": "", "leisure": "park"}, "geometry": {"type": "LineString", "coordinates": [[72.6260127, 23.2175422], [72.6262385, 23.2174264], [72.6263651, 23.2176351], [72.6261393, 23.2177508], [72.6260127, 23.2175422]]}}, {"type": "Feature", "properties": {"osm_id": 386832863, "osm_type": "way", "name": "", "leisure": "park"}, "geometry": {"type": "LineString", "coordinates": [[72.6285708, 23.2090164], [72.6287966, 23.2089006], [72.6289232, 23.2091093], [72.6286974, 23.209225], [72.6285708, 23.2090164]]}}, {"type": "Feature", "properties": {"osm_id": 386832864, "osm_type": "way", "name": "", "leisure": "park"}, "geometry": {"type": "LineString", "coordinates": [[72.6266099, 23.2143701], [72.6268357, 23.2142543], [72.6269623, 23.214463], [72.6267365, 23.2145787], [72.6266099, 23.2143701]]}}, {"type": "Feature", "properties": {"osm_id": 386832866, "osm_type": "way", "name": "", "leisure": "park"}, "geometry": {"type": "LineString", "coordinates": [[72.6281501, 23.2083106], [72.6283759, 23.2081948], [72.6285025, 23.2084035], [72.6282767, 23.2085192], [72.6281501, 23.2083106]]}}, {"type": "Feature", "properties": {"osm_id": 386832867, "osm_type": "way", "name": "", "leisure": "park"}, "geometry": {"type": "LineString", "coordinates": [[72.6308194, 23.2121433], [72.6311613, 23.2119661], [72.6313538, 23.2122798], [72.6310119, 23.2124569], [72.6308194, 23.2121433]]}}, {"type": "Feature", "properties": {"osm_id": 386832869, "osm_type": "way", "name": "", "leisure": "park"}, "geometry": {"type": "LineString", "coordinates": [[72.6309982, 23.2049807], [72.631224, 23.2048649], [72.6313506, 23.2050736], [72.6311248, 23.2051893], [72.6309982, 23.2049807]]}}, {"type": "Feature", "properties": {"osm_id": 386832870, "osm_type": "way", "name": "", "leisure": "park"}, "geometry": {"type": "LineString", "coordinates": [[72.6277163, 23.2076238], [72.6279421, 23.207508], [72.6280687, 23.2077167], [72.6278429, 23.2078324], [72.6277163, 23.2076238]]}}, {"type": "Feature", "properties": {"osm_id": 386832872, "osm_type": "way", "name": "", "leisure": "park"}, "geometry": {"type": "LineString", "coordinates": [[72.6265464, 23.2057728], [72.6267722, 23.205657], [72.6268988, 23.2058657], [72.626673, 23.2059814], [72.6265464, 23.2057728]]}}, {"type": "Feature", "properties": {"osm_id": 386834786, "osm_type": "way", "name": "", "leisure": "park"}, "geometry": {"type": "LineString", "coordinates": [[72.6283704, 23.2197088], [72.6285962, 23.219593], [72.6287228, 23.2198017], [72.628497, 23.2199174], [72.6283704, 23.2197088]]}}, {"type": "Feature", "properties": {"osm_id": 386834931, "osm_type": "way", "name": "", "leisure": "park"}, "geometry": {"type": "LineString", "coordinates": [[72.6276324, 23.2201078], [72.6278582, 23.219992], [72.6279848, 23.2202007], [72.627759, 23.2203164], [72.6276324, 23.2201078]]}}, {"type": "Feature", "properties": {"osm_id": 386834932, "osm_type": "way", "name": "", "leisure": "park"}, "geometry": {"type": "LineString", "coordinates": [[72.628865, 23.2213812], [72.6290908, 23.2212654], [72.6292174, 23.2214741], [72.6289916, 23.2215898], [72.628865, 23.2213812]]}}, {"type": "Feature", "properties": {"osm_id": 386834934, "osm_type": "way", "name": "", "leisure": "park"}, "geometry": {"type": "LineString", "coordinates": [[72.6249108, 23.2175467], [72.6251366, 23.2174309], [72.6252632, 23.2176396], [72.6250374, 23.2177553], [72.6249108, 23.2175467]]}}, {"type": "Feature", "properties": {"osm_id": 386834935, "osm_type": "way", "name": "", "leisure": "park"}, "geometry": {"type": "LineString", "coordinates": [[72.6244733, 23.2168495], [72.6246991, 23.2167337], [72.6248257, 23.2169424], [72.6245999, 23.2170581], [72.6244733, 23.2168495]]}}, {"type": "Feature", "properties": {"osm_id": 386834936, "osm_type": "way", "name": "", "leisure": "park"}, "geometry": {"type": "LineString", "coordinates": [[72.6271906, 23.2194201], [72.6274164, 23.2193043], [72.627543, 23.219513], [72.6273172, 23.2196287], [72.6271906, 23.2194201]]}}, {"type": "Feature", "properties": {"osm_id": 386834938, "osm_type": "way", "name": "", "leisure": "park"}, "geometry": {"type": "LineString", "coordinates": [[72.625329, 23.2182297], [72.6255548, 23.2181139], [72.6256814, 23.2183225], [72.6254556, 23.2184382], [72.625329, 23.2182297]]}}, {"type": "Feature", "properties": {"osm_id": 386834939, "osm_type": "way", "name": "", "leisure": "park"}, "geometry": {"type": "LineString", "coordinates": [[72.6284502, 23.2205947], [72.628676, 23.2204789], [72.6288026, 23.2206876], [72.6285768, 23.2208033], [72.6284502, 23.2205947]]}}, {"type": "Feature", "properties": {"osm_id": 386834940, "osm_type": "way", "name": "", "leisure": "park"}, "geometry": {"type": "LineString", "coordinates": [[72.6269479, 23.2207807], [72.6271737, 23.2206649], [72.6273003, 23.2208736], [72.6270745, 23.2209893], [72.6269479, 23.2207807]]}}, {"type": "Feature", "properties": {"osm_id": 386834942, "osm_type": "way", "name": "", "leisure": "park"}, "geometry": {"type": "LineString", "coordinates": [[72.6302338, 23.2164465], [72.6304596, 23.2163307], [72.6305862, 23.2165393], [72.6303604, 23.216655], [72.6302338, 23.2164465]]}}, {"type": "Feature", "properties": {"osm_id": 386834943, "osm_type": "way", "name": "", "leisure": "park"}, "geometry": {"type": "LineString", "coordinates": [[72.629612, 23.2209899], [72.6298378, 23.2208741], [72.6299644, 23.2210828], [72.6297386, 23.2211985], [72.629612, 23.2209899]]}}, {"type": "Feature", "properties": {"osm_id": 387156533, "osm_type": "way", "name": "", "leisure": "park"}, "geometry": {"type": "LineString", "coordinates": [[72.6341763, 23.2225506], [72.6344021, 23.2224348], [72.6345287, 23.2226435], [72.6343029, 23.2227592], [72.6341763, 23.2225506]]}}, {"type": "Feature", "properties": {"osm_id": 387156534, "osm_type": "way", "name": "", "leisure": "park"}, "geometry": {"type": "LineString", "coordinates": [[72.6346227, 23.2232392], [72.6348485, 23.2231234], [72.6349751, 23.2233321], [72.6347493, 23.2234478], [72.6346227, 23.2232392]]}}, {"type": "Feature", "properties": {"osm_id": 387156535, "osm_type": "way", "name": "", "leisure": "park"}, "geometry": {"type": "LineString", "coordinates": [[72.631728, 23.2225444], [72.6319538, 23.2224286], [72.6320804, 23.2226372], [72.6318546, 23.2227529], [72.631728, 23.2225444]]}}, {"type": "Feature", "properties": {"osm_id": 387156536, "osm_type": "way", "name": "", "leisure": "park"}, "geometry": {"type": "LineString", "coordinates": [[72.633123, 23.2215033], [72.633427, 23.2213507], [72.6335966, 23.2216361], [72.6332926, 23.2217886], [72.633123, 23.2215033]]}}, {"type": "Feature", "properties": {"osm_id": 387156538, "osm_type": "way", "name": "", "leisure": "park"}, "geometry": {"type": "LineString", "coordinates": [[72.6324978, 23.222132], [72.6327236, 23.2220163], [72.6328502, 23.2222249], [72.6326244, 23.2223406], [72.6324978, 23.222132]]}}, {"type": "Feature", "properties": {"osm_id": 387193987, "osm_type": "way", "name": "", "leisure": "park"}, "geometry": {"type": "LineString", "coordinates": [[72.6381351, 23.2244115], [72.6383752, 23.2242778], [72.6385193, 23.2244963], [72.6382791, 23.22463], [72.6381351, 23.2244115]]}}, {"type": "Feature", "properties": {"osm_id": 387193988, "osm_type": "way", "name": "", "leisure": "park"}, "geometry": {"type": "LineString", "coordinates": [[72.6388041, 23.2254665], [72.6390534, 23.2253338], [72.6391801, 23.2255348], [72.6389307, 23.2256675], [72.6388041, 23.2254665]]}}, {"type": "Feature", "properties": {"osm_id": 387193990, "osm_type": "way", "name": "", "leisure": "park"}, "geometry": {"type": "LineString", "coordinates": [[72.6372193, 23.2229194], [72.6374735, 23.2227865], [72.6376257, 23.2230322], [72.6373715, 23.2231651], [72.6372193, 23.2229194]]}}, {"type": "Feature", "properties": {"osm_id": 387193991, "osm_type": "way", "name": "", "leisure": "park"}, "geometry": {"type": "LineString", "coordinates": [[72.6384376, 23.224901], [72.6386895, 23.2247687], [72.6388686, 23.2250567], [72.6386168, 23.225189], [72.6384376, 23.224901]]}}, {"type": "Feature", "properties": {"osm_id": 387193993, "osm_type": "way", "name": "", "leisure": "park"}, "geometry": {"type": "LineString", "coordinates": [[72.6368071, 23.2222509], [72.6370613, 23.2221179], [72.6372135, 23.2223636], [72.6369593, 23.2224966], [72.6368071, 23.2222509]]}}, {"type": "Feature", "properties": {"osm_id": 420552944, "osm_type": "way", "name": "Punit Van", "leisure": "park"}, "geometry": {"type": "LineString", "coordinates": [[72.6664975, 23.2192257], [72.6703378, 23.2171942], [72.6698416, 23.2158861], [72.6678528, 23.2149081], [72.6648597, 23.2166431], [72.6664975, 23.2192257]]}}, {"type": "Feature", "properties": {"osm_id": 455035337, "osm_type": "way", "name": "", "leisure": "park"}, "geometry": {"type": "LineString", "coordinates": [[72.6366268, 23.2001478], [72.6368781, 23.2000613], [72.6369726, 23.2002935], [72.6367214, 23.2003799], [72.6366268, 23.2001478]]}}, {"type": "Feature", "properties": {"osm_id": 455035340, "osm_type": "way", "name": "", "leisure": "park"}, "geometry": {"type": "LineString", "coordinates": [[72.6340999, 23.2003675], [72.6343458, 23.200294], [72.6344261, 23.2005212], [72.6341802, 23.2005946], [72.6340999, 23.2003675]]}}, {"type": "Feature", "properties": {"osm_id": 455035341, "osm_type": "way", "name": "", "leisure": "park"}, "geometry": {"type": "LineString", "coordinates": [[72.6329546, 23.2000236], [72.6332005, 23.1999501], [72.6332808, 23.2001773], [72.6330349, 23.2002507], [72.6329546, 23.2000236]]}}, {"type": "Feature", "properties": {"osm_id": 455035342, "osm_type": "way", "name": "", "leisure": "park"}, "geometry": {"type": "LineString", "coordinates": [[72.633192, 23.200786], [72.6334379, 23.2007124], [72.6335182, 23.2009397], [72.6332723, 23.2010131], [72.633192, 23.200786]]}}, {"type": "Feature", "properties": {"osm_id": 455035343, "osm_type": "way", "name": "", "leisure": "park"}, "geometry": {"type": "LineString", "coordinates": [[72.6334655, 23.2015268], [72.6337114, 23.2014533], [72.6337918, 23.2016805], [72.6335459, 23.2017539], [72.6334655, 23.2015268]]}}, {"type": "Feature", "properties": {"osm_id": 455035344, "osm_type": "way", "name": "", "leisure": "park"}, "geometry": {"type": "LineString", "coordinates": [[72.6287056, 23.2036787], [72.6289582, 23.2036279], [72.6290138, 23.2038613], [72.6287612, 23.2039121], [72.6287056, 23.2036787]]}}, {"type": "Feature", "properties": {"osm_id": 455035345, "osm_type": "way", "name": "", "leisure": "park"}, "geometry": {"type": "LineString", "coordinates": [[72.6295921, 23.2035086], [72.6298447, 23.2034578], [72.6299002, 23.2036912], [72.6296477, 23.203742], [72.6295921, 23.2035086]]}}, {"type": "Feature", "properties": {"osm_id": 455035635, "osm_type": "way", "name": "", "leisure": "park"}, "geometry": {"type": "LineString", "coordinates": [[72.6346048, 23.2019004], [72.6348709, 23.2018208], [72.6349579, 23.2020668], [72.6346918, 23.2021463], [72.6346048, 23.2019004]]}}, {"type": "Feature", "properties": {"osm_id": 455500034, "osm_type": "way", "name": "", "leisure": "park"}, "geometry": {"type": "LineString", "coordinates": [[72.6342848, 23.2008865], [72.6344501, 23.2013522], [72.6341366, 23.2014462], [72.6339713, 23.2009805], [72.6342848, 23.2008865]]}}, {"type": "Feature", "properties": {"osm_id": 455500035, "osm_type": "way", "name": "", "leisure": "park"}, "geometry": {"type": "LineString", "coordinates": [[72.6347948, 23.2007374], [72.6349648, 23.201208], [72.6347539, 23.2012723], [72.6345839, 23.2008018], [72.6347948, 23.2007374]]}}, {"type": "Feature", "properties": {"osm_id": 455500036, "osm_type": "way", "name": "", "leisure": "park"}, "geometry": {"type": "LineString", "coordinates": [[72.6350896, 23.2005551], [72.6354052, 23.2004633], [72.635483, 23.2006891], [72.6351674, 23.2007809], [72.6350896, 23.2005551]]}}, {"type": "Feature", "properties": {"osm_id": 541916262, "osm_type": "way", "name": "Sarita Udhyan", "leisure": "park"}, "geometry": {"type": "LineString", "coordinates": [[72.6577701, 23.2016678], [72.6576178, 23.201527], [72.657943, 23.2014161], [72.6586064, 23.2011544], [72.6599468, 23.2009493], [72.6605846, 23.2007159], [72.6607909, 23.2008973], [72.6612505, 23.2014497], [72.6621062, 23.2029528], [72.661899, 23.2030259], [72.661685, 23.2029843], [72.6615573, 23.2031013], [72.6611336, 23.2035602], [72.6603939, 23.2045503], [72.6593041, 23.2037515], [72.6579629, 23.2027993], [72.6574595, 23.2024576], [72.657865, 23.201847], [72.6577701, 23.2016678]]}}, {"type": "Feature", "properties": {"osm_id": 693618000, "osm_type": "way", "name": "Grass Field", "leisure": "park"}, "geometry": {"type": "LineString", "coordinates": [[72.6838193, 23.2134562], [72.6839748, 23.2135893], [72.6839775, 23.2136362], [72.6839909, 23.213895], [72.6840419, 23.2138975], [72.6840419, 23.2140429], [72.6840038, 23.2142786], [72.683269, 23.2135446], [72.6835832, 23.2134784], [72.6836262, 23.2134488], [72.6838193, 23.2134562]]}}, {"type": "Feature", "properties": {"osm_id": 693906756, "osm_type": "way", "name": "Sector-24 Garden", "leisure": "park"}, "geometry": {"type": "LineString", "coordinates": [[72.644614, 23.2436153], [72.6454746, 23.2431369], [72.6453117, 23.2428284], [72.6450027, 23.2423698], [72.6439993, 23.2426763], [72.644614, 23.2436153]]}}, {"type": "Feature", "properties": {"osm_id": 741045895, "osm_type": "way", "name": "Sector 3 New Garden", "leisure": "park"}, "geometry": {"type": "LineString", "coordinates": [[72.625553, 23.2015867], [72.6262157, 23.2014559], [72.6260449, 23.2006974], [72.6253619, 23.2008319], [72.6254473, 23.201213], [72.625553, 23.2015867]]}}, {"type": "Feature", "properties": {"osm_id": 761456873, "osm_type": "way", "name": "Sanskriti Kunj", "leisure": "park"}, "geometry": {"type": "LineString", "coordinates": [[72.6603939, 23.2045503], [72.6611336, 23.2035602], [72.6615573, 23.2031013], [72.661685, 23.2029843], [72.661899, 23.2030259], [72.6621062, 23.2029528], [72.6626563, 23.2034067], [72.6633403, 23.2038825], [72.6636669, 23.2040411], [72.6633649, 23.2050549], [72.6627672, 23.2065953], [72.6616519, 23.2055816], [72.6603939, 23.2045503]]}}, {"type": "Feature", "properties": {"osm_id": 843168321, "osm_type": "way", "name": "Sector 3 Park", "leisure": "park"}, "geometry": {"type": "LineString", "coordinates": [[72.6302301, 23.2063809], [72.6310739, 23.2064564], [72.6310824, 23.2065813], [72.6303132, 23.2069049], [72.6301622, 23.2069222], [72.6302301, 23.2063809]]}}, {"type": "Feature", "properties": {"osm_id": 964717146, "osm_type": "way", "name": "", "leisure": "park"}, "geometry": {"type": "LineString", "coordinates": [[72.6359888, 23.2311406], [72.6351685, 23.2298393], [72.6359741, 23.229413], [72.6357061, 23.2289661], [72.6365215, 23.22852], [72.6371086, 23.2294611], [72.6371507, 23.2294383], [72.6373003, 23.2297273], [72.6372812, 23.2297376], [72.6376533, 23.230334], [72.6371776, 23.2305906], [72.6360463, 23.2312073], [72.6359888, 23.2311406]]}}, {"type": "Feature", "properties": {"osm_id": 1004372786, "osm_type": "way", "name": "Panchvati Van", "leisure": "garden"}, "geometry": {"type": "LineString", "coordinates": [[72.668564, 23.2173769], [72.6685283, 23.2172986], [72.6684674, 23.2172348], [72.6683877, 23.2171921], [72.6682973, 23.2171747], [72.6682056, 23.2171846], [72.6681221, 23.2172208], [72.6680553, 23.2172793], [72.6680122, 23.2173544], [72.6679972, 23.2174381], [72.6680119, 23.2175218], [72.6680547, 23.217597], [72.6681273, 23.2176596], [72.6682188, 23.2176956], [72.6683181, 23.2177008], [72.6684135, 23.2176746], [72.6684933, 23.21762], [72.6685482, 23.2175437], [72.6685709, 23.2174615], [72.668564, 23.2173769]]}}, {"type": "Feature", "properties": {"osm_id": 1004372787, "osm_type": "way", "name": "Nakshatra Van", "leisure": "garden"}, "geometry": {"type": "LineString", "coordinates": [[72.6681443, 23.2169638], [72.6681386, 23.2168676], [72.6680995, 23.2167782], [72.668031, 23.2167053], [72.6679405, 23.2166566], [72.6678378, 23.2166373], [72.6677338, 23.2166497], [72.6676397, 23.2166922], [72.6675657, 23.2167604], [72.6675196, 23.2168469], [72.6675063, 23.2169425], [72.6675275, 23.2170369], [72.6675817, 23.2171211], [72.667663, 23.2171843], [72.6677623, 23.2172195], [72.6678687, 23.2172228], [72.6679704, 23.2171939], [72.6680562, 23.2171358], [72.6681157, 23.2170566], [72.6681443, 23.2169638]]}}, {"type": "Feature", "properties": {"osm_id": 1004372788, "osm_type": "way", "name": "Arogya Van", "leisure": "garden"}, "geometry": {"type": "LineString", "coordinates": [[72.6668158, 23.2169559], [72.6669882, 23.2169669], [72.6670503, 23.2170867], [72.6674172, 23.2171254], [72.6674773, 23.2171235], [72.6674954, 23.2166813], [72.6669441, 23.2166555], [72.6667777, 23.216744], [72.6668158, 23.2169559]]}}, {"type": "Feature", "properties": {"osm_id": 1004372790, "osm_type": "way", "name": "Rashi Van", "leisure": "garden"}, "geometry": {"type": "LineString", "coordinates": [[72.6664325, 23.2174948], [72.6661675, 23.2174878], [72.6661751, 23.217246], [72.6664401, 23.2172531], [72.6664325, 23.2174948]]}}, {"type": "Feature", "properties": {"osm_id": 1004372792, "osm_type": "way", "name": "Nav Grah Van", "leisure": "garden"}, "geometry": {"type": "LineString", "coordinates": [[72.6666879, 23.2182322], [72.6663691, 23.2182342], [72.666367, 23.2179536], [72.6666858, 23.2179516], [72.6666879, 23.2182322]]}}, {"type": "Feature", "properties": {"osm_id": 1135177876, "osm_type": "way", "name": "Jal Mandap", "leisure": "park"}, "geometry": {"type": "LineString", "coordinates": [[72.6862724, 23.2076706], [72.686408, 23.2076643], [72.6864124, 23.2073504], [72.6863251, 23.2072895], [72.6862076, 23.2072397], [72.6860992, 23.2072702], [72.6861504, 23.2073117], [72.6861474, 23.2073781], [72.6861842, 23.2076747], [72.6862724, 23.2076706]]}}, {"type": "Feature", "properties": {"osm_id": 1327450591, "osm_type": "way", "name": "Sector 21 Park", "leisure": "park"}, "geometry": {"type": "LineString", "coordinates": [[72.6644667, 23.235328], [72.6650553, 23.2350172], [72.6650507, 23.2349586], [72.6650438, 23.234871], [72.6645706, 23.2346127], [72.6645211, 23.2346776], [72.664468, 23.2346472], [72.6642162, 23.2349383], [72.6644667, 23.235328]]}}, {"type": "Feature", "properties": {"osm_id": 1333612482, "osm_type": "way", "name": "Sector 30 Park", "leisure": "park"}, "geometry": {"type": "LineString", "coordinates": [[72.6723747, 23.237125], [72.6730422, 23.238156], [72.6724926, 23.2384576], [72.6715226, 23.2389866], [72.6708551, 23.2379556], [72.6723747, 23.237125]]}}, {"type": "Feature", "properties": {"osm_id": 1368282484, "osm_type": "way", "name": "", "leisure": "park"}, "geometry": {"type": "LineString", "coordinates": [[72.6644255, 23.231688], [72.6645626, 23.2317036], [72.6657444, 23.2318491], [72.6657476, 23.2315395], [72.6654716, 23.2316667], [72.6653997, 23.231509], [72.6651035, 23.2316271], [72.6649903, 23.2313848], [72.6644255, 23.231688]]}}, {"type": "Feature", "properties": {"osm_id": 1368595670, "osm_type": "way", "name": "Bili Van", "leisure": "garden"}, "geometry": {"type": "LineString", "coordinates": [[72.6665321, 23.2171997], [72.6665269, 23.2175713], [72.6667599, 23.2175741], [72.6667651, 23.2172025], [72.6665321, 23.2171997]]}}, {"type": "Feature", "properties": {"osm_id": 1368615197, "osm_type": "way", "name": "", "leisure": "garden"}, "geometry": {"type": "LineString", "coordinates": [[72.6676211, 23.2179964], [72.6680427, 23.2178089], [72.6678522, 23.2173851], [72.6674874, 23.2175288], [72.6674267, 23.2175751], [72.6676211, 23.2179964]]}}]}