{"type": "FeatureCollection", "features": [{"type": "Feature", "properties": {"osm_id": 3775187616, "osm_type": "node", "name": "CHANDLODIA MARKET", "amenity": "marketplace"}, "geometry": {"type": "Point", "coordinates": [72.5415308, 23.0891843]}}, {"type": "Feature", "properties": {"osm_id": 8138856440, "osm_type": "node", "name": "4D Square mall.", "shop": "mall"}, "geometry": {"type": "Point", "coordinates": [72.5957915, 23.1029944]}}, {"type": "Feature", "properties": {"osm_id": 454888532, "osm_type": "way", "name": "Shoppers’ Plaza", "shop": "mall", "building": "retail"}, "geometry": {"type": "LineString", "coordinates": [[72.5389431, 23.1639494], [72.5395364, 23.1643141], [72.5397777, 23.1639823], [72.5396602, 23.1639101], [72.5395241, 23.1640972], [72.5391735, 23.1638921], [72.5393174, 23.1636919], [72.5391874, 23.1636135], [72.5389431, 23.1639494]]}}, {"type": "Feature", "properties": {"osm_id": 1104384659, "osm_type": "way", "name": "Swagat Mall", "shop": "mall", "building": "yes"}, "geometry": {"type": "LineString", "coordinates": [[72.5872136, 23.160404], [72.587274, 23.1600529], [72.5875353, 23.1601021], [72.5874817, 23.1604574], [72.5872136, 23.160404]]}}, {"type": "Feature", "properties": {"osm_id": 1180003746, "osm_type": "way", "name": "Aradhna Clothing", "shop": "mall", "building": "yes"}, "geometry": {"type": "LineString", "coordinates": [[72.5814402, 23.1085926], [72.5814165, 23.1084975], [72.5815204, 23.1084673], [72.5815521, 23.1086055], [72.5814402, 23.1085926]]}}, {"type": "Feature", "properties": {"osm_id": 1180014250, "osm_type": "way", "name": "", "shop": "mall", "building": "retail"}, "geometry": {"type": "LineString", "coordinates": [[72.5950767, 23.1026354], [72.5955848, 23.1023672], [72.5964356, 23.1035571], [72.5961466, 23.10369], [72.5955794, 23.1032549], [72.5954591, 23.1030504], [72.5952526, 23.1029823], [72.5950892, 23.1027518], [72.5950767, 23.1026354]]}}, {"type": "Feature", "properties": {"osm_id": 369657149, "osm_type": "way", "name": "Agora Mall", "shop": "mall", "building": "retail"}, "geometry": {"type": "LineString", "coordinates": [[72.6242263, 23.1190395], [72.6249665, 23.1189544], [72.624958, 23.1188913], [72.6250998, 23.118875], [72.6249832, 23.1180175], [72.6242899, 23.1180867], [72.6242955, 23.1181798], [72.6242042, 23.1182894], [72.6241255, 23.1182985], [72.6242263, 23.1190395]]}}, {"type": "Feature", "properties": {"osm_id": 401950864, "osm_type": "way", "name": "", "shop": "mall", "building": "retail"}, "geometry": {"type": "LineString", "coordinates": [[72.6352384, 23.1933037], [72.6358892, 23.1932446], [72.6358788, 23.1931477], [72.6359258, 23.1931435], [72.635911, 23.1930061], [72.6358593, 23.1929951], [72.6358498, 23.1929065], [72.6352171, 23.192964], [72.6352313, 23.193096], [72.635151, 23.1931033], [72.6351639, 23.1932228], [72.6352291, 23.1932168], [72.6352384, 23.1933037]]}}, {"type": "Feature", "properties": {"osm_id": 401950865, "osm_type": "way", "name": "", "shop": "mall", "building": "retail"}, "geometry": {"type": "LineString", "coordinates": [[72.6361333, 23.1931274], [72.636184, 23.1931243], [72.636189, 23.1931923], [72.6368846, 23.1931491], [72.636862, 23.1928425], [72.6367521, 23.1928493], [72.6367481, 23.1927948], [72.6362475, 23.1928258], [72.6362564, 23.1929459], [72.6361718, 23.1929511], [72.6361769, 23.1930215], [72.6361257, 23.1930247], [72.6361333, 23.1931274]]}}, {"type": "Feature", "properties": {"osm_id": 401951034, "osm_type": "way", "name": "", "shop": "mall", "building": "retail"}, "geometry": {"type": "LineString", "coordinates": [[72.6291023, 23.1845792], [72.6292938, 23.1845547], [72.6292736, 23.1844213], [72.6291905, 23.1844319], [72.629184, 23.1843888], [72.6292733, 23.1843774], [72.6292357, 23.1841289], [72.6291461, 23.1841404], [72.6291419, 23.1841123], [72.6292409, 23.1840997], [72.6292009, 23.1838348], [72.6291363, 23.1838431], [72.6291305, 23.1838043], [72.6291825, 23.1837977], [72.6291051, 23.1832863], [72.6289104, 23.1833112], [72.6291023, 23.1845792]]}}, {"type": "Feature", "properties": {"osm_id": 1337372835, "osm_type": "way", "name": "Sector 21 Market", "amenity": "marketplace", "building": "warehouse"}, "geometry": {"type": "LineString", "coordinates": [[72.6672574, 23.231357], [72.6668774, 23.2307409], [72.6664963, 23.2309394], [72.6666473, 23.2311842], [72.6664333, 23.2312957], [72.6666623, 23.231667], [72.6672574, 23.231357]]}}]}