{"type": "FeatureCollection", "features": [{"type": "Feature", "properties": {"osm_id": 611572691, "osm_type": "node", "name": "", "amenity": "hospital"}, "geometry": {"type": "Point", "coordinates": [72.5917525, 23.0924908]}}, {"type": "Feature", "properties": {"osm_id": 1349429248, "osm_type": "node", "name": "Health Center", "amenity": "hospital"}, "geometry": {"type": "Point", "coordinates": [72.5679365, 23.1039413]}}, {"type": "Feature", "properties": {"osm_id": 2211706795, "osm_type": "node", "name": "Kesharbhavani Medical Store", "amenity": "pharmacy"}, "geometry": {"type": "Point", "coordinates": [72.5643816, 23.0855329]}}, {"type": "Feature", "properties": {"osm_id": 3500454471, "osm_type": "node", "name": "Geeta Maternity Hospital", "amenity": "hospital"}, "geometry": {"type": "Point", "coordinates": [72.5901213, 23.0836049]}}, {"type": "Feature", "properties": {"osm_id": 3500459652, "osm_type": "node", "name": "Sabarmati Development Society Sanchalit Sheth Shri Pukhraj Raichand General Hospital", "amenity": "hospital"}, "geometry": {"type": "Point", "coordinates": [72.5906964, 23.0829627]}}, {"type": "Feature", "properties": {"osm_id": 4330126136, "osm_type": "node", "name": "Amba Health Centre & Hospital", "amenity": "hospital"}, "geometry": {"type": "Point", "coordinates": [72.5753408, 23.1764265]}}, {"type": "Feature", "properties": {"osm_id": 4415934891, "osm_type": "node", "name": "vizcare hospital", "amenity": "hospital"}, "geometry": {"type": "Point", "coordinates": [72.5363217, 23.0997272]}}, {"type": "Feature", "properties": {"osm_id": 4423349191, "osm_type": "node", "name": "Aryan's Villa💞", "amenity": "pharmacy"}, "geometry": {"type": "Point", "coordinates": [72.584299, 23.0882437]}}, {"type": "Feature", "properties": {"osm_id": 4518445195, "osm_type": "node", "name": "West Cost pharma", "amenity": "pharmacy"}, "geometry": {"type": "Point", "coordinates": [72.536757, 23.087526]}}, {"type": "Feature", "properties": {"osm_id": 4572892513, "osm_type": "node", "name": "Aalisha Clinic", "amenity": "hospital"}, "geometry": {"type": "Point", "coordinates": [72.5638235, 23.0858856]}}, {"type": "Feature", "properties": {"osm_id": 4572893586, "osm_type": "node", "name": "BalMukund Hospital", "amenity": "hospital"}, "geometry": {"type": "Point", "coordinates": [72.5592841, 23.0932069]}}, {"type": "Feature", "properties": {"osm_id": 4585303203, "osm_type": "node", "name": "S G Hospital Chandlodiya", "amenity": "hospital"}, "geometry": {"type": "Point", "coordinates": [72.5512244, 23.0848906]}}, {"type": "Feature", "properties": {"osm_id": 6968717638, "osm_type": "node", "name": "Vasudha Eye Hospital", "amenity": "hospital"}, "geometry": {"type": "Point", "coordinates": [72.5895064, 23.0834466]}}, {"type": "Feature", "properties": {"osm_id": 6969952025, "osm_type": "node", "name": "Samata Hospital Pvt.Ltd", "amenity": "hospital"}, "geometry": {"type": "Point", "coordinates": [72.5469075, 23.0827039]}}, {"type": "Feature", "properties": {"osm_id": 6970058728, "osm_type": "node", "name": "Satyam Children Hospital", "amenity": "hospital"}, "geometry": {"type": "Point", "coordinates": [72.5838657, 23.1148697]}}, {"type": "Feature", "properties": {"osm_id": 6970426107, "osm_type": "node", "name": "Om Pediatric and Neonatal Criticare Hospital", "amenity": "hospital"}, "geometry": {"type": "Point", "coordinates": [72.5914751, 23.0997283]}}, {"type": "Feature", "properties": {"osm_id": 6970445298, "osm_type": "node", "name": "Kalyani Nursing Home and Sonography Clinic", "amenity": "clinic"}, "geometry": {"type": "Point", "coordinates": [72.571388, 23.1022078]}}, {"type": "Feature", "properties": {"osm_id": 6970516275, "osm_type": "node", "name": "Shilp E.N.T Clinic and Hospital", "amenity": "hospital"}, "geometry": {"type": "Point", "coordinates": [72.5930405, 23.1089581]}}, {"type": "Feature", "properties": {"osm_id": 6970537843, "osm_type": "node", "name": "Netra Jyoti Eye and Ent Hospital", "amenity": "hospital"}, "geometry": {"type": "Point", "coordinates": [72.588505, 23.1093376]}}, {"type": "Feature", "properties": {"osm_id": 6970546258, "osm_type": "node", "name": "Utkarsh Hospital, Ahmedabad", "amenity": "hospital"}, "geometry": {"type": "Point", "coordinates": [72.5783663, 23.1078991]}}, {"type": "Feature", "properties": {"osm_id": 6970569366, "osm_type": "node", "name": "Panchshil Hospital", "amenity": "hospital"}, "geometry": {"type": "Point", "coordinates": [72.5919754, 23.0843348]}}, {"type": "Feature", "properties": {"osm_id": 6970732333, "osm_type": "node", "name": "Khara Fracture and Orthopaedic Hospital", "amenity": "hospital"}, "geometry": {"type": "Point", "coordinates": [72.5887057, 23.0826952]}}, {"type": "Feature", "properties": {"osm_id": 6974503519, "osm_type": "node", "name": "Sivmm Kidney Hospital", "amenity": "hospital"}, "geometry": {"type": "Point", "coordinates": [72.5912216, 23.0834799]}}, {"type": "Feature", "properties": {"osm_id": 6974530664, "osm_type": "node", "name": "Sharda Eye Hospital", "amenity": "hospital"}, "geometry": {"type": "Point", "coordinates": [72.5920974, 23.0870576]}}, {"type": "Feature", "properties": {"osm_id": 6974791050, "osm_type": "node", "name": "Dhruvi ENT Hospital", "amenity": "hospital"}, "geometry": {"type": "Point", "coordinates": [72.5922891, 23.0872193]}}, {"type": "Feature", "properties": {"osm_id": 6975631040, "osm_type": "node", "name": "Neelkamal Hospital Pvt Ltd (Pooja Hospital)", "amenity": "hospital"}, "geometry": {"type": "Point", "coordinates": [72.5912485, 23.0838969]}}, {"type": "Feature", "properties": {"osm_id": 6975679362, "osm_type": "node", "name": "Sanskar Heart Care And Medical Hospital", "amenity": "hospital"}, "geometry": {"type": "Point", "coordinates": [72.5891134, 23.0981234]}}, {"type": "Feature", "properties": {"osm_id": 6975854571, "osm_type": "node", "name": "Pushpa Children Hospital and Neonatal Care", "amenity": "hospital"}, "geometry": {"type": "Point", "coordinates": [72.5980747, 23.1067781]}}, {"type": "Feature", "properties": {"osm_id": 6976113864, "osm_type": "node", "name": "Divya Jyot Eye Hospital", "amenity": "hospital"}, "geometry": {"type": "Point", "coordinates": [72.5911814, 23.0838463]}}, {"type": "Feature", "properties": {"osm_id": 6976136403, "osm_type": "node", "name": "Satyamev Hospital", "amenity": "hospital"}, "geometry": {"type": "Point", "coordinates": [72.5815442, 23.1204422]}}, {"type": "Feature", "properties": {"osm_id": 6977866283, "osm_type": "node", "name": "Pushpam Hospital, Ahmedabad", "amenity": "hospital"}, "geometry": {"type": "Point", "coordinates": [72.5697277, 23.1029936]}}, {"type": "Feature", "properties": {"osm_id": 6978978091, "osm_type": "node", "name": "Amrut Arogyadham Medical Hospital", "amenity": "hospital"}, "geometry": {"type": "Point", "coordinates": [72.5849734, 23.1105464]}}, {"type": "Feature", "properties": {"osm_id": 6979224512, "osm_type": "node", "name": "Jainee Surgical Hospital", "amenity": "hospital"}, "geometry": {"type": "Point", "coordinates": [72.5666606, 23.0803277]}}, {"type": "Feature", "properties": {"osm_id": 6980252878, "osm_type": "node", "name": "Amruta Hospital and Heart Centre", "amenity": "hospital"}, "geometry": {"type": "Point", "coordinates": [72.5896941, 23.082678]}}, {"type": "Feature", "properties": {"osm_id": 6981277613, "osm_type": "node", "name": "Shree Aman Hospital", "amenity": "hospital"}, "geometry": {"type": "Point", "coordinates": [72.5914161, 23.0844866]}}, {"type": "Feature", "properties": {"osm_id": 6981412703, "osm_type": "node", "name": "Parth Hospital, Ahmedabad", "amenity": "hospital"}, "geometry": {"type": "Point", "coordinates": [72.5889122, 23.0837834]}}, {"type": "Feature", "properties": {"osm_id": 6981501666, "osm_type": "node", "name": "Sanjivani Heart And Medical Hospital - Gandhinagar", "amenity": "hospital"}, "geometry": {"type": "Point", "coordinates": [72.6132895, 23.1924861]}}, {"type": "Feature", "properties": {"osm_id": 6981956892, "osm_type": "node", "name": "Sanjivan Heart and Medical Hospital", "amenity": "hospital"}, "geometry": {"type": "Point", "coordinates": [72.5903244, 23.0837698]}}, {"type": "Feature", "properties": {"osm_id": 6983440879, "osm_type": "node", "name": "Shri Yogeshwar General Hospital", "amenity": "hospital"}, "geometry": {"type": "Point", "coordinates": [72.5380576, 23.0812863]}}, {"type": "Feature", "properties": {"osm_id": 6983511155, "osm_type": "node", "name": "Mahalaxmi Maternity Nursing Home and Sonography Center", "amenity": "clinic"}, "geometry": {"type": "Point", "coordinates": [72.5355068, 23.0804227]}}, {"type": "Feature", "properties": {"osm_id": 6983617695, "osm_type": "node", "name": "Shreeji Clinic and Nursing Home", "amenity": "clinic"}, "geometry": {"type": "Point", "coordinates": [72.5911599, 23.0835144]}}, {"type": "Feature", "properties": {"osm_id": 6986103057, "osm_type": "node", "name": "Dr Yashvant Chhatbar", "amenity": "doctors"}, "geometry": {"type": "Point", "coordinates": [72.571964, 23.1111304]}}, {"type": "Feature", "properties": {"osm_id": 6986279344, "osm_type": "node", "name": "Government hospital Adalaj", "amenity": "hospital"}, "geometry": {"type": "Point", "coordinates": [72.5857745, 23.167703]}}, {"type": "Feature", "properties": {"osm_id": 6986602457, "osm_type": "node", "name": "Shree Sai Children Hospital", "amenity": "hospital"}, "geometry": {"type": "Point", "coordinates": [72.5838912, 23.1146062]}}, {"type": "Feature", "properties": {"osm_id": 6987724550, "osm_type": "node", "name": "Vinayak Children Hospital-Ahmedabad", "amenity": "hospital"}, "geometry": {"type": "Point", "coordinates": [72.5679736, 23.0804356]}}, {"type": "Feature", "properties": {"osm_id": 6988048676, "osm_type": "node", "name": "Aashirwad Surgical Hospital and Nursing Home", "amenity": "hospital"}, "geometry": {"type": "Point", "coordinates": [72.5911881, 23.0839074]}}, {"type": "Feature", "properties": {"osm_id": 6990752682, "osm_type": "node", "name": "Shreyas Orthopedic Hospital, Ahmedabad", "amenity": "hospital"}, "geometry": {"type": "Point", "coordinates": [72.5822818, 23.1154284]}}, {"type": "Feature", "properties": {"osm_id": 6993572196, "osm_type": "node", "name": "Mahavir Clinic & Nursing Home", "amenity": "clinic"}, "geometry": {"type": "Point", "coordinates": [72.5696943, 23.1059184]}}, {"type": "Feature", "properties": {"osm_id": 7864058598, "osm_type": "node", "name": "Sevak Maternity & Surgical Hospital", "amenity": "hospital"}, "geometry": {"type": "Point", "coordinates": [72.596062, 23.096892]}}, {"type": "Feature", "properties": {"osm_id": 7864058601, "osm_type": "node", "name": "Navjivan Hospital", "amenity": "hospital"}, "geometry": {"type": "Point", "coordinates": [72.581545, 23.114943]}}, {"type": "Feature", "properties": {"osm_id": 7864058605, "osm_type": "node", "name": "Pushp Hospital and Maternity Home", "amenity": "hospital"}, "geometry": {"type": "Point", "coordinates": [72.578769, 23.114332]}}, {"type": "Feature", "properties": {"osm_id": 7864058606, "osm_type": "node", "name": "Devarshi Super Speciality Hospital", "amenity": "hospital"}, "geometry": {"type": "Point", "coordinates": [72.582052, 23.122105]}}, {"type": "Feature", "properties": {"osm_id": 7864058613, "osm_type": "node", "name": "Rajdip Children Hospital", "amenity": "hospital"}, "geometry": {"type": "Point", "coordinates": [72.590307, 23.08992]}}, {"type": "Feature", "properties": {"osm_id": 7864058615, "osm_type": "node", "name": "Navodaya Hospital for Neonates and Children", "amenity": "hospital"}, "geometry": {"type": "Point", "coordinates": [72.5847083, 23.1112092]}}, {"type": "Feature", "properties": {"osm_id": 7864058617, "osm_type": "node", "name": "Chandkheda Orthopedic & Surgical Hospital", "amenity": "hospital"}, "geometry": {"type": "Point", "coordinates": [72.583096, 23.113705]}}, {"type": "Feature", "properties": {"osm_id": 7864058619, "osm_type": "node", "name": "Parimal Hospital", "amenity": "hospital"}, "geometry": {"type": "Point", "coordinates": [72.5958301, 23.0958571]}}, {"type": "Feature", "properties": {"osm_id": 7864058621, "osm_type": "node", "name": "Shivam Surgical and Dental Hospital", "amenity": "hospital"}, "geometry": {"type": "Point", "coordinates": [72.582827, 23.114583]}}, {"type": "Feature", "properties": {"osm_id": 7864058637, "osm_type": "node", "name": "Ansh Multispeciality Hospital", "amenity": "hospital"}, "geometry": {"type": "Point", "coordinates": [72.580661, 23.114667]}}, {"type": "Feature", "properties": {"osm_id": 7864058639, "osm_type": "node", "name": "Sentara Multispeciality Hospital", "amenity": "hospital"}, "geometry": {"type": "Point", "coordinates": [72.5834513, 23.1125242]}}, {"type": "Feature", "properties": {"osm_id": 7864058644, "osm_type": "node", "name": "Rhythm Heart and Medical Hospital", "amenity": "hospital"}, "geometry": {"type": "Point", "coordinates": [72.583182, 23.113388]}}, {"type": "Feature", "properties": {"osm_id": 7864058646, "osm_type": "node", "name": "Lotus Multispeciality Hospital", "amenity": "hospital"}, "geometry": {"type": "Point", "coordinates": [72.6025578, 23.1044464]}}, {"type": "Feature", "properties": {"osm_id": 7864058656, "osm_type": "node", "name": "Indus Hospital", "amenity": "hospital"}, "geometry": {"type": "Point", "coordinates": [72.591111, 23.092043]}}, {"type": "Feature", "properties": {"osm_id": 7864058661, "osm_type": "node", "name": "Param Multispeciality Hospital", "amenity": "hospital"}, "geometry": {"type": "Point", "coordinates": [72.5976157, 23.1047391]}}, {"type": "Feature", "properties": {"osm_id": 7864133778, "osm_type": "node", "name": "Hridaan Hospital & Pharmacy", "amenity": "hospital"}, "geometry": {"type": "Point", "coordinates": [72.5469031, 23.0943467]}}, {"type": "Feature", "properties": {"osm_id": 7864133836, "osm_type": "node", "name": "Satyam Hospital", "amenity": "hospital"}, "geometry": {"type": "Point", "coordinates": [72.546777, 23.0940118]}}, {"type": "Feature", "properties": {"osm_id": 7867000272, "osm_type": "node", "name": "Skin and Cosmetology Clinic", "amenity": "clinic"}, "geometry": {"type": "Point", "coordinates": [72.6083933, 23.1898721]}}, {"type": "Feature", "properties": {"osm_id": 7867000276, "osm_type": "node", "name": "Vishwas Kamdhenu Panchgavya Aarogya Hospital", "amenity": "hospital"}, "geometry": {"type": "Point", "coordinates": [72.6129583, 23.1691147]}}, {"type": "Feature", "properties": {"osm_id": 7867000299, "osm_type": "node", "name": "Om Prasuti Gruha Hospital", "amenity": "hospital"}, "geometry": {"type": "Point", "coordinates": [72.5871116, 23.1616888]}}, {"type": "Feature", "properties": {"osm_id": 9316233976, "osm_type": "node", "name": "", "amenity": "pharmacy"}, "geometry": {"type": "Point", "coordinates": [72.5752779, 23.1763677]}}, {"type": "Feature", "properties": {"osm_id": 10839117487, "osm_type": "node", "name": "KD Blossom", "amenity": "hospital"}, "geometry": {"type": "Point", "coordinates": [72.5415625, 23.1354749]}}, {"type": "Feature", "properties": {"osm_id": 11119044788, "osm_type": "node", "name": "Dr Alka Makwana - Arista Skin, Hair and Laser Clinic", "amenity": "doctors"}, "geometry": {"type": "Point", "coordinates": [72.5459217, 23.092598]}}, {"type": "Feature", "properties": {"osm_id": 11290225014, "osm_type": "node", "name": "Dr. Arora's Orthodontic & Dental Clinic", "amenity": "doctors"}, "geometry": {"type": "Point", "coordinates": [72.5952869, 23.1089092]}}, {"type": "Feature", "properties": {"osm_id": 368781664, "osm_type": "way", "name": "", "amenity": "hospital"}, "geometry": {"type": "LineString", "coordinates": [[72.58175, 23.121959], [72.581798, 23.122107], [72.5818768, 23.1223203], [72.5822663, 23.1221473], [72.582215, 23.1218332], [72.5819556, 23.1219096], [72.58175, 23.121959]]}}, {"type": "Feature", "properties": {"osm_id": 551631340, "osm_type": "way", "name": "SMS Multi-Speciality Hospital", "amenity": "hospital"}, "geometry": {"type": "LineString", "coordinates": [[72.6060982, 23.1184582], [72.606121, 23.1181839], [72.6061801, 23.1174764], [72.6053326, 23.1172977], [72.6057511, 23.1156858], [72.6067038, 23.1157249], [72.6072645, 23.1156956], [72.6079511, 23.1156156], [72.6089981, 23.1153706], [72.6102847, 23.116402], [72.6099057, 23.1168235], [72.6103152, 23.1171437], [72.6099345, 23.1176924], [72.6098346, 23.1179302], [72.6097559, 23.1181778], [72.6097137, 23.1183613], [72.6096661, 23.1187088], [72.6060982, 23.1184582]]}}, {"type": "Feature", "properties": {"osm_id": 744794009, "osm_type": "way", "name": "Utkarsh hospital", "amenity": "hospital"}, "geometry": {"type": "LineString", "coordinates": [[72.5783674, 23.1079764], [72.5784506, 23.1079775], [72.578453, 23.1078226], [72.5783086, 23.1078207], [72.5783066, 23.1079513], [72.5783037, 23.1080319], [72.5783653, 23.1080338], [72.5783674, 23.1079764]]}}, {"type": "Feature", "properties": {"osm_id": 1153428084, "osm_type": "way", "name": "Community Health Centre, Chandkheda", "amenity": "hospital"}, "geometry": {"type": "LineString", "coordinates": [[72.5759983, 23.1136379], [72.5755978, 23.1136017], [72.5755352, 23.1134701], [72.5755852, 23.1132218], [72.5757033, 23.1129866], [72.5758195, 23.1130277], [72.5760788, 23.1131741], [72.5759983, 23.1136379]]}}, {"type": "Feature", "properties": {"osm_id": 6968717606, "osm_type": "node", "name": "Jeevandeep Hospital, Sardanagar", "amenity": "hospital"}, "geometry": {"type": "Point", "coordinates": [72.6335469, 23.0856728]}}, {"type": "Feature", "properties": {"osm_id": 6974913360, "osm_type": "node", "name": "Kothari Hospital, Ahmedabad", "amenity": "hospital"}, "geometry": {"type": "Point", "coordinates": [72.6305442, 23.0855562]}}, {"type": "Feature", "properties": {"osm_id": 6975593887, "osm_type": "node", "name": "Gayathri Hospital, Ahmedabad", "amenity": "hospital"}, "geometry": {"type": "Point", "coordinates": [72.6659513, 23.1018186]}}, {"type": "Feature", "properties": {"osm_id": 6979173508, "osm_type": "node", "name": "Kanoria Hospital And Research Centre, Gandhinagar", "amenity": "hospital"}, "geometry": {"type": "Point", "coordinates": [72.6285593, 23.0993792]}}, {"type": "Feature", "properties": {"osm_id": 6986605704, "osm_type": "node", "name": "Shivam Medical Hospital, Sardar Nagar", "amenity": "hospital"}, "geometry": {"type": "Point", "coordinates": [72.6213037, 23.0809819]}}, {"type": "Feature", "properties": {"osm_id": 6990786215, "osm_type": "node", "name": "Gujarat Research And Medical Institute Hospital", "amenity": "hospital"}, "geometry": {"type": "Point", "coordinates": [72.628334, 23.0869528]}}, {"type": "Feature", "properties": {"osm_id": 7867000250, "osm_type": "node", "name": "Sanjivani Babycare Hospital", "amenity": "hospital"}, "geometry": {"type": "Point", "coordinates": [72.633425, 23.179368]}}, {"type": "Feature", "properties": {"osm_id": 7867000255, "osm_type": "node", "name": "Anshul Homoeopathy Clinic", "amenity": "clinic"}, "geometry": {"type": "Point", "coordinates": [72.629041, 23.178993]}}, {"type": "Feature", "properties": {"osm_id": 7867000261, "osm_type": "node", "name": "Shivam Clinic", "amenity": "clinic"}, "geometry": {"type": "Point", "coordinates": [72.637304, 23.181673]}}, {"type": "Feature", "properties": {"osm_id": 7867000264, "osm_type": "node", "name": "Aashka Multispeciality Hospitals", "amenity": "hospital"}, "geometry": {"type": "Point", "coordinates": [72.6217901, 23.1857862]}}, {"type": "Feature", "properties": {"osm_id": 7867000265, "osm_type": "node", "name": "Life Apollo Hospitals", "amenity": "hospital"}, "geometry": {"type": "Point", "coordinates": [72.6385544, 23.1926044]}}, {"type": "Feature", "properties": {"osm_id": 7867000269, "osm_type": "node", "name": "Dr. Charulata Harshe Clinic", "amenity": "clinic"}, "geometry": {"type": "Point", "coordinates": [72.6387319, 23.1989368]}}, {"type": "Feature", "properties": {"osm_id": 7867000278, "osm_type": "node", "name": "Health Focus Physiotherapy Clinic", "amenity": "clinic"}, "geometry": {"type": "Point", "coordinates": [72.6367501, 23.1761355]}}, {"type": "Feature", "properties": {"osm_id": 7867000282, "osm_type": "node", "name": "Vachhani Hospital", "amenity": "hospital"}, "geometry": {"type": "Point", "coordinates": [72.634087, 23.179407]}}, {"type": "Feature", "properties": {"osm_id": 7867000306, "osm_type": "node", "name": "Navkar Clinic & Health Care", "amenity": "clinic"}, "geometry": {"type": "Point", "coordinates": [72.636617, 23.178224]}}, {"type": "Feature", "properties": {"osm_id": 7867052477, "osm_type": "node", "name": "Starling Hospital", "amenity": "hospital"}, "geometry": {"type": "Point", "coordinates": [72.700156, 23.181426]}}, {"type": "Feature", "properties": {"osm_id": 9221706976, "osm_type": "node", "name": "Radhe Hospital", "amenity": "hospital"}, "geometry": {"type": "Point", "coordinates": [72.6280818, 23.1817847]}}, {"type": "Feature", "properties": {"osm_id": 11301587994, "osm_type": "node", "name": "Dr Vijay's Dental Hub", "amenity": "doctors"}, "geometry": {"type": "Point", "coordinates": [72.6286722, 23.1820114]}}, {"type": "Feature", "properties": {"osm_id": 551913407, "osm_type": "way", "name": "Apollo Hospitals International Limited", "amenity": "hospital"}, "geometry": {"type": "LineString", "coordinates": [[72.6255585, 23.1114904], [72.625386, 23.1085778], [72.6266184, 23.1084787], [72.6268772, 23.1110343], [72.6269052, 23.1113114], [72.6255585, 23.1114904]]}}, {"type": "Feature", "properties": {"osm_id": 693889233, "osm_type": "way", "name": "SMVS Hospital", "amenity": "hospital", "building": "hospital"}, "geometry": {"type": "LineString", "coordinates": [[72.641066, 23.1777399], [72.6412693, 23.1777137], [72.6411748, 23.1771513], [72.6407414, 23.1772038], [72.6407682, 23.177389], [72.6410143, 23.1773661], [72.641066, 23.1777399]]}}, {"type": "Feature", "properties": {"osm_id": 1153427742, "osm_type": "way", "name": "", "amenity": "hospital"}, "geometry": {"type": "LineString", "coordinates": [[72.6480002, 23.0871386], [72.6474488, 23.0866293], [72.6475925, 23.0862977], [72.6482878, 23.0866708], [72.6480002, 23.0871386]]}}, {"type": "Feature", "properties": {"osm_id": 1153428150, "osm_type": "way", "name": "", "amenity": "hospital"}, "geometry": {"type": "LineString", "coordinates": [[72.6595139, 23.0904221], [72.6598186, 23.0906531], [72.6600503, 23.0904261], [72.6598164, 23.0901715], [72.6595139, 23.0904221]]}}, {"type": "Feature", "properties": {"osm_id": 1432594588, "osm_type": "way", "name": "DAU General Clinic", "amenity": "clinic", "building": "yes"}, "geometry": {"type": "LineString", "coordinates": [[72.6269207, 23.1883136], [72.6268862, 23.1884181], [72.6269654, 23.1884148], [72.6270012, 23.1883201], [72.626953, 23.1883162], [72.6269207, 23.1883136]]}}, {"type": "Feature", "properties": {"osm_id": 7866803554, "osm_type": "node", "name": "Vardayini Medicare & Skin Clinic", "amenity": "clinic"}, "geometry": {"type": "Point", "coordinates": [72.5948399, 23.3121862]}}, {"type": "Feature", "properties": {"osm_id": 7866803589, "osm_type": "node", "name": "Revabai General Hospital", "amenity": "hospital"}, "geometry": {"type": "Point", "coordinates": [72.5676192, 23.3007032]}}, {"type": "Feature", "properties": {"osm_id": 7866803612, "osm_type": "node", "name": "Dr. Bhavin Patel Clinic", "amenity": "clinic"}, "geometry": {"type": "Point", "coordinates": [72.5953233, 23.3126051]}}, {"type": "Feature", "properties": {"osm_id": 7867000268, "osm_type": "node", "name": "Akshar Clinic", "amenity": "clinic"}, "geometry": {"type": "Point", "coordinates": [72.6154503, 23.2239143]}}, {"type": "Feature", "properties": {"osm_id": 1241884697, "osm_type": "node", "name": "Civil Hospital", "amenity": "hospital"}, "geometry": {"type": "Point", "coordinates": [72.641845, 23.2196609]}}, {"type": "Feature", "properties": {"osm_id": 6969611595, "osm_type": "node", "name": "Vinayak Orthopaedic Hospital, Pathika S.T. Stand", "amenity": "hospital"}, "geometry": {"type": "Point", "coordinates": [72.6428381, 23.2150357]}}, {"type": "Feature", "properties": {"osm_id": 6969924709, "osm_type": "node", "name": "Mamta Children Hospital, Gandhinagar", "amenity": "hospital"}, "geometry": {"type": "Point", "coordinates": [72.6493518, 23.2448913]}}, {"type": "Feature", "properties": {"osm_id": 6970553030, "osm_type": "node", "name": "Hi Tech Hospital", "amenity": "hospital"}, "geometry": {"type": "Point", "coordinates": [72.6336991, 23.2054057]}}, {"type": "Feature", "properties": {"osm_id": 6974311359, "osm_type": "node", "name": "Sanjivani Hospital, Gandhinagar", "amenity": "hospital"}, "geometry": {"type": "Point", "coordinates": [72.6686785, 23.2324833]}}, {"type": "Feature", "properties": {"osm_id": 6975031402, "osm_type": "node", "name": "Mukund Eye Hospital", "amenity": "hospital"}, "geometry": {"type": "Point", "coordinates": [72.6491037, 23.2157197]}}, {"type": "Feature", "properties": {"osm_id": 6975253687, "osm_type": "node", "name": "Yashdeep Heart and Medical Hospital", "amenity": "hospital"}, "geometry": {"type": "Point", "coordinates": [72.6585478, 23.2327889]}}, {"type": "Feature", "properties": {"osm_id": 6975579328, "osm_type": "node", "name": "Narayani ENT Clinic", "amenity": "clinic"}, "geometry": {"type": "Point", "coordinates": [72.642971, 23.2147921]}}, {"type": "Feature", "properties": {"osm_id": 6975617920, "osm_type": "node", "name": "Ila Maternity Hospital - Gandhinagar", "amenity": "hospital"}, "geometry": {"type": "Point", "coordinates": [72.6500317, 23.2318942]}}, {"type": "Feature", "properties": {"osm_id": 6975633433, "osm_type": "node", "name": "Kalrav Children Hospital, Gandhinagar", "amenity": "hospital"}, "geometry": {"type": "Point", "coordinates": [72.6539639, 23.2321814]}}, {"type": "Feature", "properties": {"osm_id": 6978758757, "osm_type": "node", "name": "Dr Dipak L Mehta Clinic", "amenity": "clinic"}, "geometry": {"type": "Point", "coordinates": [72.6466826, 23.21179]}}, {"type": "Feature", "properties": {"osm_id": 6979161794, "osm_type": "node", "name": "Shashvat Hospital", "amenity": "hospital"}, "geometry": {"type": "Point", "coordinates": [72.633166, 23.2045854]}}, {"type": "Feature", "properties": {"osm_id": 6979537033, "osm_type": "node", "name": "Urvi Maternity Hospital", "amenity": "hospital"}, "geometry": {"type": "Point", "coordinates": [72.6591412, 23.2329639]}}, {"type": "Feature", "properties": {"osm_id": 6983634842, "osm_type": "node", "name": "Gayatri Hospital, Gandhinagar", "amenity": "hospital"}, "geometry": {"type": "Point", "coordinates": [72.6299769, 23.2127432]}}, {"type": "Feature", "properties": {"osm_id": 6986605766, "osm_type": "node", "name": "Sheth N.N Saravajanik Hospital", "amenity": "hospital"}, "geometry": {"type": "Point", "coordinates": [72.635417, 23.2905947]}}, {"type": "Feature", "properties": {"osm_id": 6987724564, "osm_type": "node", "name": "Sharada Medical Nursing Home and Eye Care Pvt. Ltd.", "amenity": "clinic"}, "geometry": {"type": "Point", "coordinates": [72.6408583, 23.2152027]}}, {"type": "Feature", "properties": {"osm_id": 6988468392, "osm_type": "node", "name": "Sarkari Ayurved Hospital", "amenity": "hospital"}, "geometry": {"type": "Point", "coordinates": [72.6541825, 23.2363356]}}, {"type": "Feature", "properties": {"osm_id": 6990348094, "osm_type": "node", "name": "Navjivan Hospital, Gandhinagar", "amenity": "hospital"}, "geometry": {"type": "Point", "coordinates": [72.6406256, 23.2149386]}}, {"type": "Feature", "properties": {"osm_id": 7165606611, "osm_type": "node", "name": "Government Hospital Sector 22", "amenity": "hospital"}, "geometry": {"type": "Point", "coordinates": [72.6585925, 23.2344371]}}, {"type": "Feature", "properties": {"osm_id": 7165606654, "osm_type": "node", "name": "Government Hospital Sector-3A", "amenity": "hospital"}, "geometry": {"type": "Point", "coordinates": [72.627894, 23.201649]}}, {"type": "Feature", "properties": {"osm_id": 7867000243, "osm_type": "node", "name": "Tejas Surgical Hospital", "amenity": "hospital"}, "geometry": {"type": "Point", "coordinates": [72.642215, 23.215334]}}, {"type": "Feature", "properties": {"osm_id": 7867000245, "osm_type": "node", "name": "Urmi Hospital", "amenity": "hospital"}, "geometry": {"type": "Point", "coordinates": [72.6517603, 23.2435941]}}, {"type": "Feature", "properties": {"osm_id": 7867000246, "osm_type": "node", "name": "Dr. Vijay B. Oza's Clinic", "amenity": "clinic"}, "geometry": {"type": "Point", "coordinates": [72.6380643, 23.2090721]}}, {"type": "Feature", "properties": {"osm_id": 7867000247, "osm_type": "node", "name": "Anand Hospital", "amenity": "hospital"}, "geometry": {"type": "Point", "coordinates": [72.636785, 23.208854]}}, {"type": "Feature", "properties": {"osm_id": 7867000248, "osm_type": "node", "name": "Air Force Hospital", "amenity": "hospital"}, "geometry": {"type": "Point", "coordinates": [72.6955764, 23.2423717]}}, {"type": "Feature", "properties": {"osm_id": 7867000249, "osm_type": "node", "name": "Shrey Maternity and Nursing Home", "amenity": "clinic"}, "geometry": {"type": "Point", "coordinates": [72.6531711, 23.227907]}}, {"type": "Feature", "properties": {"osm_id": 7867000251, "osm_type": "node", "name": "Government Hospital", "amenity": "hospital"}, "geometry": {"type": "Point", "coordinates": [72.6538077, 23.2303964]}}, {"type": "Feature", "properties": {"osm_id": 7867000252, "osm_type": "node", "name": "Radhe Clinic", "amenity": "clinic"}, "geometry": {"type": "Point", "coordinates": [72.6361499, 23.2072732]}}, {"type": "Feature", "properties": {"osm_id": 7867000253, "osm_type": "node", "name": "Harjivan Hospital", "amenity": "hospital"}, "geometry": {"type": "Point", "coordinates": [72.633633, 23.256938]}}, {"type": "Feature", "properties": {"osm_id": 7867000254, "osm_type": "node", "name": "Radhe Children Hospital", "amenity": "hospital"}, "geometry": {"type": "Point", "coordinates": [72.6341167, 23.206201]}}, {"type": "Feature", "properties": {"osm_id": 7867000256, "osm_type": "node", "name": "Nitaben Shekhat Hospital", "amenity": "hospital"}, "geometry": {"type": "Point", "coordinates": [72.6423782, 23.2152171]}}, {"type": "Feature", "properties": {"osm_id": 7867000258, "osm_type": "node", "name": "Pagarav Multi Speciality Hospital & ICU", "amenity": "hospital"}, "geometry": {"type": "Point", "coordinates": [72.6512288, 23.2439097]}}, {"type": "Feature", "properties": {"osm_id": 7867000259, "osm_type": "node", "name": "Jalaram Hospital", "amenity": "hospital"}, "geometry": {"type": "Point", "coordinates": [72.6365927, 23.2112394]}}, {"type": "Feature", "properties": {"osm_id": 7867000260, "osm_type": "node", "name": "Pankti Clinic", "amenity": "clinic"}, "geometry": {"type": "Point", "coordinates": [72.6580999, 23.2346906]}}, {"type": "Feature", "properties": {"osm_id": 7867000262, "osm_type": "node", "name": "ESIC Hospital", "amenity": "hospital"}, "geometry": {"type": "Point", "coordinates": [72.652228, 23.230505]}}, {"type": "Feature", "properties": {"osm_id": 7867000266, "osm_type": "node", "name": "Urmi Homeopathic Clinic", "amenity": "clinic"}, "geometry": {"type": "Point", "coordinates": [72.652791, 23.2344]}}, {"type": "Feature", "properties": {"osm_id": 7867000270, "osm_type": "node", "name": "Sanjivani Children Hospital", "amenity": "hospital"}, "geometry": {"type": "Point", "coordinates": [72.6366046, 23.2085838]}}, {"type": "Feature", "properties": {"osm_id": 7867000271, "osm_type": "node", "name": "Raj Maternity Home", "amenity": "hospital"}, "geometry": {"type": "Point", "coordinates": [72.6412383, 23.2048436]}}, {"type": "Feature", "properties": {"osm_id": 7867000273, "osm_type": "node", "name": "Shree Ratanraj General Hospital", "amenity": "hospital"}, "geometry": {"type": "Point", "coordinates": [72.647255, 23.2453065]}}, {"type": "Feature", "properties": {"osm_id": 7867000274, "osm_type": "node", "name": "Aatrey Ayurvedic Clinic", "amenity": "clinic"}, "geometry": {"type": "Point", "coordinates": [72.668298, 23.229615]}}, {"type": "Feature", "properties": {"osm_id": 7867000275, "osm_type": "node", "name": "Dr. Ami Sanjay Shah", "amenity": "doctors"}, "geometry": {"type": "Point", "coordinates": [72.646314, 23.206341]}}, {"type": "Feature", "properties": {"osm_id": 7867000279, "osm_type": "node", "name": "Niramay Clinic", "amenity": "clinic"}, "geometry": {"type": "Point", "coordinates": [72.6704365, 23.239073]}}, {"type": "Feature", "properties": {"osm_id": 7867000280, "osm_type": "node", "name": "Keshavam Eye Clinic", "amenity": "clinic"}, "geometry": {"type": "Point", "coordinates": [72.659152, 23.2329268]}}, {"type": "Feature", "properties": {"osm_id": 7867000281, "osm_type": "node", "name": "Shubham Maternity Hospital", "amenity": "hospital"}, "geometry": {"type": "Point", "coordinates": [72.646697, 23.20793]}}, {"type": "Feature", "properties": {"osm_id": 7867000283, "osm_type": "node", "name": "Shraddha Bhakti Maternity Hospital", "amenity": "hospital"}, "geometry": {"type": "Point", "coordinates": [72.635791, 23.207234]}}, {"type": "Feature", "properties": {"osm_id": 7867000284, "osm_type": "node", "name": "Dr. P S Patel Clinic", "amenity": "clinic"}, "geometry": {"type": "Point", "coordinates": [72.6419467, 23.2059926]}}, {"type": "Feature", "properties": {"osm_id": 7867000286, "osm_type": "node", "name": "NeuroPanch Ayurved Hospital", "amenity": "hospital"}, "geometry": {"type": "Point", "coordinates": [72.6668181, 23.2298197]}}, {"type": "Feature", "properties": {"osm_id": 7867000288, "osm_type": "node", "name": "GEB Hospital", "amenity": "hospital"}, "geometry": {"type": "Point", "coordinates": [72.670634, 23.25575]}}, {"type": "Feature", "properties": {"osm_id": 7867000290, "osm_type": "node", "name": "Yashdeep Eye & Children Hospital", "amenity": "hospital"}, "geometry": {"type": "Point", "coordinates": [72.636715, 23.208897]}}, {"type": "Feature", "properties": {"osm_id": 7867000292, "osm_type": "node", "name": "Mann Hospital", "amenity": "hospital"}, "geometry": {"type": "Point", "coordinates": [72.641134, 23.2151883]}}, {"type": "Feature", "properties": {"osm_id": 7867000293, "osm_type": "node", "name": "Tej Eye Centre Superspeciality Eye Hospital", "amenity": "hospital"}, "geometry": {"type": "Point", "coordinates": [72.636462, 23.2107329]}}, {"type": "Feature", "properties": {"osm_id": 7867000294, "osm_type": "node", "name": "Jeevan Hospital", "amenity": "hospital"}, "geometry": {"type": "Point", "coordinates": [72.6436861, 23.2088303]}}, {"type": "Feature", "properties": {"osm_id": 7867000295, "osm_type": "node", "name": "Foram Clinic for Children", "amenity": "clinic"}, "geometry": {"type": "Point", "coordinates": [72.6397689, 23.2163869]}}, {"type": "Feature", "properties": {"osm_id": 7867000296, "osm_type": "node", "name": "Ashirwad Children Hospital", "amenity": "hospital"}, "geometry": {"type": "Point", "coordinates": [72.6534342, 23.2291554]}}, {"type": "Feature", "properties": {"osm_id": 7867000297, "osm_type": "node", "name": "Niky Hospital", "amenity": "hospital"}, "geometry": {"type": "Point", "coordinates": [72.6606658, 23.2464106]}}, {"type": "Feature", "properties": {"osm_id": 7867000298, "osm_type": "node", "name": "Shree Rajratan General & Surgical Hospital", "amenity": "hospital"}, "geometry": {"type": "Point", "coordinates": [72.639305, 23.211897]}}, {"type": "Feature", "properties": {"osm_id": 7867000300, "osm_type": "node", "name": "Kalp Children Hospital", "amenity": "hospital"}, "geometry": {"type": "Point", "coordinates": [72.6421536, 23.215199]}}, {"type": "Feature", "properties": {"osm_id": 7867000301, "osm_type": "node", "name": "Dr. Kartik Mehta and Shrey Nurshing Home", "amenity": "clinic"}, "geometry": {"type": "Point", "coordinates": [72.6531515, 23.2281393]}}, {"type": "Feature", "properties": {"osm_id": 7867000302, "osm_type": "node", "name": "Ukti Maternity Hospital", "amenity": "hospital"}, "geometry": {"type": "Point", "coordinates": [72.6599674, 23.2355099]}}, {"type": "Feature", "properties": {"osm_id": 7867000303, "osm_type": "node", "name": "Shyam Maternity Hospital", "amenity": "hospital"}, "geometry": {"type": "Point", "coordinates": [72.6470661, 23.2468343]}}, {"type": "Feature", "properties": {"osm_id": 7867000304, "osm_type": "node", "name": "Prathna Maternity Home", "amenity": "hospital"}, "geometry": {"type": "Point", "coordinates": [72.636796, 23.208987]}}, {"type": "Feature", "properties": {"osm_id": 7867000307, "osm_type": "node", "name": "Dr. Somani", "amenity": "doctors"}, "geometry": {"type": "Point", "coordinates": [72.6418151, 23.2153945]}}, {"type": "Feature", "properties": {"osm_id": 7867000308, "osm_type": "node", "name": "Sarthak Clinic", "amenity": "clinic"}, "geometry": {"type": "Point", "coordinates": [72.630058, 23.211776]}}, {"type": "Feature", "properties": {"osm_id": 7867000309, "osm_type": "node", "name": "Sanidhya Multi Speciality Hospital & Trauma Centre", "amenity": "hospital"}, "geometry": {"type": "Point", "coordinates": [72.668528, 23.266121]}}, {"type": "Feature", "properties": {"osm_id": 7867000310, "osm_type": "node", "name": "Atharva Clinic", "amenity": "clinic"}, "geometry": {"type": "Point", "coordinates": [72.6474108, 23.2447781]}}, {"type": "Feature", "properties": {"osm_id": 12289495226, "osm_type": "node", "name": "P Manubhai Medical and Provision Stores", "amenity": "pharmacy"}, "geometry": {"type": "Point", "coordinates": [72.6646058, 23.2314484]}}, {"type": "Feature", "properties": {"osm_id": 12709309364, "osm_type": "node", "name": "Arihant X-Ray and Sonography", "amenity": "doctors"}, "geometry": {"type": "Point", "coordinates": [72.6465341, 23.2269332]}}, {"type": "Feature", "properties": {"osm_id": 12715087445, "osm_type": "node", "name": "Shree Gayatri Homeo Pharmacy", "amenity": "pharmacy"}, "geometry": {"type": "Point", "coordinates": [72.6464852, 23.2268594]}}, {"type": "Feature", "properties": {"osm_id": 12753621128, "osm_type": "node", "name": "Usmanpura Imaging Centre", "amenity": "doctors"}, "geometry": {"type": "Point", "coordinates": [72.6397539, 23.21655]}}, {"type": "Feature", "properties": {"osm_id": 337790124, "osm_type": "way", "name": "GMERS MEDICAL COLLEGE HOSPITAL GANDHINAGAR", "amenity": "hospital"}, "geometry": {"type": "LineString", "coordinates": [[72.6403981, 23.2198901], [72.6389908, 23.2175506], [72.6406956, 23.2166463], [72.6408351, 23.2167106], [72.6410478, 23.2168087], [72.6422746, 23.2188649], [72.6422059, 23.2189596], [72.6408615, 23.2196746], [72.6403981, 23.2198901]]}}, {"type": "Feature", "properties": {"osm_id": 373788665, "osm_type": "way", "name": "Akshar Hospital", "amenity": "hospital"}, "geometry": {"type": "LineString", "coordinates": [[72.6416997, 23.2153529], [72.6418012, 23.2153037], [72.6417218, 23.2151653], [72.6416203, 23.2152145], [72.6416997, 23.2153529]]}}, {"type": "Feature", "properties": {"osm_id": 373788666, "osm_type": "way", "name": "Dr. vipul prajapati", "amenity": "hospital"}, "geometry": {"type": "LineString", "coordinates": [[72.6419637, 23.2147438], [72.6420992, 23.214667], [72.6422051, 23.2148249], [72.6420696, 23.2149017], [72.6419637, 23.2147438]]}}, {"type": "Feature", "properties": {"osm_id": 745984865, "osm_type": "way", "name": "Purusharth Surgical Hospital", "amenity": "hospital", "building": "commercial"}, "geometry": {"type": "LineString", "coordinates": [[72.6485616, 23.2294475], [72.6484296, 23.2295149], [72.6485293, 23.2296716], [72.6486549, 23.2296044], [72.6485616, 23.2294475]]}}, {"type": "Feature", "properties": {"osm_id": 843366356, "osm_type": "way", "name": "Anand Hospital", "amenity": "hospital", "building": "commercial"}, "geometry": {"type": "LineString", "coordinates": [[72.6467552, 23.2268511], [72.6468635, 23.2270245], [72.6469913, 23.226957], [72.6468834, 23.2267838], [72.6467552, 23.2268511]]}}, {"type": "Feature", "properties": {"osm_id": 1135238170, "osm_type": "way", "name": "Medical Center, IITGN", "amenity": "pharmacy", "building": "yes"}, "geometry": {"type": "LineString", "coordinates": [[72.6864513, 23.2117585], [72.6866039, 23.2117614], [72.6866045, 23.2116227], [72.6864528, 23.2116197], [72.6864513, 23.2117585]]}}]}