{"type": "FeatureCollection", "features": [{"type": "Feature", "properties": {"osm_id": 611572693, "osm_type": "node", "name": "Sant Asharamji Ashram", "amenity": "place_of_worship"}, "geometry": {"type": "Point", "coordinates": [72.6024491, 23.0931619]}}, {"type": "Feature", "properties": {"osm_id": 2531101257, "osm_type": "node", "name": "Guruma Samadhi Mandir", "amenity": "place_of_worship", "religion": "jain"}, "geometry": {"type": "Point", "coordinates": [72.6123146, 23.125173]}}, {"type": "Feature", "properties": {"osm_id": 3011917841, "osm_type": "node", "name": "Khodiyar Temple, New Ranip", "amenity": "place_of_worship", "religion": "hindu"}, "geometry": {"type": "Point", "coordinates": [72.5664534, 23.0925942]}}, {"type": "Feature", "properties": {"osm_id": 3136114443, "osm_type": "node", "name": "Dadabhagwan Trimandir - Adalaj", "amenity": "place_of_worship", "religion": "none"}, "geometry": {"type": "Point", "coordinates": [72.5721279, 23.1784824]}}, {"type": "Feature", "properties": {"osm_id": 3500454448, "osm_type": "node", "name": "Jain Derasar", "amenity": "place_of_worship", "religion": "jain"}, "geometry": {"type": "Point", "coordinates": [72.5922625, 23.0803221]}}, {"type": "Feature", "properties": {"osm_id": 3500454472, "osm_type": "node", "name": "Ramji Mandir", "amenity": "place_of_worship", "religion": "hindu"}, "geometry": {"type": "Point", "coordinates": [72.5895182, 23.0836988]}}, {"type": "Feature", "properties": {"osm_id": 4486356038, "osm_type": "node", "name": "Koteshwar Mahadev Temple / Mandir", "amenity": "place_of_worship", "religion": "hindu"}, "geometry": {"type": "Point", "coordinates": [72.6119846, 23.0945918]}}, {"type": "Feature", "properties": {"osm_id": 4585303036, "osm_type": "node", "name": "Chandlodiya Temple", "amenity": "place_of_worship", "religion": "hindu"}, "geometry": {"type": "Point", "coordinates": [72.5530656, 23.0838579]}}, {"type": "Feature", "properties": {"osm_id": 5065508095, "osm_type": "node", "name": "Om shanti", "amenity": "place_of_worship"}, "geometry": {"type": "Point", "coordinates": [72.6192277, 23.0873143]}}, {"type": "Feature", "properties": {"osm_id": 6144972055, "osm_type": "node", "name": "Shree Verai Mataji Temple", "amenity": "place_of_worship", "religion": "hindu"}, "geometry": {"type": "Point", "coordinates": [72.6165686, 23.1856304]}}, {"type": "Feature", "properties": {"osm_id": 6144972056, "osm_type": "node", "name": "Shree Sargesvar Mahadev Temple", "amenity": "place_of_worship", "religion": "hindu"}, "geometry": {"type": "Point", "coordinates": [72.6158267, 23.1855819]}}, {"type": "Feature", "properties": {"osm_id": 6144972057, "osm_type": "node", "name": "Shree Mahakali Mataji Temple", "amenity": "place_of_worship", "religion": "hindu"}, "geometry": {"type": "Point", "coordinates": [72.6157986, 23.1872476]}}, {"type": "Feature", "properties": {"osm_id": 10959555938, "osm_type": "node", "name": "Shiv mandir", "amenity": "place_of_worship", "religion": "hindu"}, "geometry": {"type": "Point", "coordinates": [72.5780403, 23.1062878]}}, {"type": "Feature", "properties": {"osm_id": 11148571795, "osm_type": "node", "name": "Merudham", "amenity": "place_of_worship", "religion": "jain"}, "geometry": {"type": "Point", "coordinates": [72.6162547, 23.1218834]}}, {"type": "Feature", "properties": {"osm_id": 118695193, "osm_type": "way", "name": "Smriti Mandir", "amenity": "place_of_worship", "religion": "jain"}, "geometry": {"type": "LineString", "coordinates": [[72.58947, 23.0804295], [72.589348, 23.0806876], [72.5898277, 23.0808671], [72.5899212, 23.0806277], [72.58947, 23.0804295]]}}, {"type": "Feature", "properties": {"osm_id": 246022093, "osm_type": "way", "name": "Tapovan Adinath Jain Temple", "amenity": "place_of_worship", "religion": "jain"}, "geometry": {"type": "LineString", "coordinates": [[72.6121992, 23.124793], [72.6121995, 23.1246341], [72.6122593, 23.1246342], [72.6122594, 23.1246123], [72.6124231, 23.1246125], [72.612423, 23.1246611], [72.6125568, 23.1246613], [72.6125567, 23.1247322], [72.6125566, 23.1247945], [72.6123943, 23.1247943], [72.6123942, 23.1248177], [72.6122537, 23.1248175], [72.6122537, 23.1247931], [72.6121992, 23.124793]]}}, {"type": "Feature", "properties": {"osm_id": 297321231, "osm_type": "way", "name": "Marutidham", "amenity": "place_of_worship", "religion": "hindu"}, "geometry": {"type": "LineString", "coordinates": [[72.541594, 23.1365166], [72.5421199, 23.1364713], [72.5423579, 23.1365695], [72.5425913, 23.1375753], [72.5417091, 23.1376047], [72.541594, 23.1365166]]}}, {"type": "Feature", "properties": {"osm_id": 368608344, "osm_type": "way", "name": "TIRUPATI TEMPLE", "amenity": "place_of_worship", "building": "yes", "religion": "hindu"}, "geometry": {"type": "LineString", "coordinates": [[72.5383044, 23.1276316], [72.5385073, 23.1275861], [72.5384776, 23.1274743], [72.5382747, 23.1275198], [72.5382857, 23.1275611], [72.5382279, 23.127574], [72.5382371, 23.1276089], [72.5382949, 23.1275959], [72.5383044, 23.1276316]]}}, {"type": "Feature", "properties": {"osm_id": 451821946, "osm_type": "way", "name": "Koteshwar Mahadev Temple / Mandir", "amenity": "place_of_worship", "building": "yes"}, "geometry": {"type": "LineString", "coordinates": [[72.6113034, 23.0939726], [72.6113114, 23.0943229], [72.6115555, 23.0943871], [72.6115367, 23.0948509], [72.611644, 23.0948706], [72.6115957, 23.0950656], [72.6121912, 23.0951346], [72.6124996, 23.0940441], [72.6113034, 23.0939726]]}}, {"type": "Feature", "properties": {"osm_id": 462035356, "osm_type": "way", "name": "Kashi-Vishvanath Temple", "amenity": "place_of_worship", "building": "yes", "religion": "hindu"}, "geometry": {"type": "LineString", "coordinates": [[72.5654034, 23.0828721], [72.5657095, 23.0829177], [72.565949, 23.082583], [72.5654655, 23.082521], [72.5654034, 23.0828721]]}}, {"type": "Feature", "properties": {"osm_id": 462300881, "osm_type": "way", "name": "Swaminarayan- BAPS Temple", "amenity": "place_of_worship", "building": "yes", "religion": "hindu"}, "geometry": {"type": "LineString", "coordinates": [[72.5660788, 23.0811776], [72.5661033, 23.0810702], [72.5669451, 23.080952], [72.5669871, 23.0811572], [72.5668797, 23.0813247], [72.5660788, 23.0811776]]}}, {"type": "Feature", "properties": {"osm_id": 462302156, "osm_type": "way", "name": "Temple", "amenity": "place_of_worship", "building": "yes", "religion": "hindu"}, "geometry": {"type": "LineString", "coordinates": [[72.5669228, 23.0801699], [72.5669, 23.079996], [72.5671227, 23.07997], [72.5671522, 23.0801378], [72.5669228, 23.0801699]]}}, {"type": "Feature", "properties": {"osm_id": 585813390, "osm_type": "way", "name": "Jamiyatpura Swaminarayan Temple", "amenity": "place_of_worship", "building": "yes", "religion": "hindu"}, "geometry": {"type": "LineString", "coordinates": [[72.5675336, 23.1810052], [72.5681479, 23.1813577], [72.5677777, 23.1819199], [72.5671957, 23.1818879], [72.5668416, 23.1817227], [72.5671715, 23.181306], [72.5675336, 23.1810052]]}}, {"type": "Feature", "properties": {"osm_id": 1072528782, "osm_type": "way", "name": "SMVS Swaminarayan Mandir", "amenity": "place_of_worship", "building": "yes", "religion": "hindu"}, "geometry": {"type": "LineString", "coordinates": [[72.5447587, 23.0943271], [72.5449003, 23.0947132], [72.5452078, 23.0946205], [72.5450764, 23.0942226], [72.5447587, 23.0943271]]}}, {"type": "Feature", "properties": {"osm_id": 1180000554, "osm_type": "way", "name": "", "amenity": "place_of_worship", "building": "yes"}, "geometry": {"type": "LineString", "coordinates": [[72.5779934, 23.1063361], [72.5779765, 23.106255], [72.5780891, 23.1062153], [72.5781022, 23.1063171], [72.5779934, 23.1063361]]}}, {"type": "Feature", "properties": {"osm_id": 1180002706, "osm_type": "way", "name": "Shree Sai Baba Mandir", "amenity": "place_of_worship", "building": "yes", "religion": "hindu"}, "geometry": {"type": "LineString", "coordinates": [[72.5759609, 23.1073753], [72.5759625, 23.107248], [72.5760398, 23.107251], [72.5760333, 23.1073798], [72.5759609, 23.1073753]]}}, {"type": "Feature", "properties": {"osm_id": 1200946288, "osm_type": "way", "name": "Achaleshwar Mahadev", "amenity": "place_of_worship", "religion": "hindu"}, "geometry": {"type": "LineString", "coordinates": [[72.5633822, 23.0800014], [72.5634246, 23.0800334], [72.5634118, 23.080113], [72.5635768, 23.0801401], [72.5635982, 23.0799625], [72.563438, 23.0799335], [72.5634293, 23.0799983], [72.5633822, 23.0800014]]}}, {"type": "Feature", "properties": {"osm_id": 1201840543, "osm_type": "way", "name": "વીજળીયા હનુમાન મંદિર", "amenity": "place_of_worship", "religion": "hindu"}, "geometry": {"type": "LineString", "coordinates": [[72.5413782, 23.1219533], [72.54147, 23.1219257], [72.5415026, 23.1220175], [72.5414107, 23.1220451], [72.5413782, 23.1219533]]}}, {"type": "Feature", "properties": {"osm_id": 1275046997, "osm_type": "way", "name": "Shantinath Mahadev", "amenity": "place_of_worship", "building": "temple", "religion": "hindu"}, "geometry": {"type": "LineString", "coordinates": [[72.5499093, 23.138844], [72.5499818, 23.1388361], [72.5499756, 23.1387881], [72.5499031, 23.1387959], [72.5499093, 23.138844]]}}, {"type": "Feature", "properties": {"osm_id": 1451639413, "osm_type": "way", "name": "સધી માં મંદિર", "amenity": "place_of_worship", "building": "temple", "religion": "hindu"}, "geometry": {"type": "LineString", "coordinates": [[72.5538076, 23.1295136], [72.5539513, 23.1295584], [72.5539681, 23.1295129], [72.5540059, 23.1295247], [72.5540584, 23.1293824], [72.5539215, 23.1293397], [72.5538894, 23.1294269], [72.5538447, 23.129413], [72.5538076, 23.1295136]]}}, {"type": "Feature", "properties": {"osm_id": 1482236543, "osm_type": "way", "name": "Vaishnodevi Mandir", "amenity": "place_of_worship", "building": "yes", "religion": "hindu"}, "geometry": {"type": "LineString", "coordinates": [[72.5436862, 23.1380455], [72.5440854, 23.1379646], [72.5439931, 23.1375226], [72.5439287, 23.1375207], [72.5438794, 23.1373332], [72.5438043, 23.1373036], [72.5434717, 23.1373293], [72.5434802, 23.1373944], [72.5436369, 23.1380238], [72.5436777, 23.138014], [72.5436862, 23.1380455]]}}, {"type": "Feature", "properties": {"osm_id": 3247356199, "osm_type": "node", "name": "Sai Baba Temple", "amenity": "place_of_worship", "religion": "hindu"}, "geometry": {"type": "Point", "coordinates": [72.6203895, 23.0804158]}}, {"type": "Feature", "properties": {"osm_id": 4488096936, "osm_type": "node", "name": "Sai baba", "amenity": "place_of_worship"}, "geometry": {"type": "Point", "coordinates": [72.6500054, 23.0887798]}}, {"type": "Feature", "properties": {"osm_id": 4488098031, "osm_type": "node", "name": "Sant nirankari Ashram", "amenity": "place_of_worship"}, "geometry": {"type": "Point", "coordinates": [72.6479573, 23.0868773]}}, {"type": "Feature", "properties": {"osm_id": 4709907894, "osm_type": "node", "name": "Shree Swaminarayan Vishranti Bhuvan (Under Bhuj)", "amenity": "place_of_worship"}, "geometry": {"type": "Point", "coordinates": [72.6299612, 23.1096913]}}, {"type": "Feature", "properties": {"osm_id": 11158523575, "osm_type": "node", "name": "Momai maa Temple", "amenity": "place_of_worship"}, "geometry": {"type": "Point", "coordinates": [72.6622321, 23.1837422]}}, {"type": "Feature", "properties": {"osm_id": 11158523577, "osm_type": "node", "name": "Limbaj temple", "amenity": "place_of_worship"}, "geometry": {"type": "Point", "coordinates": [72.6626554, 23.1841949]}}, {"type": "Feature", "properties": {"osm_id": 547617476, "osm_type": "way", "name": "Shiv Mandir", "amenity": "place_of_worship", "building": "yes", "religion": "hindu"}, "geometry": {"type": "LineString", "coordinates": [[72.6515898, 23.11931], [72.6516815, 23.1194147], [72.6518045, 23.1193236], [72.6517129, 23.1192189], [72.6515898, 23.11931]]}}, {"type": "Feature", "properties": {"osm_id": 547617477, "osm_type": "way", "name": "", "amenity": "place_of_worship", "building": "yes", "religion": "hindu"}, "geometry": {"type": "LineString", "coordinates": [[72.651498, 23.1191947], [72.6515519, 23.1192624], [72.6516459, 23.1191992], [72.651592, 23.1191315], [72.651498, 23.1191947]]}}, {"type": "Feature", "properties": {"osm_id": 2128872016, "osm_type": "node", "name": "Ambe Mata Mandir", "amenity": "place_of_worship", "religion": "hindu"}, "geometry": {"type": "Point", "coordinates": [72.6476554, 23.2451973]}}, {"type": "Feature", "properties": {"osm_id": 3373044940, "osm_type": "node", "name": "Gayatri Mandir", "amenity": "place_of_worship", "religion": "hindu"}, "geometry": {"type": "Point", "coordinates": [72.6432038, 23.2002512]}}, {"type": "Feature", "properties": {"osm_id": 12704088931, "osm_type": "node", "name": "", "amenity": "place_of_worship", "religion": "hindu"}, "geometry": {"type": "Point", "coordinates": [72.6681313, 23.2310941]}}, {"type": "Feature", "properties": {"osm_id": 13764324828, "osm_type": "node", "name": "Mahakali Mataji Temple", "amenity": "place_of_worship", "religion": "hindu"}, "geometry": {"type": "Point", "coordinates": [72.6422438, 23.265752]}}, {"type": "Feature", "properties": {"osm_id": 325159778, "osm_type": "way", "name": "Akshardham Temple Complex", "amenity": "place_of_worship", "religion": "hindu"}, "geometry": {"type": "LineString", "coordinates": [[72.6719643, 23.2320456], [72.6721908, 23.2322668], [72.6723395, 23.2324359], [72.672481, 23.2326896], [72.6725731, 23.2328522], [72.6726085, 23.2330149], [72.6726368, 23.2330929], [72.6728846, 23.2330604], [72.6730545, 23.2329758], [72.6737057, 23.2329433], [72.6744491, 23.2330084], [72.6745694, 23.2330214], [72.6751216, 23.2330864], [72.6752773, 23.2330734], [72.6753056, 23.2329628], [72.6753198, 23.2328197], [72.6753056, 23.232605], [72.6752773, 23.2323513], [72.6752419, 23.2320131], [72.6750933, 23.2312585], [72.6748951, 23.2299249], [72.674711, 23.2287344], [72.6746898, 23.2285132], [72.6744278, 23.2285913], [72.6740172, 23.2287865], [72.673819, 23.2289361], [72.6735075, 23.2291312], [72.6731896, 23.2295011], [72.6729129, 23.2302501], [72.6719643, 23.2320456]]}}, {"type": "Feature", "properties": {"osm_id": 338492236, "osm_type": "way", "name": "Swaminarayan Akshardham Temple", "amenity": "place_of_worship", "building": "yes", "religion": "hindu"}, "geometry": {"type": "LineString", "coordinates": [[72.6739124, 23.2292829], [72.6739928, 23.2292697], [72.6739846, 23.2292277], [72.6741187, 23.2292057], [72.6741269, 23.2292477], [72.6742152, 23.2292332], [72.6742293, 23.2293059], [72.6742693, 23.2292994], [72.6742883, 23.2293972], [72.6742484, 23.2294038], [72.6742659, 23.2294938], [72.6741648, 23.2295104], [72.6741791, 23.2295839], [72.6740782, 23.2296004], [72.6740639, 23.229527], [72.6739632, 23.2295436], [72.6739454, 23.2294522], [72.6738983, 23.2294599], [72.6738788, 23.2293599], [72.6739259, 23.2293522], [72.6739124, 23.2292829]]}}, {"type": "Feature", "properties": {"osm_id": 373788660, "osm_type": "way", "name": "Ranchoddray temple", "amenity": "place_of_worship", "building": "yes", "religion": "hindu"}, "geometry": {"type": "LineString", "coordinates": [[72.6399412, 23.2064983], [72.6401129, 23.2064391], [72.6400593, 23.2062567], [72.6398876, 23.2063159], [72.6399412, 23.2064983]]}}, {"type": "Feature", "properties": {"osm_id": 373788663, "osm_type": "way", "name": "Jain Derasar", "amenity": "place_of_worship", "building": "church", "religion": "jain"}, "geometry": {"type": "LineString", "coordinates": [[72.6407592, 23.211395], [72.6409255, 23.2113013], [72.6408451, 23.2111287], [72.6405661, 23.2111337], [72.6407592, 23.211395]]}}, {"type": "Feature", "properties": {"osm_id": 373788667, "osm_type": "way", "name": "Shiv temple", "amenity": "place_of_worship", "building": "church", "religion": "hindu"}, "geometry": {"type": "LineString", "coordinates": [[72.6410424, 23.2139752], [72.6410849, 23.2139545], [72.6411131, 23.2140034], [72.6412007, 23.2139608], [72.6411635, 23.2138961], [72.6412542, 23.213852], [72.6412015, 23.2137604], [72.6409806, 23.2138678], [72.6410424, 23.2139752]]}}, {"type": "Feature", "properties": {"osm_id": 407872876, "osm_type": "way", "name": "Swaminarayan Mandir", "amenity": "place_of_worship"}, "geometry": {"type": "LineString", "coordinates": [[72.6382542, 23.200897], [72.6383046, 23.2010382], [72.6384895, 23.2013494], [72.6386287, 23.2015877], [72.6386167, 23.2016097], [72.6379781, 23.2019606], [72.6375796, 23.2021724], [72.6373684, 23.2018635], [72.6372267, 23.201623], [72.6377597, 23.2013692], [72.6376372, 23.2010758], [72.6378629, 23.2010118], [72.6382542, 23.200897]]}}, {"type": "Feature", "properties": {"osm_id": 843168316, "osm_type": "way", "name": "House of Prayer", "amenity": "place_of_worship", "building": "yes", "religion": "christian"}, "geometry": {"type": "LineString", "coordinates": [[72.6666813, 23.2306879], [72.666587, 23.2305459], [72.6667041, 23.2304817], [72.6667968, 23.2306266], [72.6666813, 23.2306879]]}}, {"type": "Feature", "properties": {"osm_id": 843168319, "osm_type": "way", "name": "Shree Sai Mandir", "amenity": "place_of_worship", "building": "church", "religion": "hindu"}, "geometry": {"type": "LineString", "coordinates": [[72.6308286, 23.2071357], [72.6308284, 23.2069845], [72.6310747, 23.2069842], [72.6310749, 23.2071354], [72.6308286, 23.2071357]]}}, {"type": "Feature", "properties": {"osm_id": 843168320, "osm_type": "way", "name": "Mar Gregorios Orthodox Church", "amenity": "place_of_worship", "building": "yes", "religion": "christian"}, "geometry": {"type": "LineString", "coordinates": [[72.6292561, 23.206486], [72.629409, 23.2063999], [72.6295297, 23.206606], [72.6293794, 23.2066853], [72.6292561, 23.206486]]}}, {"type": "Feature", "properties": {"osm_id": 1333408542, "osm_type": "way", "name": "Sri Siddi Vinayak Mandir", "amenity": "place_of_worship", "building": "yes", "religion": "hindu"}, "geometry": {"type": "LineString", "coordinates": [[72.6660042, 23.2352254], [72.6659354, 23.2352661], [72.6659774, 23.235326], [72.6660462, 23.2352853], [72.6660042, 23.2352254]]}}, {"type": "Feature", "properties": {"osm_id": 1335961087, "osm_type": "way", "name": "Jumma Masjid", "amenity": "place_of_worship", "building": "church", "religion": "muslim"}, "geometry": {"type": "LineString", "coordinates": [[72.6639706, 23.2279427], [72.6643257, 23.2279463], [72.6643284, 23.2277182], [72.6639733, 23.2277147], [72.6639706, 23.2279427]]}}, {"type": "Feature", "properties": {"osm_id": 1342376129, "osm_type": "way", "name": "", "amenity": "place_of_worship", "building": "yes"}, "geometry": {"type": "LineString", "coordinates": [[72.659389, 23.2343451], [72.6594818, 23.2344799], [72.6596305, 23.2343936], [72.6595376, 23.2342587], [72.659389, 23.2343451]]}}, {"type": "Feature", "properties": {"osm_id": 1365683078, "osm_type": "way", "name": "Shree Govardhan Nathji Ni Haveli", "amenity": "place_of_worship", "building": "yes", "religion": "hindu"}, "geometry": {"type": "LineString", "coordinates": [[72.6621151, 23.2331791], [72.6619913, 23.2329985], [72.6620119, 23.2329865], [72.6619316, 23.2328694], [72.6620296, 23.2328127], [72.6622046, 23.2328361], [72.6622183, 23.2328533], [72.6622616, 23.2328242], [72.6623188, 23.2328962], [72.6622875, 23.2329698], [72.6622583, 23.2330007], [72.6622196, 23.2330231], [72.6622395, 23.2330522], [72.6621619, 23.2330971], [72.6621889, 23.2331364], [72.6621151, 23.2331791]]}}, {"type": "Feature", "properties": {"osm_id": 1368972665, "osm_type": "way", "name": "", "amenity": "place_of_worship", "building": "yes", "religion": "hindu"}, "geometry": {"type": "LineString", "coordinates": [[72.6624487, 23.2335907], [72.6623539, 23.2336447], [72.6623976, 23.2337095], [72.6624924, 23.2336556], [72.6624487, 23.2335907]]}}, {"type": "Feature", "properties": {"osm_id": 1370491759, "osm_type": "way", "name": "Ambe Mata Temple", "amenity": "place_of_worship", "building": "yes", "religion": "hindu"}, "geometry": {"type": "LineString", "coordinates": [[72.6641874, 23.231584], [72.6641397, 23.2315908], [72.6641115, 23.2315558], [72.6641233, 23.2315179], [72.6641694, 23.2315141], [72.6642038, 23.2315475], [72.6642597, 23.2315619], [72.6642482, 23.2315997], [72.6641874, 23.231584]]}}, {"type": "Feature", "properties": {"osm_id": 1371961294, "osm_type": "way", "name": "", "amenity": "place_of_worship", "building": "yes", "religion": "jain"}, "geometry": {"type": "LineString", "coordinates": [[72.6780518, 23.234606], [72.6780547, 23.234556], [72.6780572, 23.2345115], [72.6781088, 23.234514], [72.6781123, 23.2344531], [72.6782182, 23.2344582], [72.6782154, 23.2345063], [72.6782733, 23.2345091], [72.6782676, 23.2346097], [72.6782176, 23.2346073], [72.6782142, 23.2346677], [72.6781032, 23.2346624], [72.6781063, 23.2346086], [72.6780518, 23.234606]]}}, {"type": "Feature", "properties": {"osm_id": 1371962523, "osm_type": "way", "name": "", "amenity": "place_of_worship", "building": "yes", "religion": "jain"}, "geometry": {"type": "LineString", "coordinates": [[72.6776317, 23.2348031], [72.677661, 23.234803], [72.6776877, 23.2348029], [72.6777189, 23.2348504], [72.6777195, 23.2349051], [72.6776962, 23.2349648], [72.6776402, 23.2349683], [72.6776091, 23.2349091], [72.6776051, 23.2348664], [72.6776317, 23.2348031]]}}, {"type": "Feature", "properties": {"osm_id": 1374639847, "osm_type": "way", "name": "Shree Vaijnath Malaneshwar Mahadev Temple", "amenity": "place_of_worship", "building": "yes", "religion": "hindu"}, "geometry": {"type": "LineString", "coordinates": [[72.663106, 23.2362346], [72.6631111, 23.2362486], [72.6631212, 23.2362602], [72.6631289, 23.2362652], [72.6631441, 23.2362702], [72.6631602, 23.2362701], [72.6631753, 23.2362649], [72.6632797, 23.2362664], [72.663281, 23.2362241], [72.6631979, 23.236222], [72.6631928, 23.2362079], [72.6631876, 23.2362008], [72.6631753, 23.2361912], [72.6631658, 23.2361874], [72.6631498, 23.2361854], [72.6631338, 23.2361888], [72.6631202, 23.2361968], [72.6631136, 23.2362039], [72.6631069, 23.2362174], [72.663106, 23.2362346]]}}]}