{"type": "FeatureCollection", "features": [{"type": "Feature", "properties": {"osm_id": 611572689, "osm_type": "node", "name": "Acher", "highway": "bus_stop"}, "geometry": {"type": "Point", "coordinates": [72.5883112, 23.0987428]}}, {"type": "Feature", "properties": {"osm_id": 611572692, "osm_type": "node", "name": "Gujarat Stadium (Motera)", "highway": "bus_stop"}, "geometry": {"type": "Point", "coordinates": [72.5951643, 23.0945534]}}, {"type": "Feature", "properties": {"osm_id": 611572694, "osm_type": "node", "name": "Shiv Shakti Nagar", "highway": "bus_stop"}, "geometry": {"type": "Point", "coordinates": [72.584599, 23.1104959]}}, {"type": "Feature", "properties": {"osm_id": 611572695, "osm_type": "node", "name": "Chandkheda Bus Depo", "highway": "bus_stop"}, "geometry": {"type": "Point", "coordinates": [72.5832285, 23.1151091]}}, {"type": "Feature", "properties": {"osm_id": 611572696, "osm_type": "node", "name": "Janta Nagar (Parshwanath Nagar)", "highway": "bus_stop"}, "geometry": {"type": "Point", "coordinates": [72.5856397, 23.1071309]}}, {"type": "Feature", "properties": {"osm_id": 611572697, "osm_type": "node", "name": "ONGC Bus Depo", "highway": "bus_stop"}, "geometry": {"type": "Point", "coordinates": [72.5867663, 23.1036376]}}, {"type": "Feature", "properties": {"osm_id": 1349429257, "osm_type": "node", "name": "Kali Road"}, "geometry": {"type": "Point", "coordinates": [72.5780885, 23.0980898]}}, {"type": "Feature", "properties": {"osm_id": 1349429275, "osm_type": "node", "name": "D-cabin", "amenity": "bus_station"}, "geometry": {"type": "Point", "coordinates": [72.5702646, 23.1023628]}}, {"type": "Feature", "properties": {"osm_id": 1349429278, "osm_type": "node", "name": "Vallabhpark", "amenity": "bus_station"}, "geometry": {"type": "Point", "coordinates": [72.576519, 23.101524]}}, {"type": "Feature", "properties": {"osm_id": 2211705413, "osm_type": "node", "name": "GST Crossing 1 (AMTS)", "highway": "bus_stop"}, "geometry": {"type": "Point", "coordinates": [72.5661042, 23.0844751]}}, {"type": "Feature", "properties": {"osm_id": 3231323519, "osm_type": "node", "name": "Airport Circle bus stop", "highway": "bus_stop"}, "geometry": {"type": "Point", "coordinates": [72.6167476, 23.0813883]}}, {"type": "Feature", "properties": {"osm_id": 4312193889, "osm_type": "node", "name": "Khodiyar Junction"}, "geometry": {"type": "Point", "coordinates": [72.5483, 23.1559206]}}, {"type": "Feature", "properties": {"osm_id": 4585304001, "osm_type": "node", "name": "Chandlodiya", "highway": "bus_stop"}, "geometry": {"type": "Point", "coordinates": [72.5512141, 23.0847978]}}, {"type": "Feature", "properties": {"osm_id": 4794246527, "osm_type": "node", "name": "Ranip Bus stop", "highway": "bus_stop"}, "geometry": {"type": "Point", "coordinates": [72.5771961, 23.081039]}}, {"type": "Feature", "properties": {"osm_id": 6738428335, "osm_type": "node", "name": "Chandlodiya 'B'"}, "geometry": {"type": "Point", "coordinates": [72.5408184, 23.0807984]}}, {"type": "Feature", "properties": {"osm_id": 7556326461, "osm_type": "node", "name": "Chandkheda Road"}, "geometry": {"type": "Point", "coordinates": [72.5637712, 23.1103339]}}, {"type": "Feature", "properties": {"osm_id": 9316233960, "osm_type": "node", "name": "", "highway": "bus_stop"}, "geometry": {"type": "Point", "coordinates": [72.5754247, 23.1891887]}}, {"type": "Feature", "properties": {"osm_id": 9316233961, "osm_type": "node", "name": "", "highway": "bus_stop"}, "geometry": {"type": "Point", "coordinates": [72.5754864, 23.1889686]}}, {"type": "Feature", "properties": {"osm_id": 9316233962, "osm_type": "node", "name": "", "highway": "bus_stop"}, "geometry": {"type": "Point", "coordinates": [72.5725601, 23.1775522]}}, {"type": "Feature", "properties": {"osm_id": 9316233963, "osm_type": "node", "name": "", "highway": "bus_stop"}, "geometry": {"type": "Point", "coordinates": [72.5726245, 23.1775485]}}, {"type": "Feature", "properties": {"osm_id": 9316233965, "osm_type": "node", "name": "", "highway": "bus_stop"}, "geometry": {"type": "Point", "coordinates": [72.5783658, 23.1876989]}}, {"type": "Feature", "properties": {"osm_id": 9316233966, "osm_type": "node", "name": "", "highway": "bus_stop"}, "geometry": {"type": "Point", "coordinates": [72.5784771, 23.1878234]}}, {"type": "Feature", "properties": {"osm_id": 9316233967, "osm_type": "node", "name": "", "highway": "bus_stop"}, "geometry": {"type": "Point", "coordinates": [72.5771387, 23.1887375]}}, {"type": "Feature", "properties": {"osm_id": 9316233968, "osm_type": "node", "name": "", "highway": "bus_stop"}, "geometry": {"type": "Point", "coordinates": [72.5772755, 23.1888053]}}, {"type": "Feature", "properties": {"osm_id": 9316233969, "osm_type": "node", "name": "", "highway": "bus_stop"}, "geometry": {"type": "Point", "coordinates": [72.5716764, 23.1838828]}}, {"type": "Feature", "properties": {"osm_id": 9316233970, "osm_type": "node", "name": "", "highway": "bus_stop"}, "geometry": {"type": "Point", "coordinates": [72.5715597, 23.1838199]}}, {"type": "Feature", "properties": {"osm_id": 12196641347, "osm_type": "node", "name": "Tapovan Circle"}, "geometry": {"type": "Point", "coordinates": [72.6157987, 23.1201271]}}, {"type": "Feature", "properties": {"osm_id": 12196641348, "osm_type": "node", "name": "Vishwakarma College"}, "geometry": {"type": "Point", "coordinates": [72.6083864, 23.1141999]}}, {"type": "Feature", "properties": {"osm_id": 12196641349, "osm_type": "node", "name": "Koteshwar Road"}, "geometry": {"type": "Point", "coordinates": [72.6021329, 23.1031114]}}, {"type": "Feature", "properties": {"osm_id": 12196641364, "osm_type": "node", "name": "Sabarmati"}, "geometry": {"type": "Point", "coordinates": [72.592206, 23.0856303]}}, {"type": "Feature", "properties": {"osm_id": 12196641366, "osm_type": "node", "name": "Motera Stadium"}, "geometry": {"type": "Point", "coordinates": [72.596692, 23.0967726]}}, {"type": "Feature", "properties": {"osm_id": 13582340756, "osm_type": "node", "name": "Sakar School Bus Stop", "highway": "bus_stop"}, "geometry": {"type": "Point", "coordinates": [72.5909683, 23.1091079]}}, {"type": "Feature", "properties": {"osm_id": 13582340757, "osm_type": "node", "name": "Sakar School Bus Stop", "highway": "bus_stop"}, "geometry": {"type": "Point", "coordinates": [72.5910153, 23.1092205]}}, {"type": "Feature", "properties": {"osm_id": 13582340758, "osm_type": "node", "name": "Swagat Bungalows Bus Stop", "highway": "bus_stop"}, "geometry": {"type": "Point", "coordinates": [72.5927065, 23.1093569]}}, {"type": "Feature", "properties": {"osm_id": 13582340759, "osm_type": "node", "name": "Swagat Bungalows Bus Stop", "highway": "bus_stop"}, "geometry": {"type": "Point", "coordinates": [72.5929077, 23.1091859]}}, {"type": "Feature", "properties": {"osm_id": 322770856, "osm_type": "node", "name": "Naroda"}, "geometry": {"type": "Point", "coordinates": [72.6580946, 23.0854097]}}, {"type": "Feature", "properties": {"osm_id": 4481510492, "osm_type": "node", "name": "Hanspura Bus stop", "highway": "bus_stop"}, "geometry": {"type": "Point", "coordinates": [72.6800838, 23.0847663]}}, {"type": "Feature", "properties": {"osm_id": 12196641344, "osm_type": "node", "name": "Juna Koba"}, "geometry": {"type": "Point", "coordinates": [72.6386122, 23.1419718]}}, {"type": "Feature", "properties": {"osm_id": 12196641345, "osm_type": "node", "name": "Koba Circle"}, "geometry": {"type": "Point", "coordinates": [72.631042, 23.1322508]}}, {"type": "Feature", "properties": {"osm_id": 12196641346, "osm_type": "node", "name": "Narmada Canal"}, "geometry": {"type": "Point", "coordinates": [72.6220979, 23.1251457]}}, {"type": "Feature", "properties": {"osm_id": 12196641350, "osm_type": "node", "name": "Raysan"}, "geometry": {"type": "Point", "coordinates": [72.6483252, 23.1663954]}}, {"type": "Feature", "properties": {"osm_id": 12196641351, "osm_type": "node", "name": "Randesan"}, "geometry": {"type": "Point", "coordinates": [72.6472905, 23.1790845]}}, {"type": "Feature", "properties": {"osm_id": 12196641352, "osm_type": "node", "name": "Dholakuva Circle"}, "geometry": {"type": "Point", "coordinates": [72.6433202, 23.1859445]}}, {"type": "Feature", "properties": {"osm_id": 12196641353, "osm_type": "node", "name": "Infocity"}, "geometry": {"type": "Point", "coordinates": [72.6397126, 23.1922574]}}, {"type": "Feature", "properties": {"osm_id": 12196641355, "osm_type": "node", "name": "GNLU"}, "geometry": {"type": "Point", "coordinates": [72.6474689, 23.1544724]}}, {"type": "Feature", "properties": {"osm_id": 12196641357, "osm_type": "node", "name": "GIFT City"}, "geometry": {"type": "Point", "coordinates": [72.6855536, 23.1533555]}}, {"type": "Feature", "properties": {"osm_id": 12696728310, "osm_type": "node", "name": "PDPU"}, "geometry": {"type": "Point", "coordinates": [72.6612117, 23.1548645]}}, {"type": "Feature", "properties": {"osm_id": 1317807984, "osm_type": "way", "name": "Koba Gam", "building": "train_station"}, "geometry": {"type": "LineString", "coordinates": [[72.643496, 23.1471251], [72.6436663, 23.1470368], [72.6443149, 23.1480946], [72.6441447, 23.1481828], [72.643496, 23.1471251]]}}, {"type": "Feature", "properties": {"osm_id": 3455747180, "osm_type": "node", "name": "Adraj Moti"}, "geometry": {"type": "Point", "coordinates": [72.5651572, 23.2582064]}}, {"type": "Feature", "properties": {"osm_id": 3455747183, "osm_type": "node", "name": "Kolvada"}, "geometry": {"type": "Point", "coordinates": [72.612172, 23.2712108]}}, {"type": "Feature", "properties": {"osm_id": 6571896867, "osm_type": "node", "name": "Tintoda"}, "geometry": {"type": "Point", "coordinates": [72.5475066, 23.2478004]}}, {"type": "Feature", "properties": {"osm_id": 762994075, "osm_type": "node", "name": "Pathikashram", "highway": "bus_stop"}, "geometry": {"type": "Point", "coordinates": [72.6426563, 23.2162767]}}, {"type": "Feature", "properties": {"osm_id": 2516708243, "osm_type": "node", "name": "Gandhinagar Capital"}, "geometry": {"type": "Point", "coordinates": [72.6303291, 23.2348402]}}, {"type": "Feature", "properties": {"osm_id": 3942904058, "osm_type": "node", "name": "", "highway": "bus_stop"}, "geometry": {"type": "Point", "coordinates": [72.6368624, 23.2023997]}}, {"type": "Feature", "properties": {"osm_id": 6571916829, "osm_type": "node", "name": "Randheja"}, "geometry": {"type": "Point", "coordinates": [72.6338138, 23.2971205]}}, {"type": "Feature", "properties": {"osm_id": 12196641354, "osm_type": "node", "name": "Sector-1"}, "geometry": {"type": "Point", "coordinates": [72.6431519, 23.2049077]}}, {"type": "Feature", "properties": {"osm_id": 12858592937, "osm_type": "node", "name": "Sachivalaya"}, "geometry": {"type": "Point", "coordinates": [72.6587511, 23.2150688]}}, {"type": "Feature", "properties": {"osm_id": 12858592938, "osm_type": "node", "name": "Sector-10A"}, "geometry": {"type": "Point", "coordinates": [72.6501927, 23.2114841]}}, {"type": "Feature", "properties": {"osm_id": 13457569568, "osm_type": "node", "name": "Akshardham"}, "geometry": {"type": "Point", "coordinates": [72.6641817, 23.2236772]}}, {"type": "Feature", "properties": {"osm_id": 13457569573, "osm_type": "node", "name": "Juna Sachivalaya"}, "geometry": {"type": "Point", "coordinates": [72.6594151, 23.228926]}}, {"type": "Feature", "properties": {"osm_id": 13457569580, "osm_type": "node", "name": "Sector-16"}, "geometry": {"type": "Point", "coordinates": [72.6501659, 23.2338826]}}, {"type": "Feature", "properties": {"osm_id": 13457569587, "osm_type": "node", "name": "Sector-24"}, "geometry": {"type": "Point", "coordinates": [72.6414782, 23.2385075]}}, {"type": "Feature", "properties": {"osm_id": 13457569598, "osm_type": "node", "name": "Mahatma Mandir"}, "geometry": {"type": "Point", "coordinates": [72.6338714, 23.2339412]}}, {"type": "Feature", "properties": {"osm_id": 326072459, "osm_type": "way", "name": "Gandhinagar Bus Stop", "amenity": "bus_station"}, "geometry": {"type": "LineString", "coordinates": [[72.6420999, 23.2166122], [72.6424099, 23.2164419], [72.6423143, 23.2162949], [72.6418489, 23.2165506], [72.6419445, 23.2166976], [72.6419466, 23.2166964], [72.6423197, 23.2172712], [72.642478, 23.2171833], [72.6420999, 23.2166122]]}}, {"type": "Feature", "properties": {"osm_id": 338754923, "osm_type": "way", "name": "Gandhinagar Bus Stop", "amenity": "bus_station", "building": "yes"}, "geometry": {"type": "LineString", "coordinates": [[72.6420162, 23.2175423], [72.6413595, 23.2164185], [72.6416699, 23.2162516], [72.6426924, 23.2157017], [72.642829, 23.2156282], [72.6433189, 23.2163742], [72.6431676, 23.2168929], [72.6420162, 23.2175423]]}}]}