{"type": "FeatureCollection", "features": [{"type": "Feature", "properties": {"osm_id": 3678203340, "osm_type": "node", "name": "Amba School for Excellence", "amenity": "school"}, "geometry": {"type": "Point", "coordinates": [72.577756, 23.1889236]}}, {"type": "Feature", "properties": {"osm_id": 3775189519, "osm_type": "node", "name": "RC TECHNICAL INSTITUTE", "amenity": "college"}, "geometry": {"type": "Point", "coordinates": [72.5307242, 23.0830479]}}, {"type": "Feature", "properties": {"osm_id": 10959521083, "osm_type": "node", "name": "The OLD LITTLE FLOWER SCHOOL", "amenity": "school"}, "geometry": {"type": "Point", "coordinates": [72.5775928, 23.1026901]}}, {"type": "Feature", "properties": {"osm_id": 10959556357, "osm_type": "node", "name": "Kendriya Vidyala Sabarmati", "amenity": "school"}, "geometry": {"type": "Point", "coordinates": [72.5815065, 23.1006535]}}, {"type": "Feature", "properties": {"osm_id": 10959557671, "osm_type": "node", "name": "The NEW LITTLE FLOWER SCHOOL", "amenity": "school"}, "geometry": {"type": "Point", "coordinates": [72.5781828, 23.1043189]}}, {"type": "Feature", "properties": {"osm_id": 10959590887, "osm_type": "node", "name": "Sakar English School", "amenity": "school"}, "geometry": {"type": "Point", "coordinates": [72.5918371, 23.1088888]}}, {"type": "Feature", "properties": {"osm_id": 10959630823, "osm_type": "node", "name": "Podar International School", "amenity": "school"}, "geometry": {"type": "Point", "coordinates": [72.590667, 23.1097883]}}, {"type": "Feature", "properties": {"osm_id": 11443386624, "osm_type": "node", "name": "H3 World School", "amenity": "school"}, "geometry": {"type": "Point", "coordinates": [72.562771, 23.1273816]}}, {"type": "Feature", "properties": {"osm_id": 118695847, "osm_type": "way", "name": "Vishwakarma Government Engineering College, Chandkheda", "amenity": "college", "landuse": "residential"}, "geometry": {"type": "LineString", "coordinates": [[72.5947372, 23.1083971], [72.5965837, 23.1079573], [72.5968476, 23.1073286], [72.5967864, 23.1063643], [72.5969848, 23.1057592], [72.5946723, 23.1038359], [72.5943065, 23.1044286], [72.5924997, 23.103461], [72.5916704, 23.1050611], [72.5918326, 23.1056439], [72.5921091, 23.1055916], [72.592044, 23.106661], [72.5918245, 23.1067358], [72.5919058, 23.1073939], [72.5927184, 23.1072547], [72.5927352, 23.1072518], [72.5929547, 23.108052], [72.5947372, 23.1083971]]}}, {"type": "Feature", "properties": {"osm_id": 118696270, "osm_type": "way", "name": "St Josheph School", "amenity": "school"}, "geometry": {"type": "LineString", "coordinates": [[72.5694072, 23.1042172], [72.5697819, 23.1041143], [72.5695628, 23.1036004], [72.5691873, 23.10363], [72.5694072, 23.1042172]]}}, {"type": "Feature", "properties": {"osm_id": 120327303, "osm_type": "way", "name": "IP School", "amenity": "school"}, "geometry": {"type": "LineString", "coordinates": [[72.5759306, 23.1062115], [72.5767206, 23.1061447], [72.5767214, 23.1058083], [72.5759763, 23.1057886], [72.5759306, 23.1062115]]}}, {"type": "Feature", "properties": {"osm_id": 343148382, "osm_type": "way", "name": "Municipality School", "amenity": "school", "building": "yes"}, "geometry": {"type": "LineString", "coordinates": [[72.5921676, 23.0810146], [72.5926092, 23.0811478], [72.59273, 23.0808089], [72.5922884, 23.0806757], [72.5921676, 23.0810146]]}}, {"type": "Feature", "properties": {"osm_id": 538943356, "osm_type": "way", "name": "Nirma Vidhya Vihar", "amenity": "school"}, "geometry": {"type": "LineString", "coordinates": [[72.5455267, 23.1259436], [72.547356, 23.1254552], [72.5471414, 23.1246461], [72.5452853, 23.1251814], [72.5455267, 23.1259436]]}}, {"type": "Feature", "properties": {"osm_id": 547581974, "osm_type": "way", "name": "NIRMA University", "amenity": "college"}, "geometry": {"type": "LineString", "coordinates": [[72.5416735, 23.1312471], [72.5452389, 23.1305825], [72.5458446, 23.131572], [72.5485173, 23.1306681], [72.5489185, 23.1305703], [72.5477069, 23.1273048], [72.5475528, 23.1266744], [72.5474705, 23.1259121], [72.547404, 23.1254919], [72.5472287, 23.1246856], [72.5471249, 23.1246224], [72.5413585, 23.1260257], [72.5402998, 23.126282], [72.5402612, 23.1263207], [72.5402384, 23.1263562], [72.5411582, 23.129463], [72.5412224, 23.1294663], [72.5412913, 23.1295122], [72.5413754, 23.1295062], [72.5414497, 23.1298042], [72.5413707, 23.129841], [72.5413557, 23.1299092], [72.5412957, 23.1299583], [72.5416735, 23.1312471]]}}, {"type": "Feature", "properties": {"osm_id": 551625996, "osm_type": "way", "name": "Tapovan Sanskar Peeth", "amenity": "school"}, "geometry": {"type": "LineString", "coordinates": [[72.6119416, 23.1267445], [72.6137849, 23.1266817], [72.6139893, 23.1266626], [72.6146817, 23.1265977], [72.6144339, 23.1256833], [72.6143966, 23.1255457], [72.6147477, 23.1254722], [72.6143244, 23.1242883], [72.6141606, 23.1237427], [72.6141103, 23.1236182], [72.614042, 23.1234977], [72.6139821, 23.123425], [72.6139, 23.123346], [72.6138232, 23.1233134], [72.6134946, 23.1232528], [72.6134543, 23.1232924], [72.6133567, 23.1232899], [72.6133023, 23.1232887], [72.613269, 23.123286], [72.6132338, 23.1232188], [72.6127549, 23.1231903], [72.6121754, 23.123143], [72.6121533, 23.1234771], [72.6120995, 23.124292], [72.6119416, 23.1267445]]}}, {"type": "Feature", "properties": {"osm_id": 581725468, "osm_type": "way", "name": "", "amenity": "school"}, "geometry": {"type": "LineString", "coordinates": [[72.5778764, 23.1892251], [72.5772944, 23.1888331], [72.5779515, 23.188303], [72.5783699, 23.1885816], [72.5778764, 23.1892251]]}}, {"type": "Feature", "properties": {"osm_id": 997945834, "osm_type": "way", "name": "Karnavati University", "amenity": "university"}, "geometry": {"type": "LineString", "coordinates": [[72.5849702, 23.2045165], [72.5845349, 23.2045776], [72.5841733, 23.2045912], [72.5837748, 23.2043606], [72.5834944, 23.2042656], [72.5827934, 23.2035196], [72.5825352, 23.2029838], [72.5823433, 23.202665], [72.5822031, 23.2023598], [72.5821662, 23.2021157], [72.5824023, 23.2020886], [72.5830517, 23.2020614], [72.5831697, 23.2019529], [72.5831033, 23.2017223], [72.583, 23.2011458], [72.5829853, 23.200766], [72.5830074, 23.2003116], [72.5830591, 23.2000878], [72.5837379, 23.1999996], [72.5836346, 23.2005286], [72.5838191, 23.2012001], [72.5839593, 23.2012883], [72.5850145, 23.2012272], [72.5850514, 23.2029363], [72.5850292, 23.2041571], [72.5849702, 23.2045165]]}}, {"type": "Feature", "properties": {"osm_id": 1180000553, "osm_type": "way", "name": "", "amenity": "school", "building": "yes"}, "geometry": {"type": "LineString", "coordinates": [[72.57755, 23.1028235], [72.5775168, 23.1026154], [72.5776919, 23.1025835], [72.57771, 23.1027666], [72.57755, 23.1028235]]}}, {"type": "Feature", "properties": {"osm_id": 1180007887, "osm_type": "way", "name": "", "amenity": "school", "building": "school"}, "geometry": {"type": "LineString", "coordinates": [[72.5902114, 23.1098515], [72.5902253, 23.1095211], [72.5909854, 23.1095482], [72.5909715, 23.1098787], [72.5902114, 23.1098515]]}}, {"type": "Feature", "properties": {"osm_id": 1180008783, "osm_type": "way", "name": "", "amenity": "school"}, "geometry": {"type": "LineString", "coordinates": [[72.5914202, 23.1089863], [72.5914284, 23.1088662], [72.5912315, 23.1088414], [72.5911963, 23.1086965], [72.5915715, 23.1087099], [72.5918306, 23.1087633], [72.5920877, 23.108769], [72.592239, 23.1088128], [72.5922597, 23.1090264], [72.5914202, 23.1089863]]}}, {"type": "Feature", "properties": {"osm_id": 1180013600, "osm_type": "way", "name": "Kendriya Vidyalaya Sabarmati", "amenity": "school"}, "geometry": {"type": "LineString", "coordinates": [[72.5805047, 23.1020869], [72.5814016, 23.1005881], [72.5821581, 23.0993239], [72.5828289, 23.0996703], [72.5826991, 23.0998813], [72.5832874, 23.1001299], [72.5817298, 23.1026473], [72.5805047, 23.1020869]]}}, {"type": "Feature", "properties": {"osm_id": 1180013606, "osm_type": "way", "name": "Assembly Area", "amenity": "school"}, "geometry": {"type": "LineString", "coordinates": [[72.5821076, 23.1013698], [72.5822858, 23.1010829], [72.5824619, 23.1011629], [72.5823071, 23.1014634], [72.5821076, 23.1013698]]}}, {"type": "Feature", "properties": {"osm_id": 1360946187, "osm_type": "way", "name": "Swarrnim International School", "amenity": "school"}, "geometry": {"type": "LineString", "coordinates": [[72.5837156, 23.1781937], [72.5835151, 23.1776363], [72.5843301, 23.1774908], [72.5844917, 23.1780253], [72.5837156, 23.1781937]]}}, {"type": "Feature", "properties": {"osm_id": 5998771288, "osm_type": "node", "name": "SSIT (shree Swaminarayan institute of technology)", "amenity": "college"}, "geometry": {"type": "Point", "coordinates": [72.6301367, 23.1149923]}}, {"type": "Feature", "properties": {"osm_id": 11158523574, "osm_type": "node", "name": "Adarsh Prathamik Shala (Elementary school)", "amenity": "university"}, "geometry": {"type": "Point", "coordinates": [72.6619214, 23.1828788]}}, {"type": "Feature", "properties": {"osm_id": 14011291475, "osm_type": "node", "name": "Institute of Advanced Research,  Gandhinagar", "amenity": "university"}, "geometry": {"type": "Point", "coordinates": [72.6697832, 23.1486911]}}, {"type": "Feature", "properties": {"osm_id": 338819299, "osm_type": "way", "name": "National Institute of Design - NID Gandhinagar", "amenity": "college"}, "geometry": {"type": "LineString", "coordinates": [[72.6300207, 23.1876372], [72.6328814, 23.1873205], [72.6333176, 23.1872723], [72.6331751, 23.1858568], [72.6331713, 23.1858188], [72.6299645, 23.1857255], [72.6297444, 23.1858603], [72.6300207, 23.1876372]]}}, {"type": "Feature", "properties": {"osm_id": 361583946, "osm_type": "way", "name": "Gujarat National Law University", "amenity": "university"}, "geometry": {"type": "LineString", "coordinates": [[72.6600584, 23.1547078], [72.6614829, 23.154313], [72.6623069, 23.1540852], [72.6628124, 23.1539411], [72.6628857, 23.1538666], [72.6618975, 23.151975], [72.660887, 23.1501412], [72.6604011, 23.1499717], [72.6598902, 23.1499786], [72.6594861, 23.1498043], [72.6592536, 23.1496742], [72.6588643, 23.1494511], [72.6582109, 23.148938], [72.657642, 23.1491607], [72.6578836, 23.1498322], [72.6579342, 23.1497811], [72.6581516, 23.150641], [72.658556, 23.152054], [72.6596791, 23.15462], [72.6598299, 23.154722], [72.6600584, 23.1547078]]}}, {"type": "Feature", "properties": {"osm_id": 361583948, "osm_type": "way", "name": "Pandit Deendayal Energy University", "amenity": "university"}, "geometry": {"type": "LineString", "coordinates": [[72.6673911, 23.1538246], [72.667707, 23.1545312], [72.6679699, 23.1552377], [72.6682385, 23.1560588], [72.6684319, 23.1566499], [72.6637037, 23.1589152], [72.6617546, 23.1555522], [72.6623485, 23.155233], [72.6630107, 23.154982], [72.6644248, 23.1546501], [72.6645321, 23.1546249], [72.6656242, 23.1543685], [72.6667667, 23.1540617], [72.6673911, 23.1538246]]}}, {"type": "Feature", "properties": {"osm_id": 398144591, "osm_type": "way", "name": "NIFT", "amenity": "college"}, "geometry": {"type": "LineString", "coordinates": [[72.6280913, 23.1922223], [72.6278949, 23.190927], [72.6279885, 23.1909136], [72.6281325, 23.1908931], [72.6288228, 23.1907948], [72.630207, 23.1905977], [72.6304304, 23.1919685], [72.6280913, 23.1922223]]}}, {"type": "Feature", "properties": {"osm_id": 398144592, "osm_type": "way", "name": "Dhirubhai Ambani Institute of Information and Communication Technology", "amenity": "university"}, "geometry": {"type": "LineString", "coordinates": [[72.6296642, 23.1886731], [72.6296684, 23.1885716], [72.6296708, 23.188543], [72.6296836, 23.1885433], [72.6296854, 23.1884768], [72.6296999, 23.1884359], [72.6298169, 23.1883801], [72.6297421, 23.1879677], [72.6293417, 23.18576], [72.629282, 23.1857002], [72.628896, 23.1856866], [72.6287611, 23.1856818], [72.628686, 23.1856792], [72.6262643, 23.1855942], [72.6261498, 23.1894103], [72.6260966, 23.191183], [72.6267884, 23.1910845], [72.6278949, 23.190927], [72.6279885, 23.1909136], [72.6281325, 23.1908931], [72.6288228, 23.1907948], [72.630207, 23.1905977], [72.6301934, 23.1905171], [72.6299517, 23.189134], [72.6298854, 23.1887549], [72.629718, 23.1887595], [72.6297147, 23.188712], [72.6296642, 23.1886731]]}}, {"type": "Feature", "properties": {"osm_id": 451822431, "osm_type": "way", "name": "Institute For Plasma Research ,IPR,Bhat", "amenity": "college"}, "geometry": {"type": "LineString", "coordinates": [[72.6240035, 23.0974834], [72.6231255, 23.0983254], [72.6241996, 23.0991845], [72.6255913, 23.0988838], [72.6257594, 23.0986089], [72.6260863, 23.0975006], [72.6256567, 23.0970882], [72.6240035, 23.0974834]]}}, {"type": "Feature", "properties": {"osm_id": 547631196, "osm_type": "way", "name": "Gujarat Police Academy, Karai", "amenity": "school"}, "geometry": {"type": "LineString", "coordinates": [[72.6505332, 23.138161], [72.650633, 23.1380288], [72.6514248, 23.1374099], [72.6513486, 23.13629], [72.6527856, 23.1362594], [72.6542774, 23.1363964], [72.6538979, 23.1352424], [72.6530525, 23.1353044], [72.6525961, 23.1343839], [72.6522538, 23.1328005], [72.652176, 23.1303394], [72.652023, 23.1293402], [72.65187, 23.1283409], [72.6515225, 23.1261945], [72.6487322, 23.126247], [72.6471629, 23.128762], [72.6469687, 23.1309785], [72.6469702, 23.1330766], [72.647316, 23.1344963], [72.6489235, 23.1369841], [72.6494035, 23.1378696], [72.6495059, 23.1378879], [72.6498895, 23.1382767], [72.6500373, 23.1382904], [72.6502181, 23.1382853], [72.6503824, 23.1382356], [72.6505332, 23.138161]]}}, {"type": "Feature", "properties": {"osm_id": 551671380, "osm_type": "way", "name": "Anand Niketan Sughad", "amenity": "school"}, "geometry": {"type": "LineString", "coordinates": [[72.6365238, 23.1219393], [72.6381853, 23.1218421], [72.6385123, 23.1224066], [72.6385652, 23.122657], [72.6365515, 23.1225379], [72.6365238, 23.1219393]]}}, {"type": "Feature", "properties": {"osm_id": 694241024, "osm_type": "way", "name": "School of Achiever", "amenity": "school"}, "geometry": {"type": "LineString", "coordinates": [[72.6289633, 23.1713813], [72.6295296, 23.1697285], [72.6278803, 23.1697577], [72.6277741, 23.1705549], [72.6278768, 23.1713521], [72.6289633, 23.1713813]]}}, {"type": "Feature", "properties": {"osm_id": 1432594586, "osm_type": "way", "name": "SBG room", "amenity": "university"}, "geometry": {"type": "LineString", "coordinates": [[72.6269745, 23.1885352], [72.6269968, 23.1885207], [72.6270292, 23.1885519], [72.6270081, 23.1885678], [72.6269745, 23.1885352]]}}, {"type": "Feature", "properties": {"osm_id": 997945834, "osm_type": "way", "name": "Karnavati University", "amenity": "university"}, "geometry": {"type": "LineString", "coordinates": [[72.5849702, 23.2045165], [72.5845349, 23.2045776], [72.5841733, 23.2045912], [72.5837748, 23.2043606], [72.5834944, 23.2042656], [72.5827934, 23.2035196], [72.5825352, 23.2029838], [72.5823433, 23.202665], [72.5822031, 23.2023598], [72.5821662, 23.2021157], [72.5824023, 23.2020886], [72.5830517, 23.2020614], [72.5831697, 23.2019529], [72.5831033, 23.2017223], [72.583, 23.2011458], [72.5829853, 23.200766], [72.5830074, 23.2003116], [72.5830591, 23.2000878], [72.5837379, 23.1999996], [72.5836346, 23.2005286], [72.5838191, 23.2012001], [72.5839593, 23.2012883], [72.5850145, 23.2012272], [72.5850514, 23.2029363], [72.5850292, 23.2041571], [72.5849702, 23.2045165]]}}, {"type": "Feature", "properties": {"osm_id": 997945857, "osm_type": "way", "name": "Karnavati University North Extension", "amenity": "university"}, "geometry": {"type": "LineString", "coordinates": [[72.5816779, 23.2071018], [72.582363, 23.2075241], [72.5832959, 23.206211], [72.5833161, 23.2061555], [72.5820003, 23.2062981], [72.5816779, 23.2071018]]}}, {"type": "Feature", "properties": {"osm_id": 1241884683, "osm_type": "node", "name": "Choudri College", "amenity": "school"}, "geometry": {"type": "Point", "coordinates": [72.643273, 23.2122934]}}, {"type": "Feature", "properties": {"osm_id": 5216737197, "osm_type": "node", "name": "IIT Gandhinagar", "amenity": "college"}, "geometry": {"type": "Point", "coordinates": [72.6847766, 23.2127589]}}, {"type": "Feature", "properties": {"osm_id": 8143978972, "osm_type": "node", "name": "Central University of Gujarat", "amenity": "university"}, "geometry": {"type": "Point", "coordinates": [72.6619837, 23.2451809]}}, {"type": "Feature", "properties": {"osm_id": 326050798, "osm_type": "way", "name": "Goverment Commerce College", "amenity": "college"}, "geometry": {"type": "LineString", "coordinates": [[72.6395386, 23.2291916], [72.6378471, 23.2301249], [72.6380112, 23.2303906], [72.6359799, 23.2315321], [72.6363783, 23.2321854], [72.6384956, 23.2322213], [72.6386909, 23.2322572], [72.6391708, 23.2330118], [72.6413536, 23.2318345], [72.6405659, 23.2305413], [72.6396597, 23.2291306], [72.6395386, 23.2291916]]}}, {"type": "Feature", "properties": {"osm_id": 326052921, "osm_type": "way", "name": "ITI college", "amenity": "college"}, "geometry": {"type": "LineString", "coordinates": [[72.6404131, 23.2377461], [72.6409567, 23.2385311], [72.644374, 23.236747], [72.6438908, 23.2358668], [72.6436837, 23.2359144], [72.6404051, 23.2376563], [72.6403883, 23.2377096], [72.6404131, 23.2377461]]}}, {"type": "Feature", "properties": {"osm_id": 326052922, "osm_type": "way", "name": "Technology and Research", "amenity": "college"}, "geometry": {"type": "LineString", "coordinates": [[72.6373441, 23.2390294], [72.6378647, 23.2398121], [72.6380613, 23.2398153], [72.6380712, 23.2398827], [72.6382076, 23.2399104], [72.6384665, 23.23991], [72.6407368, 23.2386145], [72.640212, 23.2378071], [72.638894, 23.23848], [72.6388025, 23.2384912], [72.6387476, 23.2383622], [72.6386809, 23.2383911], [72.6383733, 23.2385457], [72.6373441, 23.2390294]]}}, {"type": "Feature", "properties": {"osm_id": 338778217, "osm_type": "way", "name": "", "amenity": "school"}, "geometry": {"type": "LineString", "coordinates": [[72.634354, 23.2201109], [72.6344521, 23.2199442], [72.6356581, 23.2192729], [72.6370014, 23.2215682], [72.6356797, 23.2222387], [72.634354, 23.2201109]]}}, {"type": "Feature", "properties": {"osm_id": 421586361, "osm_type": "way", "name": "Hillwoods School", "amenity": "school", "building": "school"}, "geometry": {"type": "LineString", "coordinates": [[72.6333485, 23.2472253], [72.6348505, 23.2464416], [72.6340566, 23.2451354], [72.6325438, 23.2458994], [72.6333485, 23.2472253]]}}, {"type": "Feature", "properties": {"osm_id": 693614281, "osm_type": "way", "name": "Academic Block", "amenity": "university"}, "geometry": {"type": "LineString", "coordinates": [[72.685687, 23.2159597], [72.6856895, 23.2154972], [72.6858272, 23.2155014], [72.6858357, 23.2152642], [72.6859476, 23.2151754], [72.6863006, 23.2151754], [72.6863826, 23.2152766], [72.6863664, 23.2157709], [72.6863653, 23.2158036], [72.686563, 23.2158091], [72.6865822, 23.2152268], [72.686589, 23.2150195], [72.6870845, 23.2150333], [72.6870988, 23.2146011], [72.6878423, 23.2137247], [72.6878583, 23.2133333], [72.6860851, 23.2132721], [72.6856031, 23.2129178], [72.6853603, 23.2130015], [72.6843893, 23.2129876], [72.6842771, 23.2130625], [72.6842002, 23.213064], [72.6841454, 23.2130653], [72.6832737, 23.213052], [72.683269, 23.2135446], [72.6840038, 23.2142786], [72.685687, 23.2159597]]}}, {"type": "Feature", "properties": {"osm_id": 693906757, "osm_type": "way", "name": "Govt. Primery School", "amenity": "school"}, "geometry": {"type": "LineString", "coordinates": [[72.6456405, 23.2454151], [72.6460726, 23.2461698], [72.6452971, 23.2464195], [72.6449, 23.2458079], [72.6456405, 23.2454151]]}}, {"type": "Feature", "properties": {"osm_id": 717379500, "osm_type": "way", "name": "St. Xavier's High School", "amenity": "school"}, "geometry": {"type": "LineString", "coordinates": [[72.6483334, 23.2120435], [72.6478442, 23.2112475], [72.6486382, 23.2108052], [72.6484858, 23.2105767], [72.6488708, 23.2103851], [72.6494562, 23.2114465], [72.6483334, 23.2120435]]}}, {"type": "Feature", "properties": {"osm_id": 843168315, "osm_type": "way", "name": "Swarnim Gujarat Sports University", "amenity": "university"}, "geometry": {"type": "LineString", "coordinates": [[72.638104, 23.2317273], [72.6385788, 23.2315196], [72.6388016, 23.2318977], [72.638426, 23.232095], [72.6383447, 23.2321368], [72.638104, 23.2317273]]}}, {"type": "Feature", "properties": {"osm_id": 1333160688, "osm_type": "way", "name": "", "amenity": "college"}, "geometry": {"type": "LineString", "coordinates": [[72.6544259, 23.2423181], [72.6539623, 23.2414791], [72.6542171, 23.2413393], [72.6526209, 23.2387897], [72.6542277, 23.2378954], [72.6556717, 23.2402531], [72.6563158, 23.2413913], [72.6544259, 23.2423181]]}}, {"type": "Feature", "properties": {"osm_id": 1333160705, "osm_type": "way", "name": "", "amenity": "university"}, "geometry": {"type": "LineString", "coordinates": [[72.6628052, 23.2451256], [72.6630701, 23.2440982], [72.6628722, 23.2437687], [72.6608684, 23.2447849], [72.6613895, 23.2456524], [72.6615248, 23.2458534], [72.6628052, 23.2451256]]}}, {"type": "Feature", "properties": {"osm_id": 1342376159, "osm_type": "way", "name": "National Forensic Sciences University", "amenity": "university"}, "geometry": {"type": "LineString", "coordinates": [[72.6611168, 23.2088332], [72.661218, 23.2089902], [72.6615338, 23.2094843], [72.6615456, 23.2095625], [72.6614912, 23.2096591], [72.6614773, 23.2097142], [72.6614847, 23.209786], [72.6616464, 23.2100828], [72.6616545, 23.2101633], [72.661628, 23.2102196], [72.6615567, 23.2102754], [72.6602922, 23.2109942], [72.6605386, 23.2113541], [72.6605748, 23.2114081], [72.6619481, 23.21067], [72.661986, 23.2106488], [72.664464, 23.2093219], [72.6644887, 23.2093018], [72.6645057, 23.2092781], [72.6645205, 23.2092264], [72.6645256, 23.209193], [72.6645173, 23.2091543], [72.6645001, 23.2091169], [72.6644668, 23.2090791], [72.664387, 23.2089997], [72.6642408, 23.2088474], [72.6641255, 23.2087295], [72.6640717, 23.2086705], [72.6640141, 23.2086133], [72.6638844, 23.208485], [72.6636736, 23.2082873], [72.663507, 23.2081303], [72.6631404, 23.2077712], [72.6625679, 23.2079976], [72.6611168, 23.2088332]]}}]}