{"type": "FeatureCollection", "features": [{"type": "Feature", "id": 1, "geometry": {"type": "Point", "coordinates": [72.61038154366037, 23.0328190587183]}, "properties": {"objectid": 1, "name": "SHARDABEN HOSPITAL", "zone": "NORTH ZONE", "ward": "27_SARASPUR_RAKHIYAL", "ward_id": 27, "zone_id": 2, "address": "SHARDABEN HOSPITAL,99, Sayedna Kutbuddin Saheed Marg, Saraspur, Ahmedabad, Gujarat 380018"}}, {"type": "Feature", "id": 2, "geometry": {"type": "Point", "coordinates": [72.57094175923714, 23.020738484503163]}, "properties": {"objectid": 2, "name": "V S HOSPITAL", "zone": "WEST ZONE", "ward": "30_PALDI", "ward_id": 30, "zone_id": 5, "address": "V S HOSPITAL,605, Paldi Rd, Madalpur Gam, Paldi, Ahmedabad, Gujarat 380006"}}, {"type": "Feature", "id": 3, "geometry": {"type": "Point", "coordinates": [72.61974599157928, 22.999351818395784]}, "properties": {"objectid": 3, "name": "RUKSHMANI HOSPITAL", "zone": "SOUTH ZONE", "ward": "44_KHOKHRA", "ward_id": 44, "zone_id": 3, "address": "RUKSHMANI HOSPITAL,Maninagar East, Khokhra Mehmadabad, Ahmedabad, Gujarat 380008"}}, {"type": "Feature", "id": 4, "geometry": {"type": "Point", "coordinates": [72.60542809734937, 22.999770504341175]}, "properties": {"objectid": 4, "name": "L G HOSPITAL", "zone": "SOUTH ZONE", "ward": "37_MANINAGAR", "ward_id": 37, "zone_id": 3, "address": "L G HOSPITAL,Maninagar, Balvatika, Maninagar, Ahmedabad, Gujarat 380008"}}]}