{"type": "FeatureCollection", "features": [{"type": "Feature", "id": 1, "geometry": {"type": "Point", "coordinates": [72.65231944419675, 22.97540277772343]}, "properties": {"objectid": 1, "name": "RAMOL", "ward": "48_RAMOL_HATHIJAN", "zone": "EAST ZONE", "ward_id": 48, "zone_id": 4, "address": "RAMOL-Urban Health Centre,In Ramol P.H.C. Building,Near-Samsan Gruh,Ramol Gam,Ahmedabad Gujarat"}}, {"type": "Feature", "id": 2, "geometry": {"type": "Point", "coordinates": [72.51246388871601, 23.050519444308794]}, "properties": {"objectid": 2, "name": "THALTEJ", "ward": "08_THALTEJ", "zone": "NORTH-WEST ZONE", "ward_id": 8, "zone_id": 6, "address": "THALTEJ-Urban Health Centre,In Thaltej Samajwadi Building,Thaltej Gam,Ahmedabad Gujarat"}}, {"type": "Feature", "id": 3, "geometry": {"type": "Point", "coordinates": [72.55349722243218, 23.07867222217697]}, "properties": {"objectid": 3, "name": "CHANDLODIA", "ward": "07_GHATLODIA", "zone": "NORTH-WEST ZONE", "ward_id": 7, "zone_id": 6, "address": "CHANDLODIA-Urban Health Centre,In Chandlodia P.H.C. Building,Ahmedabad Gujarat"}}, {"type": "Feature", "id": 4, "geometry": {"type": "Point", "coordinates": [72.54264722219521, 23.07176111093071]}, "properties": {"objectid": 4, "name": "GHATLODIA", "ward": "07_GHATLODIA", "zone": "NORTH-WEST ZONE", "ward_id": 7, "zone_id": 6, "address": "GHATLODIA-Urban Health Centre,Behind-City Civic Center,Under-Chankaypuri Bridge,Prabhat Chok,Ahmedabad Gujarat"}}, {"type": "Feature", "id": 5, "geometry": {"type": "Point", "coordinates": [72.5564944436003, 23.057477777950165]}, "properties": {"objectid": 5, "name": "NARANPURA", "ward": "09_NARANPURA", "zone": "WEST ZONE", "ward_id": 9, "zone_id": 5, "address": "NARANPURA-Urban Health Centre,In Naranpura Master Station Building,Near-Ankur Bus Stop,Ahmedabad Gujarat"}}, {"type": "Feature", "id": 6, "geometry": {"type": "Point", "coordinates": [72.56831944414289, 23.103988889237296]}, "properties": {"objectid": 6, "name": "KALI", "ward": "03_CHANDKHEDA", "zone": "WEST ZONE", "ward_id": 3, "zone_id": 5, "address": "KALI-Urban Health Centre,In Kali P.H.C.Building,Ahmedabad Gujarat"}}, {"type": "Feature", "id": 7, "geometry": {"type": "Point", "coordinates": [72.57587222212948, 23.113130556434896]}, "properties": {"objectid": 7, "name": "CHANDKHEDA", "ward": "03_CHANDKHEDA", "zone": "WEST ZONE", "ward_id": 3, "zone_id": 5, "address": "CHANDKHEDA-Urban Health Centre,Opp-C.H.C.ManiKrupa School,IOC Road,Ahmedabad Gujarat"}}, {"type": "Feature", "id": 8, "geometry": {"type": "Point", "coordinates": [72.50004999961571, 22.978386111384285]}, "properties": {"objectid": 8, "name": "SARKHEJ CHC", "ward": "33_SARKHEJ", "zone": "SOUTH-WEST ZONE", "ward_id": 33, "zone_id": 7, "address": "SARKHEJ CHC-Urban Health Centre,In Sarkhej C.H.C. Building,Opp- I.T.I Building,Sarkhej Gam,Ahmedabad Gujarat"}}, {"type": "Feature", "id": 9, "geometry": {"type": "Point", "coordinates": [72.52701446973158, 23.076381730201927]}, "properties": {"objectid": 9, "name": "NEW GOTA", "ward": "01_GOTA", "zone": "NORTH-WEST ZONE", "ward_id": 1, "zone_id": 6, "address": "NEW GOTA-Urban Health Centre,Ahmedabad Gujarat"}}, {"type": "Feature", "id": 10, "geometry": {"type": "Point", "coordinates": [72.51591666731652, 23.11297500011869]}, "properties": {"objectid": 10, "name": "GOTA", "ward": "01_GOTA", "zone": "NORTH-WEST ZONE", "ward_id": 1, "zone_id": 6, "address": "GOTA-Urban Health Centre,In Oganj P.H.C. Building,Ahmedabad Gujarat"}}, {"type": "Feature", "id": 11, "geometry": {"type": "Point", "coordinates": [72.52583700008537, 23.08271388943537]}, "properties": {"objectid": 11, "name": "B J MEDICAL COLLEAGE", "ward": "01_GOTA", "zone": "NORTH-WEST ZONE", "ward_id": 1, "zone_id": 6, "address": "B J MEDICAL COLLEAGE-Urban Health Centre,Ahmedabad Gujarat"}}, {"type": "Feature", "id": 12, "geometry": {"type": "Point", "coordinates": [72.62034166676551, 23.08053611107321]}, "properties": {"objectid": 12, "name": "SARDARNAGAR", "ward": "11_SARDARNAGAR", "zone": "NORTH ZONE", "ward_id": 11, "zone_id": 2, "address": "SARDARNAGAR-Urban Health Centre,In Sardarnagar master Station Building,Ahmedabad Gujarat"}}, {"type": "Feature", "id": 13, "geometry": {"type": "Point", "coordinates": [72.57354166725253, 23.056261110857058]}, "properties": {"objectid": 13, "name": "OLD WADAJ", "ward": "10_S_P_STADIUM", "zone": "WEST ZONE", "ward_id": 10, "zone_id": 5, "address": "OLD WADAJ-Urban Health Centre,In KhadigramUdhoyag Building,Behind-Old Wadaj Bus Stop,Ahmedabad Gujarat"}}, {"type": "Feature", "id": 14, "geometry": {"type": "Point", "coordinates": [72.57041492832772, 23.052569763382238]}, "properties": {"objectid": 14, "name": "STADIUM", "ward": "10_S_P_STADIUM", "zone": "WEST ZONE", "ward_id": 10, "zone_id": 5, "address": "STADIUM-Urban Health Centre,Karuna Trust Building,Usmanpura Cross Road,Ahmedabad Gujarat"}}, {"type": "Feature", "id": 15, "geometry": {"type": "Point", "coordinates": [72.58261666714986, 23.019088888928007]}, "properties": {"objectid": 15, "name": "JAMALPUR", "ward": "29_JAMALPUR", "zone": "CENTRAL ZONE", "ward_id": 29, "zone_id": 1, "address": "JAMALPUR-Urban Health Centre,Jamalpur Dispensari,Opps-Jamalpur five pipli police chowki, Ahmedabad Gujarat"}}, {"type": "Feature", "id": 16, "geometry": {"type": "Point", "coordinates": [72.58058611065853, 23.015816667440525]}, "properties": {"objectid": 16, "name": "RAIKHAD", "ward": "29_JAMALPUR", "zone": "CENTRAL ZONE", "ward_id": 29, "zone_id": 1, "address": "RAIKHAD-Urban Health Centre,Raj Hospital Building Opps-Gaikwad haweli Police Station Ahmedabad Gujarat"}}, {"type": "Feature", "id": 17, "geometry": {"type": "Point", "coordinates": [72.59412222170144, 23.02224166738722]}, "properties": {"objectid": 17, "name": "KHADIA", "ward": "28_KHADIA", "zone": "CENTRAL ZONE", "ward_id": 28, "zone_id": 1, "address": "KHADIA-Urban Health Centre,Desai Ni Pol, in Municipal Gujarati School no32 near Bala Hanuman,Ahmedabad Gujarat"}}, {"type": "Feature", "id": 18, "geometry": {"type": "Point", "coordinates": [72.59661388889037, 23.028625000413204]}, "properties": {"objectid": 18, "name": "KALUPUR", "ward": "28_KHADIA", "zone": "CENTRAL ZONE", "ward_id": 28, "zone_id": 1, "address": "KALUPUR-Urban Health Centre,Old Samju hospital,second floor,Relif Road,opp.Clico Dom,Ahmedabad,Gujarat"}}, {"type": "Feature", "id": 19, "geometry": {"type": "Point", "coordinates": [72.63298055629882, 23.043269444118398]}, "properties": {"objectid": 19, "name": "INDIA COLONY", "ward": "22_INDIA_COLONY", "zone": "NORTH ZONE", "ward_id": 22, "zone_id": 2, "address": "INDIA COLONY-Urban Health Centre,Opp-Chandra Prakash Hole,Near-Vir Bhagat Chawal,Potaliya,Ahmedabad Gujarat"}}, {"type": "Feature", "id": 20, "geometry": {"type": "Point", "coordinates": [72.61212202292499, 23.03862344231365]}, "properties": {"objectid": 20, "name": "NARODA ROAD", "ward": "22_INDIA_COLONY", "zone": "NORTH ZONE", "ward_id": 22, "zone_id": 2, "address": "NARODA ROAD-Urban Health Centre,Near Chamunda Staff Quaters,Chamunda Bridge End,Naroda Road,Ahmedabad Gujarat"}}, {"type": "Feature", "id": 21, "geometry": {"type": "Point", "coordinates": [72.59188537830615, 23.041212969847177]}, "properties": {"objectid": 21, "name": "MADHUPURA", "ward": "16_SHAHIBAG", "zone": "CENTRAL ZONE", "ward_id": 16, "zone_id": 1, "address": "MADHUPURA-Urban Health Centre,Bardolpura Maternity&Nursing Home Building, Ahmedabad Gujarat"}}, {"type": "Feature", "id": 22, "geometry": {"type": "Point", "coordinates": [72.60137500005224, 23.048361110970017]}, "properties": {"objectid": 22, "name": "ASARWA", "ward": "16_SHAHIBAG", "zone": "CENTRAL ZONE", "ward_id": 16, "zone_id": 1, "address": "ASARWA-Urban Health Centre,In Asarawa Dispensari Building,Ahmedabad Gujarat"}}, {"type": "Feature", "id": 23, "geometry": {"type": "Point", "coordinates": [72.60086111093669, 23.04911388861624]}, "properties": {"objectid": 23, "name": "GIRDHARNAGAR", "ward": "16_SHAHIBAG", "zone": "CENTRAL ZONE", "ward_id": 16, "zone_id": 1, "address": "GIRDHARNAGAR-Urban Health Centre,City Civic Center,First Floor,Ahmedabad Gujarat"}}, {"type": "Feature", "id": 24, "geometry": {"type": "Point", "coordinates": [72.62786666729944, 23.06171666704146]}, "properties": {"objectid": 24, "name": "KUBERNAGAR", "ward": "14_KUBERNAGR", "zone": "NORTH ZONE", "ward_id": 14, "zone_id": 2, "address": "KUBERNAGAR-Urban Health Centre,In KishanSinh Tomar Building,Bhargav Road,B.J.Row House,Ahmedabad Gujarat"}}, {"type": "Feature", "id": 25, "geometry": {"type": "Point", "coordinates": [72.63951944412248, 23.061019444362877]}, "properties": {"objectid": 25, "name": "KRISHNANAGAR", "ward": "13_SAIJPUR_BOGHA", "zone": "NORTH ZONE", "ward_id": 13, "zone_id": 2, "address": "KRISHNANAGAR-Urban Health Centre,Ahmedabad Gujarat"}}, {"type": "Feature", "id": 26, "geometry": {"type": "Point", "coordinates": [72.62577222227449, 23.037266666772226]}, "properties": {"objectid": 26, "name": "BAPUNAGAR", "ward": "26_BAPUNAGAR", "zone": "NORTH ZONE", "ward_id": 26, "zone_id": 2, "address": "BAPUNAGAR-Urban Health Centre,Virat Nagar Road,Near-Margha Farm,Rakhiyal Cross Road,Ahmedabad Gujarat"}}, {"type": "Feature", "id": 27, "geometry": {"type": "Point", "coordinates": [72.6358730002395, 23.02587222234726]}, "properties": {"objectid": 27, "name": "VIRATNAGAR", "ward": "26_BAPUNAGAR", "zone": "NORTH ZONE", "ward_id": 26, "zone_id": 2, "address": "VIRATNAGAR-Urban Health Centre,Nikol Road,In Master Station Building,Ahmedabad Gujarat"}}, {"type": "Feature", "id": 28, "geometry": {"type": "Point", "coordinates": [72.61585000018685, 22.953274999635944]}, "properties": {"objectid": 28, "name": "VATVA", "ward": "47_VATVA", "zone": "SOUTH ZONE", "ward_id": 47, "zone_id": 3, "address": "VATVA-Urban Health Centre,Vatva Road,Maternity&Nursing Home,Vatva Gam, Ahmedabad Gujarat"}}, {"type": "Feature", "id": 29, "geometry": {"type": "Point", "coordinates": [72.57008941935989, 22.99490998560102]}, "properties": {"objectid": 29, "name": "BEHRAMPURA", "ward": "35_BAHERAMPURA", "zone": "SOUTH ZONE", "ward_id": 35, "zone_id": 3, "address": "BEHRAMPURA-Urban Health Centre,Near-BRTS Bustop&Daban Godawon,Khodiyar Nagar,Ahmedabad Gujarat"}}, {"type": "Feature", "id": 30, "geometry": {"type": "Point", "coordinates": [72.55992791334431, 22.960390154621294]}, "properties": {"objectid": 30, "name": "PIPLAJ", "ward": "46_LAMBHA", "zone": "SOUTH ZONE", "ward_id": 46, "zone_id": 3, "address": "PIPLAJ-Urban Health Centre,Ahmedabad Gujarat"}}, {"type": "Feature", "id": 31, "geometry": {"type": "Point", "coordinates": [72.59383055562915, 22.966688889145342]}, "properties": {"objectid": 31, "name": "ISANPUR", "ward": "46_LAMBHA", "zone": "SOUTH ZONE", "ward_id": 46, "zone_id": 3, "address": "ISANPUR-Urban Health Centre,Near-Adarsh Tenament,Opp-Thakkar Dairy,Govind  Vadi,Ahmedabad Gujarat"}}, {"type": "Feature", "id": 32, "geometry": {"type": "Point", "coordinates": [72.59463055647763, 22.97008055583047]}, "properties": {"objectid": 32, "name": "GHODASAR", "ward": "46_LAMBHA", "zone": "SOUTH ZONE", "ward_id": 46, "zone_id": 3, "address": "GHODASAR-Urban Health Centre,In Water Tank Building,Near-Ramvadi Bus Stop,Ahmedabad Gujarat"}}, {"type": "Feature", "id": 33, "geometry": {"type": "Point", "coordinates": [72.57550555881458, 22.9339070927392]}, "properties": {"objectid": 33, "name": "LAMBHA", "ward": "46_LAMBHA", "zone": "SOUTH ZONE", "ward_id": 46, "zone_id": 3, "address": "LAMBHA-Urban Health Centre,In Old  Panchayat Building,Lambha Gam,Ahmedabad Gujarat"}}, {"type": "Feature", "id": 34, "geometry": {"type": "Point", "coordinates": [72.57713055624815, 23.07867222224031]}, "properties": {"objectid": 34, "name": "RANIP", "ward": "05_RANIP", "zone": "WEST ZONE", "ward_id": 5, "zone_id": 5, "address": "RANIP-Urban Health Centre,Opp-Annapurna Wadi,Gayatri Mandir Road,Ahmedabad Gujarat"}}, {"type": "Feature", "id": 35, "geometry": {"type": "Point", "coordinates": [72.58341111135927, 22.995688889135653]}, "properties": {"objectid": 35, "name": "DANILIMDA", "ward": "36_DANILIMDA", "zone": "SOUTH ZONE", "ward_id": 36, "zone_id": 3, "address": "DANILIMDA-Urban Health Centre,Uttamnagar,Near-N.V.Patel School,Ahmedabad Gujarat"}}, {"type": "Feature", "id": 36, "geometry": {"type": "Point", "coordinates": [72.51824722230977, 23.002888889087938]}, "properties": {"objectid": 36, "name": "VEJALPUR", "ward": "34_MAKTAMPURA", "zone": "SOUTH-WEST ZONE", "ward_id": 34, "zone_id": 7, "address": "VEJALPUR-Urban Health Centre,In Vejalpur P.H.C. Building,Ahmedabad Gujarat"}}, {"type": "Feature", "id": 37, "geometry": {"type": "Point", "coordinates": [72.54877499990336, 22.99795277828359]}, "properties": {"objectid": 37, "name": "VASNA", "ward": "31_VASNA", "zone": "WEST ZONE", "ward_id": 31, "zone_id": 5, "address": "VASNA-Urban Health Centre,In Cancer Hospital compound,Near-Pravin Nagar Bus Stop,Ahmedabad Gujarat"}}, {"type": "Feature", "id": 38, "geometry": {"type": "Point", "coordinates": [72.5650944440697, 23.013577777767292]}, "properties": {"objectid": 38, "name": "PALDI", "ward": "30_PALDI", "zone": "WEST ZONE", "ward_id": 30, "zone_id": 5, "address": "PALDI-Urban Health Centre,Gujarat Reserch Center Mandal ,Ahmedabad Gujarat"}}, {"type": "Feature", "id": 39, "geometry": {"type": "Point", "coordinates": [72.57973333309961, 23.043477777940335]}, "properties": {"objectid": 39, "name": "DUDHESHWAR", "ward": "17_SHAHPUR", "zone": "CENTRAL ZONE", "ward_id": 17, "zone_id": 1, "address": "DUDHESHWAR-Urban Health CentreKirannagar Maternity&Nursing Home Building,Biside-Lalakaka Hole,Dudheswar,Ahmedabad Gujarat"}}, {"type": "Feature", "id": 40, "geometry": {"type": "Point", "coordinates": [72.57991666702975, 23.037733333084564]}, "properties": {"objectid": 40, "name": "SHAHPUR", "ward": "21_DARIYAPUR", "zone": "CENTRAL ZONE", "ward_id": 21, "zone_id": 1, "address": "SHAHPUR-Urban Health Centre,Shahpur chakla Meternity&Nursing Home,Shahpur -chakla,Ahmedabad Gujarat"}}, {"type": "Feature", "id": 41, "geometry": {"type": "Point", "coordinates": [72.59106666652528, 23.036388888640303]}, "properties": {"objectid": 41, "name": "DARIAPUR", "ward": "21_DARIYAPUR", "zone": "CENTRAL ZONE", "ward_id": 21, "zone_id": 1, "address": "DARIAPUR-Urban Health Centre,Old Parvatibai Maternity&Nursing Home Building ,Near -  Dariyapur Tower,Ahmedabad Gujarat"}}, {"type": "Feature", "id": 42, "geometry": {"type": "Point", "coordinates": [72.55664722194501, 23.027463889051948]}, "properties": {"objectid": 42, "name": "NAVRANGPURA", "ward": "18_NAVRANGPURA", "zone": "WEST ZONE", "ward_id": 18, "zone_id": 5, "address": "NAVRANGPURA-Urban Health Centre,Aids Control Society,Lal Bunglow,Ahmedabad Gujarat"}}, {"type": "Feature", "id": 43, "geometry": {"type": "Point", "coordinates": [72.55166666712495, 23.02068055613418]}, "properties": {"objectid": 43, "name": "AMBAVADI", "ward": "18_NAVRANGPURA", "zone": "WEST ZONE", "ward_id": 18, "zone_id": 5, "address": "AMBAVADI-Urban Health Centre,Ambawadi Urben Health Center,Bhudarpura Road,Ahmedabad Gujarat"}}, {"type": "Feature", "id": 44, "geometry": {"type": "Point", "coordinates": [72.53863055565473, 23.047822222000885]}, "properties": {"objectid": 44, "name": "BODAKDEV", "ward": "19_BODAKDEV", "zone": "NORTH-WEST ZONE", "ward_id": 19, "zone_id": 6, "address": "BODAKDEV-Urban Health Centre,In Memnagar P.H.C. Building,Ahmedabad Gujarat"}}, {"type": "Feature", "id": 45, "geometry": {"type": "Point", "coordinates": [72.62896388861417, 22.9950777777177]}, "properties": {"objectid": 45, "name": "BHAIPURA", "ward": "43_BHAIPURA", "zone": "EAST ZONE", "ward_id": 43, "zone_id": 4, "address": "BHAIPURA-Urban Health Centre,Opp-Ekata Appartment,C.T.M.Raod,Hatkeshwar, Ahmedabad Gujarat"}}, {"type": "Feature", "id": 46, "geometry": {"type": "Point", "coordinates": [72.62445833300883, 23.00909444442543]}, "properties": {"objectid": 46, "name": "AMRAIWADI", "ward": "39_AMRAIWADI", "zone": "EAST ZONE", "ward_id": 39, "zone_id": 4, "address": "AMRAIWADI-Urban Health Centre,In U.C.D.Center Building,Ahmedabad Gujarat"}}, {"type": "Feature", "id": 47, "geometry": {"type": "Point", "coordinates": [72.65611666723947, 23.074516667086176]}, "properties": {"objectid": 47, "name": "NARODA MUTHIYA", "ward": "12_NARODA", "zone": "NORTH ZONE", "ward_id": 12, "zone_id": 2, "address": "NARODA MUTHIYA-Urban Health Centre,Ahmedabad Gujarat"}}, {"type": "Feature", "id": 48, "geometry": {"type": "Point", "coordinates": [72.65648888926627, 23.080069443587558]}, "properties": {"objectid": 48, "name": "NOBALNAGAR", "ward": "12_NARODA", "zone": "NORTH ZONE", "ward_id": 12, "zone_id": 2, "address": "NOBALNAGAR-Urban Health Centre,Opp-Nobalnagar Police Station,Behind-Ganpatibapa Temple,Naroda Gam,Ahmedabad Gujarat"}}, {"type": "Feature", "id": 49, "geometry": {"type": "Point", "coordinates": [72.65856944369659, 23.07456944421463]}, "properties": {"objectid": 49, "name": "NARODA MUTHIYA", "ward": "12_NARODA", "zone": "NORTH ZONE", "ward_id": 12, "zone_id": 2, "address": "NARODA MUTHIYA-Urban Health Centre,Ahmedabad Gujarat"}}, {"type": "Feature", "id": 50, "geometry": {"type": "Point", "coordinates": [72.64198055564007, 23.048577778307695]}, "properties": {"objectid": 50, "name": "THAKKARNAGAR", "ward": "23_THAKKARBAPANAGAR", "zone": "NORTH ZONE", "ward_id": 23, "zone_id": 2, "address": "THAKKARNAGAR-Urban Health Centre,In Thakkarbapa Master Station Building,Ahmedabad Gujarat"}}, {"type": "Feature", "id": 51, "geometry": {"type": "Point", "coordinates": [72.63085000026302, 22.989213888623375]}, "properties": {"objectid": 51, "name": "INDRAPURI", "ward": "42_INDRAPURI", "zone": "EAST ZONE", "ward_id": 42, "zone_id": 4, "address": "INDRAPURI-Urban Health Centre,In Master Station Building,Near-Baroda Xpress Highway,Bagefirdosh,Ahmedabad Gujarat"}}, {"type": "Feature", "id": 52, "geometry": {"type": "Point", "coordinates": [72.66287500023209, 23.041900000348928]}, "properties": {"objectid": 52, "name": "NIKOL", "ward": "24_NIKOL", "zone": "EAST ZONE", "ward_id": 24, "zone_id": 4, "address": "NIKOL-Urban Health Centre,In Nava Naroda Master Station Building,Ahmedabad Gujarat"}}, {"type": "Feature", "id": 53, "geometry": {"type": "Point", "coordinates": [72.6495527778657, 23.019741667361966]}, "properties": {"objectid": 53, "name": "ODHAV", "ward": "40_ODHAV", "zone": "EAST ZONE", "ward_id": 40, "zone_id": 4, "address": "ODHAV-Urban Health Centre,In Old Karshannagar Municiplaty School Building,Ahmedabad Gujarat"}}, {"type": "Feature", "id": 54, "geometry": {"type": "Point", "coordinates": [72.52556666695531, 23.022527778379683]}, "properties": {"objectid": 54, "name": "JODHPUR", "ward": "20_JODHPUR", "zone": "SOUTH-WEST ZONE", "ward_id": 20, "zone_id": 7, "address": "JODHPUR-Urban Health Centre,Opp-Anupam Society Vibhag-2,Behind-Vivekanand Bus Stop,Jodhpur Gam Road,Ahmedabad Gujarat"}}, {"type": "Feature", "id": 55, "geometry": {"type": "Point", "coordinates": [72.5909027778227, 23.083172221561124]}, "properties": {"objectid": 55, "name": "SABARMATI", "ward": "04_SABARMATI", "zone": "WEST ZONE", "ward_id": 4, "zone_id": 5, "address": "SABARMATI-Urban Health Centre,In Ram Nagar Maternity&Nursing Home Building,Ahmedabad Gujarat"}}, {"type": "Feature", "id": 56, "geometry": {"type": "Point", "coordinates": [72.61297777812301, 23.017172221555512]}, "properties": {"objectid": 56, "name": "GOMTIPUR", "ward": "38_GOMTIPUR", "zone": "EAST ZONE", "ward_id": 38, "zone_id": 4, "address": "GOMTIPUR-Urban Health Centre,Ahmedabad Gujarat"}}, {"type": "Feature", "id": 57, "geometry": {"type": "Point", "coordinates": [72.62269444361795, 23.021516667405677]}, "properties": {"objectid": 57, "name": "RAJPUR", "ward": "38_GOMTIPUR", "zone": "EAST ZONE", "ward_id": 38, "zone_id": 4, "address": "RAJPUR-Urban Health Centre,In Rakhiyal Dispensari Building,Ahmedabad Gujarat"}}, {"type": "Feature", "id": 58, "geometry": {"type": "Point", "coordinates": [72.61664166672183, 23.01840277807706]}, "properties": {"objectid": 58, "name": "GOMTIPUR", "ward": "38_GOMTIPUR", "zone": "EAST ZONE", "ward_id": 38, "zone_id": 4, "address": "GOMTIPUR-Urban Health Centre,Ahmedabad Gujarat"}}, {"type": "Feature", "id": 59, "geometry": {"type": "Point", "coordinates": [72.56664722173831, 23.063536110940532]}, "properties": {"objectid": 59, "name": "NAVA WADAJ", "ward": "06_NEW_WADAJ", "zone": "WEST ZONE", "ward_id": 6, "zone_id": 5, "address": "NAVA WADAJ-Urban Health Centre,Behind-Parth Tower&Poonam Party Plot,Ahmedabad Gujarat"}}, {"type": "Feature", "id": 60, "geometry": {"type": "Point", "coordinates": [72.60519999992678, 22.992305556401657]}, "properties": {"objectid": 60, "name": "MANINAGAR", "ward": "37_MANINAGAR", "zone": "SOUTH ZONE", "ward_id": 37, "zone_id": 3, "address": "MANINAGAR-Urban Health Centre,Near-UttamNagar Garden,Ahmedabad Gujarat"}}, {"type": "Feature", "id": 61, "geometry": {"type": "Point", "coordinates": [72.59782777816885, 23.010883333114105]}, "properties": {"objectid": 61, "name": "KANKARIA", "ward": "37_MANINAGAR", "zone": "SOUTH ZONE", "ward_id": 37, "zone_id": 3, "address": "KANKARIA-Urban Health Centre,In Kankariya Dispensari Building,Ahmedabad Gujarat"}}]}