{
"type": "FeatureCollection",
"name": "recommended_sites",
"crs": { "type": "name", "properties": { "name": "urn:ogc:def:crs:OGC:1.3:CRS84" } },
"features": [
{ "type": "Feature", "properties": { "candidate_id": "AHD-CAND-00476", "ward": "46 LAMBHA", "latitude": 22.9514487, "longitude": 72.531781, "suitability_score": 80.22, "population_benefiting": 165902, "newly_covered_population": 165902, "distance_improvement_km": 0.04, "coverage_improvement_percent": 2.35, "suitability_norm": 1.0, "population_benefit_norm": 0.25989109456851395, "coverage_norm": 1.0, "distance_norm": 0.8, "decision_score": 83.9, "decision_rank": 1, "recommendation": "RECOMMENDED" }, "geometry": { "type": "Point", "coordinates": [ 72.531781, 22.9514487 ] } },
{ "type": "Feature", "properties": { "candidate_id": "AHD-CAND-00431", "ward": "46 LAMBHA", "latitude": 22.9514487, "longitude": 72.526781, "suitability_score": 78.8, "population_benefiting": 165902, "newly_covered_population": 165902, "distance_improvement_km": 0.05, "coverage_improvement_percent": 2.35, "suitability_norm": 0.51202749140893355, "population_benefit_norm": 0.25989109456851395, "coverage_norm": 1.0, "distance_norm": 1.0, "decision_score": 79.14, "decision_rank": 2, "recommendation": "Alternative" }, "geometry": { "type": "Point", "coordinates": [ 72.526781, 22.9514487 ] } },
{ "type": "Feature", "properties": { "candidate_id": "AHD-CAND-00521", "ward": "46 LAMBHA", "latitude": 22.9514487, "longitude": 72.536781, "suitability_score": 77.92, "population_benefiting": 165902, "newly_covered_population": 165902, "distance_improvement_km": 0.03, "coverage_improvement_percent": 2.35, "suitability_norm": 0.20962199312714783, "population_benefit_norm": 0.25989109456851395, "coverage_norm": 1.0, "distance_norm": 0.6, "decision_score": 63.09, "decision_rank": 3, "recommendation": "Alternative" }, "geometry": { "type": "Point", "coordinates": [ 72.536781, 22.9514487 ] } },
{ "type": "Feature", "properties": { "candidate_id": "AHD-CAND-00564", "ward": "46 LAMBHA", "latitude": 22.9514487, "longitude": 72.541781, "suitability_score": 77.55, "population_benefiting": 165902, "newly_covered_population": 165902, "distance_improvement_km": 0.02, "coverage_improvement_percent": 2.35, "suitability_norm": 0.082474226804122044, "population_benefit_norm": 0.25989109456851395, "coverage_norm": 1.0, "distance_norm": 0.4, "decision_score": 55.55, "decision_rank": 4, "recommendation": "Alternative" }, "geometry": { "type": "Point", "coordinates": [ 72.541781, 22.9514487 ] } },
{ "type": "Feature", "properties": { "candidate_id": "AHD-CAND-00607", "ward": "46 LAMBHA", "latitude": 22.9514487, "longitude": 72.546781, "suitability_score": 77.31, "population_benefiting": 638352, "newly_covered_population": 0, "distance_improvement_km": 0.02, "coverage_improvement_percent": 0.0, "suitability_norm": 0.0, "population_benefit_norm": 1.0, "coverage_norm": 0.0, "distance_norm": 0.4, "decision_score": 25.0, "decision_rank": 5, "recommendation": "Alternative" }, "geometry": { "type": "Point", "coordinates": [ 72.546781, 22.9514487 ] } },
{ "type": "Feature", "properties": { "candidate_id": "AHD-CAND-00517", "ward": "46 LAMBHA", "latitude": 22.9314487, "longitude": 72.536781, "suitability_score": 78.59, "population_benefiting": 165902, "newly_covered_population": 0, "distance_improvement_km": 0.0, "coverage_improvement_percent": 0.0, "suitability_norm": 0.43986254295532734, "population_benefit_norm": 0.25989109456851395, "coverage_norm": 0.0, "distance_norm": 0.0, "decision_score": 12.7, "decision_rank": 6, "recommendation": "Alternative" }, "geometry": { "type": "Point", "coordinates": [ 72.536781, 22.9314487 ] } },
{ "type": "Feature", "properties": { "candidate_id": "AHD-CAND-00515", "ward": "46 LAMBHA", "latitude": 22.9214487, "longitude": 72.536781, "suitability_score": 78.72, "population_benefiting": 0, "newly_covered_population": 0, "distance_improvement_km": 0.0, "coverage_improvement_percent": 0.0, "suitability_norm": 0.48453608247422619, "population_benefit_norm": 0.0, "coverage_norm": 0.0, "distance_norm": 0.0, "decision_score": 9.69, "decision_rank": 7, "recommendation": "Alternative" }, "geometry": { "type": "Point", "coordinates": [ 72.536781, 22.9214487 ] } },
{ "type": "Feature", "properties": { "candidate_id": "AHD-CAND-00609", "ward": "46 LAMBHA", "latitude": 22.9614487, "longitude": 72.546781, "suitability_score": 78.07, "population_benefiting": 165902, "newly_covered_population": 0, "distance_improvement_km": 0.0, "coverage_improvement_percent": 0.0, "suitability_norm": 0.26116838487972227, "population_benefit_norm": 0.25989109456851395, "coverage_norm": 0.0, "distance_norm": 0.0, "decision_score": 9.12, "decision_rank": 8, "recommendation": "Alternative" }, "geometry": { "type": "Point", "coordinates": [ 72.546781, 22.9614487 ] } },
{ "type": "Feature", "properties": { "candidate_id": "AHD-CAND-01587", "ward": "48 RAMOL HATHIJAN", "latitude": 22.9414487, "longitude": 72.671781, "suitability_score": 78.13, "population_benefiting": 0, "newly_covered_population": 0, "distance_improvement_km": 0.0, "coverage_improvement_percent": 0.0, "suitability_norm": 0.28178694158075401, "population_benefit_norm": 0.0, "coverage_norm": 0.0, "distance_norm": 0.0, "decision_score": 5.64, "decision_rank": 9, "recommendation": "Alternative" }, "geometry": { "type": "Point", "coordinates": [ 72.671780999999797, 22.9414487 ] } },
{ "type": "Feature", "properties": { "candidate_id": "AHD-CAND-00654", "ward": "46 LAMBHA", "latitude": 22.9664487, "longitude": 72.551781, "suitability_score": 77.44, "population_benefiting": 0, "newly_covered_population": 0, "distance_improvement_km": 0.0, "coverage_improvement_percent": 0.0, "suitability_norm": 0.044673539518898832, "population_benefit_norm": 0.0, "coverage_norm": 0.0, "distance_norm": 0.0, "decision_score": 0.89, "decision_rank": 10, "recommendation": "Alternative" }, "geometry": { "type": "Point", "coordinates": [ 72.551781, 22.9664487 ] } }
]
}
