{"type": "FeatureCollection", "features": [{"type": "Feature", "id": 1, "geometry": {"type": "Point", "coordinates": [72.50812000029649, 23.022279999994748]}, "properties": {"objectid": 1, "sr__no_": 1, "date_of_admission": "17.03.2020", "name_of_confirm_case": "NIYOMI SHAH", "address": "25, AMRAPALASH BUNGLOWS, NR.ANAND NIKETAN SCHOOL , RAMDEVNAGAR, SATELLITE, AHMEDABAD, PIN.380015, MO", "zone": "SWZ", "ward": "JODHPUR", "uhc": "JODHPUR", "age": 21, "sex": "F", "travel_history": "USA", "transmission_it_dt_un_cx": "I", "status": "STABLE", "hospital": "SVP\nHospital", "total_quarantine_contacts": 22, "quarantine_completed": 22, "remarks": "", "x": 72.50812, "y": 23.02228}}, {"type": "Feature", "id": 2, "geometry": {"type": "Point", "coordinates": [72.55346999967705, 23.02291999969774]}, "properties": {"objectid": 2, "sr__no_": 2, "date_of_admission": "18.03.2020", "name_of_confirm_case": "SUMITI SINGH", "address": "302, SECOND AVENUE,NR.AMBAVADI, ANVRANGPURA, AHMEDABAD-380006, MO.NO.", "zone": "WZ", "ward": "NAVRANGPURA", "uhc": "NAVRANGPURA", "age": 34, "sex": "F", "travel_history": "FINLAND", "transmission_it_dt_un_cx": "I", "status": "", "hospital": "SVP\nHospital", "total_quarantine_contacts": 10, "quarantine_completed": 10, "remarks": "", "x": 72.55347, "y": 23.02292}}, {"type": "Feature", "id": 3, "geometry": {"type": "Point", "coordinates": [72.5156799997098, 23.018359999598825]}, "properties": {"objectid": 3, "sr__no_": 3, "date_of_admission": "19.03.2020", "name_of_confirm_case": "SHRIKISHAN SURAJAMAL AGRAVAL", "address": "B-501 RATNAKAR HALCGON;ANANDNAGAR;AHMEDABAD;AHME DABAD CITY;AHMEDABAD", "zone": "SWZ", "ward": "JODHPUR", "uhc": "JODHPUR", "age": 69, "sex": "M", "travel_history": "DUBAI", "transmission_it_dt_un_cx": "I", "status": "STABLE", "hospital": "CHA", "total_quarantine_contacts": 17, "quarantine_completed": 17, "remarks": "", "x": 72.51568, "y": 23.01836}}, {"type": "Feature", "id": 4, "geometry": {"type": "Point", "coordinates": [72.58828999981753, 23.00005999966487]}, "properties": {"objectid": 4, "sr__no_": 5, "date_of_admission": "22.03.2020", "name_of_confirm_case": "SHAMSHAD BEGAM FIDAHUSAIN SAIYAD", "address": "1270/2 JAMSAHEBNI GALI ,LAL DARWAJA\n,AHMEDABADE,", "zone": "CZ", "ward": "RAIKHAD", "uhc": "JAMALPUR", "age": 62, "sex": "F", "travel_history": "SAUDI ARABIA", "transmission_it_dt_un_cx": "I", "status": "DISCHARGE", "hospital": "SVP\nHospital", "total_quarantine_contacts": 43, "quarantine_completed": 36, "remarks": "", "x": 72.58829, "y": 23.00006}}, {"type": "Feature", "id": 5, "geometry": {"type": "Point", "coordinates": [72.58828999981753, 23.00005999966487]}, "properties": {"objectid": 5, "sr__no_": 6, "date_of_admission": "22.03.2020", "name_of_confirm_case": "FIDA HUSAIN JANU HUSAIN SAIYAD", "address": "1270/2 JAMSAHEBNI GALI ,LAL DARWAJA\n,AHMEDABADE,", "zone": "CZ", "ward": "RAIKHAD", "uhc": "JAMALPUR", "age": 65, "sex": "M", "travel_history": "SAUDI ARABIA", "transmission_it_dt_un_cx": "I", "status": "DISCHARGE", "hospital": "SVP\nHospital", "total_quarantine_contacts": 43, "quarantine_completed": 36, "remarks": "", "x": 72.58829, "y": 23.00006}}, {"type": "Feature", "id": 6, "geometry": {"type": "Point", "coordinates": [72.55155999951354, 23.05239000014986]}, "properties": {"objectid": 6, "sr__no_": 7, "date_of_admission": "22.03.2020", "name_of_confirm_case": "SMRUTI THAKKAR", "address": "B-72,AVANI COMPLEX,NARANPURA .", "zone": "WZ", "ward": "NARANPURA", "uhc": "NARANPURA", "age": 23, "sex": "F", "travel_history": "ABU DHABI", "transmission_it_dt_un_cx": "I", "status": "STABLE", "hospital": "SVP\nHospital", "total_quarantine_contacts": 25, "quarantine_completed": 25, "remarks": "", "x": 72.55156, "y": 23.05239}}, {"type": "Feature", "id": 7, "geometry": {"type": "Point", "coordinates": [72.50812000029649, 23.022279999994748]}, "properties": {"objectid": 7, "sr__no_": 8, "date_of_admission": "22.03.2020", "name_of_confirm_case": "KANTILAL MEENA", "address": "25,AMRAPALAS SOCIETY,SATELLITE-", "zone": "SWZ", "ward": "JODHPUR", "uhc": "JODHPUR", "age": 33, "sex": "M", "travel_history": "NO", "transmission_it_dt_un_cx": "IC", "status": "STABLE", "hospital": "SVP\nHospital", "total_quarantine_contacts": 2, "quarantine_completed": 2, "remarks": "CLOSE CONTACT OF NIYOMI", "x": 72.50812, "y": 23.02228}}, {"type": "Feature", "id": 8, "geometry": {"type": "Point", "coordinates": [72.63067999973234, 23.034099999784257]}, "properties": {"objectid": 8, "sr__no_": 9, "date_of_admission": "23.03.2020", "name_of_confirm_case": "HASMUKHLAL HIRPARA", "address": "1, CHANDRABAUG SOCI., DIV 2, BHIDBHANJAN PASE BAPUNAGAR AHMEDABAD MO.", "zone": "NZ", "ward": "INDIA COLONY", "uhc": "INDIA COLONY", "age": 61, "sex": "M", "travel_history": "UK", "transmission_it_dt_un_cx": "I", "status": "DISCHARGE", "hospital": "CHA", "total_quarantine_contacts": 18, "quarantine_completed": 18, "remarks": "", "x": 72.63068, "y": 23.0341}}, {"type": "Feature", "id": 9, "geometry": {"type": "Point", "coordinates": [72.58564000004432, 23.0174000003436]}, "properties": {"objectid": 9, "sr__no_": 11, "date_of_admission": "23.03.2020", "name_of_confirm_case": "MO.IKBAL MOSULEMAN SEKH", "address": "184,MOCHIOD,JAMALPURDARWAJA NI PASE,ABAD CITY,AHMEDABAD", "zone": "CZ", "ward": "RAIKHAD", "uhc": "RAIKHAD", "age": 58, "sex": "M", "travel_history": "MAKKA MADEENA", "transmission_it_dt_un_cx": "I", "status": "STABLE", "hospital": "CHA", "total_quarantine_contacts": 14, "quarantine_completed": 1, "remarks": "", "x": 72.58564, "y": 23.0174}}, {"type": "Feature", "id": 10, "geometry": {"type": "Point", "coordinates": [72.58564000004432, 23.0174000003436]}, "properties": {"objectid": 10, "sr__no_": 12, "date_of_admission": "23.03.2020", "name_of_confirm_case": "FURKANABANU MO.IKABAL SEKH", "address": "184,MOCHIOD,JAMALPURDARWAJA NI PASE,ABAD CITY,AHMEDABAD", "zone": "CZ", "ward": "RAIKHAD", "uhc": "RAIKHAD", "age": 57, "sex": "F", "travel_history": "SAUDI ARABIA", "transmission_it_dt_un_cx": "I", "status": "DISCHARGE", "hospital": "CHA", "total_quarantine_contacts": 14, "quarantine_completed": 1, "remarks": "", "x": 72.58564, "y": 23.0174}}, {"type": "Feature", "id": 11, "geometry": {"type": "Point", "coordinates": [72.5341399996499, 23.052190000321666]}, "properties": {"objectid": 11, "sr__no_": 13, "date_of_admission": "24.03.2020", "name_of_confirm_case": "SILKY KIRANKUMAR JAIN", "address": "F-3 MARUTI ROW HOUSE APP DINNAR BELL 2 SUBHASH CHOWK CHAR RASTA,MEMNAGAR.\nAHMEDABAD . , AHMEDABAD, GUJARAT, INDIA,", "zone": "NWZ", "ward": "BODAKDEV", "uhc": "BODAKDEV", "age": 31, "sex": "F", "travel_history": "DUBAI", "transmission_it_dt_un_cx": "I", "status": "STABLE", "hospital": "SVP\nHospital", "total_quarantine_contacts": 113, "quarantine_completed": 113, "remarks": "", "x": 72.53414, "y": 23.05219}}, {"type": "Feature", "id": 12, "geometry": {"type": "Point", "coordinates": [72.5001599995816, 23.053419999630453]}, "properties": {"objectid": 12, "sr__no_": 14, "date_of_admission": "26.03.2020", "name_of_confirm_case": "VATSALABEN VORA", "address": "4,DEEPVILLA BUNGLOW,ZYDUS HOSPITAL ROAD,THALTEJ,9825480286.", "zone": "NWZ", "ward": "THALTEJ", "uhc": "THALTEJ", "age": 59, "sex": "F", "travel_history": "NO", "transmission_it_dt_un_cx": "U", "status": "STABLE", "hospital": "SVP\nHospital", "total_quarantine_contacts": 105, "quarantine_completed": 11, "remarks": "", "x": 72.50016, "y": 23.05342}}, {"type": "Feature", "id": 13, "geometry": {"type": "Point", "coordinates": [72.5081000000383, 22.986800000193607]}, "properties": {"objectid": 13, "sr__no_": 15, "date_of_admission": "28.03.2020", "name_of_confirm_case": "HARUN VORA", "address": "8301, BEST APP, SARKHEJ ROAD,, SARKHEJ ,\nAHMEDABAD, GUJARAT, INDIA, 382210- 9425075335", "zone": "SWZ", "ward": "SARKHEJ", "uhc": "SARKHEJ", "age": 70, "sex": "M", "travel_history": "NO", "transmission_it_dt_un_cx": "D", "status": "DISCHARGE", "hospital": "SVP\nHospital", "total_quarantine_contacts": 13, "quarantine_completed": 8, "remarks": "CONTACT WITH POSITIVE", "x": 72.5081, "y": 22.9868}}, {"type": "Feature", "id": 14, "geometry": {"type": "Point", "coordinates": [72.54628000005451, 23.02895999984586]}, "properties": {"objectid": 14, "sr__no_": 16, "date_of_admission": "28.03.2020", "name_of_confirm_case": "VALAY SHAH", "address": "A-41, GOYAL TOWER, GULBAI TEKRA,\nAHMEDABAD-8238043982", "zone": "WZ", "ward": "NARANPURA", "uhc": "AMBAWADI", "age": 35, "sex": "M", "travel_history": "NO", "transmission_it_dt_un_cx": "U", "status": "STABLE", "hospital": "SVP\nHospital", "total_quarantine_contacts": 19, "quarantine_completed": 14, "remarks": "", "x": 72.54628, "y": 23.02896}}, {"type": "Feature", "id": 15, "geometry": {"type": "Point", "coordinates": [72.58433999967794, 23.026420000126485]}, "properties": {"objectid": 15, "sr__no_": 17, "date_of_admission": "28.03.2020", "name_of_confirm_case": "YASMIN PIPALWALA", "address": "763, CHMADIYAVAS, OPP ISMAILPITH DARGAH, ASTODIA, AHMEDABAD,8401446852", "zone": "CZ", "ward": "JAMALPUR", "uhc": "JAMALPUR", "age": 45, "sex": "F", "travel_history": "NO", "transmission_it_dt_un_cx": "U", "status": "DEATH", "hospital": "SVP\nHospital", "total_quarantine_contacts": 24, "quarantine_completed": 0, "remarks": "", "x": 72.58434, "y": 23.02642}}, {"type": "Feature", "id": 16, "geometry": {"type": "Point", "coordinates": [72.5081000000383, 22.986800000193607]}, "properties": {"objectid": 16, "sr__no_": 18, "date_of_admission": "29.03.2020", "name_of_confirm_case": "RAJIYA HARUN VORA", "address": "301,BEST RESIDENCY, JUHAPURA , AHMEDABAD, GUJARAT, INDIA, 380055,7987747707", "zone": "SWZ", "ward": "SARKHEJ", "uhc": "SARKHEJ", "age": 67, "sex": "F", "travel_history": "NO", "transmission_it_dt_un_cx": "DC", "status": "DEATH", "hospital": "SVP\nHospital", "total_quarantine_contacts": 0, "quarantine_completed": 0, "remarks": "SAME CONTACT OF HARON", "x": 72.5081, "y": 22.9868}}, {"type": "Feature", "id": 17, "geometry": {"type": "Point", "coordinates": [72.62469000041276, 23.0096199998482]}, "properties": {"objectid": 17, "sr__no_": 19, "date_of_admission": "29.03.2020", "name_of_confirm_case": "MOHAMMAD MOTIN IQBALHUSAIN SAIYAD", "address": "17/2 GAJANAND NAGAR;NEAR.BADIYAKAKA CROSS ROAD;GOMTIPUR;AHMEDABAD CITY;AHMEDABAD", "zone": "EZ", "ward": "GOMTIPUR", "uhc": "RAJPUR", "age": 47, "sex": "M", "travel_history": "NO", "transmission_it_dt_un_cx": "D", "status": "DEATH", "hospital": "CHA", "total_quarantine_contacts": 45, "quarantine_completed": 0, "remarks": "", "x": 72.62469, "y": 23.00962}}, {"type": "Feature", "id": 18, "geometry": {"type": "Point", "coordinates": [72.58629000047144, 22.996550000220793]}, "properties": {"objectid": 18, "sr__no_": 21, "date_of_admission": "30.03.2020", "name_of_confirm_case": "ABDUL KAYUM SHAIKH", "address": "SHAH ALAM, SAFI MANZIL, VAIDHBHAI KI\nCHALI,, SHAH ALAM ROZA , AHMEDABAD, , INDIA, 380028-9824378620", "zone": "SZ", "ward": "DANILIMDA", "uhc": "DANILIMDA", "age": 55, "sex": "M", "travel_history": "NO", "transmission_it_dt_un_cx": "U", "status": "STABLE", "hospital": "SVP Hospital", "total_quarantine_contacts": 79, "quarantine_completed": 0, "remarks": "", "x": 72.58629, "y": 22.99655}}, {"type": "Feature", "id": 19, "geometry": {"type": "Point", "coordinates": [72.58434000065303, 23.02642000014138]}, "properties": {"objectid": 19, "sr__no_": 22, "date_of_admission": "30.03.2020", "name_of_confirm_case": "SHEHNAZ ABUWALA", "address": "13 ALIF APARTMENT, CHAMDIYA VAS,, RAIPUR ,\nAHMEDABAD, GUJARAT, INDIA, 380001- 8490038057", "zone": "CZ", "ward": "JAMALPUR", "uhc": "JAMALPUR", "age": 58, "sex": "F", "travel_history": "NO", "transmission_it_dt_un_cx": "U", "status": "STABLE", "hospital": "SVP Hospital", "total_quarantine_contacts": 9, "quarantine_completed": 0, "remarks": "", "x": 72.58434, "y": 23.02642}}, {"type": "Feature", "id": 20, "geometry": {"type": "Point", "coordinates": [72.51997000027241, 23.043389999722145]}, "properties": {"objectid": 20, "sr__no_": 23, "date_of_admission": "30.03.2020", "name_of_confirm_case": "SHAILESHBHAI R DHRUVA", "address": "B/ 404, DEVPREET APARTMENT, NEAR DLS SCHOOL, BODAKDEV,  AHMEDABAD, GUJARAT.-7874777475", "zone": "NWZ", "ward": "BODAKDEV", "uhc": "AMBLI", "age": 67, "sex": "M", "travel_history": "NO", "transmission_it_dt_un_cx": "U", "status": "DEATH", "hospital": "SOLA CIVIL", "total_quarantine_contacts": 35, "quarantine_completed": 0, "remarks": "", "x": 72.51997, "y": 23.04339}}, {"type": "Feature", "id": 21, "geometry": {"type": "Point", "coordinates": [72.58137999973887, 23.108580000167418]}, "properties": {"objectid": 21, "sr__no_": 24, "date_of_admission": "30.03.2020", "name_of_confirm_case": "RAMILABEN NATVARBHAI SURYAVANSHI", "address": "C 702 JANTANAGAR CHANDKHEDA AMDAVAD- 9824586862", "zone": "WZ", "ward": "CHANDKHEDA", "uhc": "CHANDKHEDA", "age": 65, "sex": "F", "travel_history": "NO", "transmission_it_dt_un_cx": "U", "status": "STABLE", "hospital": "CHA", "total_quarantine_contacts": 12, "quarantine_completed": 0, "remarks": "", "x": 72.58138, "y": 23.10858}}, {"type": "Feature", "id": 22, "geometry": {"type": "Point", "coordinates": [72.59703000015809, 23.031159999211322]}, "properties": {"objectid": 22, "sr__no_": 25, "date_of_admission": "31.03.2020", "name_of_confirm_case": "MAKSUD AHMED GANDHI", "address": "2008-MATAVADI NI POLE, KALUPUR,AHMEDABAD, AHMEDABAD G.P.O. ,\nAHMEDABAD, GUJARAT, INDIA, 380001-\n9427703637", "zone": "CZ", "ward": "DARIYAPUR", "uhc": "DARIYAPUR", "age": 68, "sex": "M", "travel_history": "NO", "transmission_it_dt_un_cx": "D", "status": "STABLE", "hospital": "SVP Hospital", "total_quarantine_contacts": 63, "quarantine_completed": 0, "remarks": "", "x": 72.59703, "y": 23.03116}}, {"type": "Feature", "id": 23, "geometry": {"type": "Point", "coordinates": [72.62785000014665, 23.024830000175452]}, "properties": {"objectid": 23, "sr__no_": 26, "date_of_admission": "31.03.2020", "name_of_confirm_case": "ZUBERBHAI ISMAILBHAI PATHAN", "address": "7/248; GHB MOMIN MASJID BAJUMA;BAPUNAGAR;AHMEDABAD CITY;AHMEDABAD-9898900448", "zone": "NZ", "ward": "RAKHIYAL", "uhc": "RAKHIYAL", "age": 52, "sex": "M", "travel_history": "NO", "transmission_it_dt_un_cx": "D", "status": "STABLE", "hospital": "CHA", "total_quarantine_contacts": 30, "quarantine_completed": 0, "remarks": "\"CLOSE CONTACT OF ZUBERBHA I ISMAILBHA I PATHAN (POSITIVE CASE)", "x": 72.62785, "y": 23.02483}}, {"type": "Feature", "id": 24, "geometry": {"type": "Point", "coordinates": [72.62785000014665, 23.024830000175452]}, "properties": {"objectid": 24, "sr__no_": 27, "date_of_admission": "31.03.2020", "name_of_confirm_case": "ABDULLA JUBERBHAI PATHAN", "address": "7/248; GHB MOMIN MASJID BAJUMA;BAPUNAGAR;AHMEDABAD CITY;AHMEDABAD-9898900448", "zone": "NZ", "ward": "RAKHIYAL", "uhc": "RAKHIYAL", "age": 18, "sex": "M", "travel_history": "NO", "transmission_it_dt_un_cx": "D", "status": "STABLE", "hospital": "", "total_quarantine_contacts": 30, "quarantine_completed": 0, "remarks": "\"CLOSE CONTACT OF ZUBERBHA I ISMAILBHA I PATHAN (POSITIVE CASE)", "x": 72.62785, "y": 23.02483}}, {"type": "Feature", "id": 25, "geometry": {"type": "Point", "coordinates": [72.62785000014665, 23.024830000175452]}, "properties": {"objectid": 25, "sr__no_": 28, "date_of_admission": "31.03.2020", "name_of_confirm_case": "SAHEDA JUBERBHAI PATHAN", "address": "7/248; GHB MOMIN MASJID BAJUMA;BAPUNAGAR;AHMEDABAD CITY;AHMEDABAD-9898900448", "zone": "NZ", "ward": "RAKHIYAL", "uhc": "RAKHIYAL", "age": 45, "sex": "F", "travel_history": "NO", "transmission_it_dt_un_cx": "D", "status": "STABLE", "hospital": "", "total_quarantine_contacts": 30, "quarantine_completed": 0, "remarks": "\"CLOSE CONTACT OF ZUBERBHA I ISMAILBHA I PATHAN (POSITIVE CASE)", "x": 72.62785, "y": 23.02483}}, {"type": "Feature", "id": 26, "geometry": {"type": "Point", "coordinates": [72.63067999973234, 23.034099999784257]}, "properties": {"objectid": 26, "sr__no_": 29, "date_of_admission": "03.04.2020", "name_of_confirm_case": "ANASH JHAHID PATHAN", "address": "7/248; GHB MOMIN MASJID BAJUMA;BAPUNAGAR;AHMEDABAD CITY;AHMEDABAD-9898900448", "zone": "NZ", "ward": "RAKHIYAL", "uhc": "RAKHIYAL", "age": 17, "sex": "M", "travel_history": "NO", "transmission_it_dt_un_cx": "DC", "status": "STABLE", "hospital": "", "total_quarantine_contacts": 30, "quarantine_completed": 0, "remarks": "\"CLOSE CONTACT OF ZUBERBHA I ISMAILBHA I PATHAN (POSITIVE CASE)", "x": 72.63068, "y": 23.0341}}, {"type": "Feature", "id": 27, "geometry": {"type": "Point", "coordinates": [72.63067999973234, 23.034099999784257]}, "properties": {"objectid": 27, "sr__no_": 30, "date_of_admission": "03.04.2020", "name_of_confirm_case": "SABANABANU JHAHIDBHAI PATHAN", "address": "OLD BAPUNAGAR OPP; URDUSHOOL SAME;70/248;BAPUNAGAR;AHMEDABAD, GUJARAT.", "zone": "NZ", "ward": "RAKHIYAL", "uhc": "RAKHIYAL", "age": 35, "sex": "F", "travel_history": "NO", "transmission_it_dt_un_cx": "DC", "status": "STABLE", "hospital": "", "total_quarantine_contacts": 30, "quarantine_completed": 0, "remarks": "\"CLOSE CONTACT OF ZUBERBHA I ISMAILBHA I PATHAN (POSITIVE CASE)", "x": 72.63068, "y": 23.0341}}, {"type": "Feature", "id": 28, "geometry": {"type": "Point", "coordinates": [72.63067999973234, 23.034099999784257]}, "properties": {"objectid": 28, "sr__no_": 31, "date_of_admission": "03.04.2020", "name_of_confirm_case": "JAHIDBHAI ISMAILBHAI PATHAN", "address": "OLD BAPUNAGAR OPP; URDUSHOOL SAME;BAPUNAGAR;AHMEDABAD, GUJARAT.", "zone": "NZ", "ward": "RAKHIYAL", "uhc": "RAKHIYAL", "age": 40, "sex": "M", "travel_history": "NO", "transmission_it_dt_un_cx": "DC", "status": "STABLE", "hospital": "", "total_quarantine_contacts": 30, "quarantine_completed": 0, "remarks": "\"CLOSE CONTACT OF ZUBERBHA I ISMAILBHA I PATHAN (POSITIVE CASE)", "x": 72.63068, "y": 23.0341}}, {"type": "Feature", "id": 29, "geometry": {"type": "Point", "coordinates": [72.59703000014208, 23.031160000113864]}, "properties": {"objectid": 29, "sr__no_": 33, "date_of_admission": "01.04.2020", "name_of_confirm_case": "MEHR SULTANA GANDHI", "address": "2008-MATAVADI NI POLE, KALUPUR,AHMEDABAD, AHMEDABAD G.P.O. ,\nAHMEDABAD, GUJARAT, INDIA, 380001-", "zone": "CZ", "ward": "DARIYAPUR", "uhc": "DARIYAPUR", "age": 60, "sex": "F", "travel_history": "NO", "transmission_it_dt_un_cx": "SVP Hospital", "status": "STABLE", "hospital": "SVP Hospital", "total_quarantine_contacts": 0, "quarantine_completed": 0, "remarks": "CLOSE CONTACT OF MAQSOOD AHEMAD", "x": 72.59703, "y": 23.03116}}, {"type": "Feature", "id": 30, "geometry": {"type": "Point", "coordinates": [72.59703000014208, 23.031160000113864]}, "properties": {"objectid": 30, "sr__no_": 34, "date_of_admission": "01.04.2020", "name_of_confirm_case": "MAAZ GANDHI", "address": "2008-MATAVADI NI POLE, KALUPUR,AHMEDABAD, AHMEDABAD G.P.O. ,\nAHMEDABAD, GUJARAT, INDIA, 380001-", "zone": "CZ", "ward": "DARIYAPUR", "uhc": "DARIYAPUR", "age": 35, "sex": "M", "travel_history": "NO", "transmission_it_dt_un_cx": "DC", "status": "STABLE", "hospital": "", "total_quarantine_contacts": 0, "quarantine_completed": 0, "remarks": "", "x": 72.59703, "y": 23.03116}}, {"type": "Feature", "id": 31, "geometry": {"type": "Point", "coordinates": [72.59703000014208, 23.031160000113864]}, "properties": {"objectid": 31, "sr__no_": 35, "date_of_admission": "01.04.2020", "name_of_confirm_case": "AISHA M GANDHI", "address": "2008-MATAVADI NI POLE, KALUPUR,AHMEDABAD, AHMEDABAD G.P.O. ,\nAHMEDABAD, GUJARAT, INDIA, 380001-", "zone": "CZ", "ward": "DARIYAPUR", "uhc": "DARIYAPUR", "age": 7, "sex": "F", "travel_history": "NO", "transmission_it_dt_un_cx": "DC", "status": "STABLE", "hospital": "SVP Hospital", "total_quarantine_contacts": 0, "quarantine_completed": 0, "remarks": "", "x": 72.59703, "y": 23.03116}}, {"type": "Feature", "id": 32, "geometry": {"type": "Point", "coordinates": [72.59703000014208, 23.031160000113864]}, "properties": {"objectid": 32, "sr__no_": 36, "date_of_admission": "01.04.2020", "name_of_confirm_case": "SABA GANDHI", "address": "2008-MATAVADI NI POLE, KALUPUR,AHMEDABAD, AHMEDABAD G.P.O. ,\nAHMEDABAD, GUJARAT, INDIA, 380001-", "zone": "CZ", "ward": "DARIYAPUR", "uhc": "DARIYAPUR", "age": 30, "sex": "F", "travel_history": "NO", "transmission_it_dt_un_cx": "DC", "status": "STABLE", "hospital": "SVP Hospital", "total_quarantine_contacts": 0, "quarantine_completed": 0, "remarks": "", "x": 72.59703, "y": 23.03116}}, {"type": "Feature", "id": 33, "geometry": {"type": "Point", "coordinates": [72.59366999969218, 23.03404999992448]}, "properties": {"objectid": 33, "sr__no_": 37, "date_of_admission": "01.04.2020", "name_of_confirm_case": "MASHROOFALI SIDDIQUI", "address": "PERMANENT ADD:5/0 KALOO NAYA SARCA GAUN-1,MEGHAKHERI,MUZAFFARNAGAR,UP\n;TEMPORARY ADD:MALIK SHAH MASJID,KALUPUR,AHMEDABAD,GUJARAT(PAS", "zone": "CZ", "ward": "DARIYAPUR", "uhc": "DARIYAPUR", "age": 68, "sex": "M", "travel_history": "NO", "transmission_it_dt_un_cx": "D", "status": "STABLE", "hospital": "SVP Hospital", "total_quarantine_contacts": 33, "quarantine_completed": 0, "remarks": "ATTENDED NIZAMUDDI N EVENT IN DELHI", "x": 72.59367, "y": 23.03405}}, {"type": "Feature", "id": 34, "geometry": {"type": "Point", "coordinates": [72.62054000038191, 23.034610000068426]}, "properties": {"objectid": 34, "sr__no_": 38, "date_of_admission": "02.04.2020", "name_of_confirm_case": "CHHATRESH ASHARAM PASARI", "address": "4/8 3 RD FLOOR GURU RAMDAS SOC;AMBER CINEMA;BAPUNAGAR;AHMEDABAD CITY;AHMEDABAD", "zone": "NZ", "ward": "SARASPUR", "uhc": "SARASPUR", "age": 65, "sex": "M", "travel_history": "NO", "transmission_it_dt_un_cx": "UC", "status": "STABLE", "hospital": "CHA", "total_quarantine_contacts": 36, "quarantine_completed": 0, "remarks": "CONTACT OF SHAILESH DHRUVA (POSITIVE)", "x": 72.62054, "y": 23.03461}}, {"type": "Feature", "id": 35, "geometry": {"type": "Point", "coordinates": [72.55438999982223, 23.017609999706366]}, "properties": {"objectid": 35, "sr__no_": 39, "date_of_admission": "02.04.2020", "name_of_confirm_case": "NITINBHAI SHAH", "address": "D/ 215 NEELAM APP, ,NR , MUNICIPAL SCHOOL HISABAUG , AMBAWADI, ELLISBRIDGE ,\nAHMEDABAD, , INDIA, 380006", "zone": "WZ", "ward": "NAVRANGPURA", "uhc": "AMBAWADI", "age": 55, "sex": "M", "travel_history": "NO", "transmission_it_dt_un_cx": "U", "status": "VENTILATURE", "hospital": "SVP Hospital", "total_quarantine_contacts": 42, "quarantine_completed": 0, "remarks": "", "x": 72.55439, "y": 23.01761}}, {"type": "Feature", "id": 36, "geometry": {"type": "Point", "coordinates": [72.56222000022447, 23.045959999858507]}, "properties": {"objectid": 36, "sr__no_": 40, "date_of_admission": "02.04.2020", "name_of_confirm_case": "MUKESHBHAI SHAH", "address": "61- SWASTIK RESIDENCY, NAVARANGPURA,AHMEDABAD, NAVRANGPURA , AHMEDABAD, , INDIA, 380009", "zone": "WZ", "ward": "STADIUM", "uhc": "STADIUM", "age": 69, "sex": "M", "travel_history": "NO", "transmission_it_dt_un_cx": "U", "status": "ON O2", "hospital": "SVP Hospital", "total_quarantine_contacts": 41, "quarantine_completed": 0, "remarks": "", "x": 72.56222, "y": 23.04596}}, {"type": "Feature", "id": 37, "geometry": {"type": "Point", "coordinates": [72.58480000025754, 23.012889999979382]}, "properties": {"objectid": 37, "sr__no_": 41, "date_of_admission": "02.04.2020", "name_of_confirm_case": "SAMIM KADIR JIWALA", "address": "2666,TAJPUR MOMINVAD,JAMALPUR,\nAHMEDABAD G.P.O. , AHMEDABAD, GUJARAT, INDIA, 380001", "zone": "CZ", "ward": "JAMALPUR", "uhc": "JAMALPUR", "age": 30, "sex": "F", "travel_history": "NO", "transmission_it_dt_un_cx": "D", "status": "STABLE", "hospital": "SVP Hospital", "total_quarantine_contacts": 43, "quarantine_completed": 0, "remarks": "", "x": 72.5848, "y": 23.01289}}, {"type": "Feature", "id": 38, "geometry": {"type": "Point", "coordinates": [72.58586000048253, 23.05092999972718]}, "properties": {"objectid": 38, "sr__no_": 42, "date_of_admission": "03.04.2020", "name_of_confirm_case": "MUHASIN MO..ABDULLA RAIN", "address": "JYUPITER MIL NI CHALI DHUDHESHAVAR", "zone": "CZ", "ward": "SHAHPUR", "uhc": "MADHUPURA", "age": 25, "sex": "M", "travel_history": "NO", "transmission_it_dt_un_cx": "D", "status": "STABLE", "hospital": "CHA", "total_quarantine_contacts": 1, "quarantine_completed": 0, "remarks": "ATTENDED NIZAMUDDI N EVENT IN DELHI", "x": 72.58586, "y": 23.05093}}, {"type": "Feature", "id": 39, "geometry": {"type": "Point", "coordinates": [72.58499000012567, 22.997130000323693]}, "properties": {"objectid": 39, "sr__no_": 43, "date_of_admission": "03.04.2020", "name_of_confirm_case": "SAHID AHEMAD ABDUL RAHIM SAIYAD", "address": "MADINA MASJID NI BAJUMA;RASULA BAG;SHAH ALAM;AHMEDABAD CITY;AHMEDABAD", "zone": "SZ", "ward": "DANILIMDA", "uhc": "DANILIMDA", "age": 46, "sex": "M", "travel_history": "NO", "transmission_it_dt_un_cx": "U", "status": "STABLE", "hospital": "CHA", "total_quarantine_contacts": 86, "quarantine_completed": 0, "remarks": "", "x": 72.58499, "y": 22.99713}}, {"type": "Feature", "id": 40, "geometry": {"type": "Point", "coordinates": [72.59718000028376, 23.03048999964975]}, "properties": {"objectid": 40, "sr__no_": 44, "date_of_admission": "03.04.2020", "name_of_confirm_case": "MR JAVED BASIR AHMAD ANSARI", "address": "88/1, KUTBI MOHHALA, GALI NO -3, INSIDE KALUPUR GET, KALUPUR, AHMEDABAD G.P.O. ,\nAHMEDABAD, GUJARAT, INDIA, 380001", "zone": "CZ", "ward": "DARIYAPUR", "uhc": "KALUPUR", "age": 41, "sex": "M", "travel_history": "NO", "transmission_it_dt_un_cx": "U", "status": "STABLE", "hospital": "SVP", "total_quarantine_contacts": 13, "quarantine_completed": 0, "remarks": "", "x": 72.59718, "y": 23.03049}}, {"type": "Feature", "id": 41, "geometry": {"type": "Point", "coordinates": [72.59535000021549, 23.03225999960893]}, "properties": {"objectid": 41, "sr__no_": 45, "date_of_admission": "03.04.2020", "name_of_confirm_case": "HANJALA RAFI", "address": "MALIK AHMED MURKAS,DARIYAPUR", "zone": "CZ", "ward": "DARIYAPUR", "uhc": "DARIYAPUR", "age": 18, "sex": "M", "travel_history": "NO", "transmission_it_dt_un_cx": "D", "status": "STABLE", "hospital": "Sola Civil", "total_quarantine_contacts": 25, "quarantine_completed": 0, "remarks": "ATTENDED NIZAMUDDI N EVENT IN DELHI", "x": 72.59535, "y": 23.03226}}, {"type": "Feature", "id": 42, "geometry": {"type": "Point", "coordinates": [72.59535000021549, 23.03225999960893]}, "properties": {"objectid": 42, "sr__no_": 46, "date_of_admission": "03.04.2020", "name_of_confirm_case": "FAIZ REHAMAN\nSHAIKH", "address": "MALIK AHMED MURKAS,DARIYAPUR", "zone": "CZ", "ward": "DARIYAPUR", "uhc": "DARIYAPUR", "age": 59, "sex": "M", "travel_history": "NO", "transmission_it_dt_un_cx": "D", "status": "STABLE", "hospital": "Sola Civil", "total_quarantine_contacts": 25, "quarantine_completed": 0, "remarks": "ATTENDED NIZAMUDDI N EVENT IN DELHI", "x": 72.59535, "y": 23.03226}}, {"type": "Feature", "id": 43, "geometry": {"type": "Point", "coordinates": [72.59535000021549, 23.03225999960893]}, "properties": {"objectid": 43, "sr__no_": 47, "date_of_admission": "03.04.2020", "name_of_confirm_case": "MOHAMMAD SAHIL", "address": "MALIK AHMED MURKAD,DARIYAPUR", "zone": "CZ", "ward": "DARIYAPUR", "uhc": "DARIYAPUR", "age": 16, "sex": "M", "travel_history": "NO", "transmission_it_dt_un_cx": "D", "status": "STABLE", "hospital": "Sola Civil", "total_quarantine_contacts": 25, "quarantine_completed": 0, "remarks": "ATTENDED NIZAMUDDI N EVENT IN DELHI", "x": 72.59535, "y": 23.03226}}, {"type": "Feature", "id": 44, "geometry": {"type": "Point", "coordinates": [72.59535000021549, 23.03225999960893]}, "properties": {"objectid": 44, "sr__no_": 48, "date_of_admission": "03.04.2020", "name_of_confirm_case": "MOHAMMAD ADNAN", "address": "MALIK AHMED MURKAD,DARIYAPUR", "zone": "CZ", "ward": "DARIYAPUR", "uhc": "DARIYAPUR", "age": 17, "sex": "M", "travel_history": "NO", "transmission_it_dt_un_cx": "D", "status": "STABLE", "hospital": "Sola Civil", "total_quarantine_contacts": 25, "quarantine_completed": 0, "remarks": "ATTENDED NIZAMUDDI N EVENT IN DELHI", "x": 72.59535, "y": 23.03226}}, {"type": "Feature", "id": 45, "geometry": {"type": "Point", "coordinates": [72.59535000021549, 23.03225999960893]}, "properties": {"objectid": 45, "sr__no_": 49, "date_of_admission": "03.04.2020", "name_of_confirm_case": "MOHAMAD AASIF MOHSINMIYA AARAV", "address": "MALIK AHMED MURKAD,DARIYAPUR", "zone": "CZ", "ward": "DARIYAPUR", "uhc": "DARIYAPUR", "age": 41, "sex": "M", "travel_history": "NO", "transmission_it_dt_un_cx": "D", "status": "STABLE", "hospital": "Sola Civil", "total_quarantine_contacts": 8, "quarantine_completed": 0, "remarks": "", "x": 72.59535, "y": 23.03226}}, {"type": "Feature", "id": 46, "geometry": {"type": "Point", "coordinates": [72.59736000006173, 23.002399999697918]}, "properties": {"objectid": 46, "sr__no_": 50, "date_of_admission": "03.04.2020", "name_of_confirm_case": "MR VIJAYRAJ CHAMPALAL LODHA", "address": "13 PUSHPAKUNJ SOCIETY MANINAGAR\nKANKARIYA LAKE, MANINAGAR , AHMEDABAD, , INDIA, 380008", "zone": "SZ", "ward": "MANINAGAR", "uhc": "KANKARIYA", "age": 55, "sex": "M", "travel_history": "NO", "transmission_it_dt_un_cx": "U", "status": "STABLE", "hospital": "SVP", "total_quarantine_contacts": 16, "quarantine_completed": 0, "remarks": "", "x": 72.59736, "y": 23.0024}}, {"type": "Feature", "id": 47, "geometry": {"type": "Point", "coordinates": [72.58639796426871, 23.018772664602825]}, "properties": {"objectid": 47, "sr__no_": 51, "date_of_admission": "04.04.2020", "name_of_confirm_case": "MRS AAISHA MEHMUDBHAI AJMERWALA", "address": "4075, ANJUMAN HIGH SCHOOL, B/H HASAMUNSHINI GALI, GOLLIMDA, JAMALPUR ,\nAHMEDABAD, GUJARAT, INDIA, 380001", "zone": "CZ", "ward": "JAMALPUR", "uhc": "JAMALPUR", "age": 75, "sex": "F", "travel_history": "NO", "transmission_it_dt_un_cx": "U", "status": "STABLE", "hospital": "SVP", "total_quarantine_contacts": 5, "quarantine_completed": 0, "remarks": "", "x": 72.58639796, "y": 23.01877266}}, {"type": "Feature", "id": 48, "geometry": {"type": "Point", "coordinates": [72.55306999954168, 23.017150000140745]}, "properties": {"objectid": 48, "sr__no_": 52, "date_of_admission": "04.04.2020", "name_of_confirm_case": "MR JAINAM SHAH", "address": "B215, NILAM APARTMENT, OPP MUNICIPAL SCHOOL, HIRABAG CROSSING, AMBAWADI,\nPALDI , AHMEDABAD, GUJARAT, INDIA, 380007", "zone": "WZ", "ward": "NAVRANGPURA", "uhc": "AMBAWADI", "age": 20, "sex": "M", "travel_history": "NO", "transmission_it_dt_un_cx": "UC", "status": "STABLE", "hospital": "SVP", "total_quarantine_contacts": 8, "quarantine_completed": 0, "remarks": "CLOSE CONTACT OF NITIN SHAH( POSITIVEI CASE)", "x": 72.55307, "y": 23.01715}}, {"type": "Feature", "id": 49, "geometry": {"type": "Point", "coordinates": [72.597959999828, 23.0315600000998]}, "properties": {"objectid": 49, "sr__no_": 58, "date_of_admission": "05.04.2020", "name_of_confirm_case": "FARHAN AHMED GAUSI", "address": "1657,USMI KHADKI ,BHANDERI POLE,\nKALUPUR ,AHMEDABAD", "zone": "CZ", "ward": "DARIYAPUR", "uhc": "KALUPUR", "age": 37, "sex": "M", "travel_history": "NO", "transmission_it_dt_un_cx": "D", "status": "STABLE", "hospital": "SVP", "total_quarantine_contacts": 22, "quarantine_completed": 0, "remarks": "CONTACT OF POSITVIE CASE OF MASRUF ALI", "x": 72.59796, "y": 23.03156}}, {"type": "Feature", "id": 50, "geometry": {"type": "Point", "coordinates": [72.59535000021549, 23.03225999960893]}, "properties": {"objectid": 50, "sr__no_": 62, "date_of_admission": "05.04.2020", "name_of_confirm_case": "ANASALI   MUSTAQ AHMAD", "address": "PARMANT ADD: KADIPURA  MAU UP, TEMPORARY ADD : MAILK  AHMED MASJID, TOPIWALA POL PASE, BALOOCHWAD, KAULUPUR, AHMEDABAD", "zone": "CZ", "ward": "DARIYAPUR", "uhc": "KALUPUR", "age": 60, "sex": "M", "travel_history": "NO", "transmission_it_dt_un_cx": "DC", "status": "STABLE", "hospital": "SVP", "total_quarantine_contacts": 22, "quarantine_completed": 0, "remarks": "CONTACT OF POSITVIE CASE OF MASRUF ALI", "x": 72.59535, "y": 23.03226}}, {"type": "Feature", "id": 51, "geometry": {"type": "Point", "coordinates": [72.51585671116442, 23.038159320659286]}, "properties": {"objectid": 51, "sr__no_": 64, "date_of_admission": "06.04.2020", "name_of_confirm_case": "SONALBEN SHAH", "address": "DEVRAJ TOWER, BODAKDEV,\nAHMEDABAD", "zone": "NWZ", "ward": "BODAKDEV", "uhc": "BODAKDEV", "age": 59, "sex": "F", "travel_history": "", "transmission_it_dt_un_cx": "", "status": "STABLE", "hospital": "CHA", "total_quarantine_contacts": 5, "quarantine_completed": 0, "remarks": "", "x": 72.51585671, "y": 23.03815932}}, {"type": "Feature", "id": 52, "geometry": {"type": "Point", "coordinates": [72.59718000028376, 23.03048999964975]}, "properties": {"objectid": 52, "sr__no_": 68, "date_of_admission": "06.04.2020", "name_of_confirm_case": "MARIYAMABIBI NAJHIRBHAI SHEKH", "address": "88/5 KUTBI MOHALL;KALUPUR;AHMEDABAD\nCITY;AHMEDABAD", "zone": "CZ", "ward": "KALUPUR", "uhc": "KALUPUR", "age": 65, "sex": "F", "travel_history": "", "transmission_it_dt_un_cx": "", "status": "STABLE", "hospital": "CHA", "total_quarantine_contacts": 4, "quarantine_completed": 0, "remarks": "", "x": 72.59718, "y": 23.03049}}, {"type": "Feature", "id": 53, "geometry": {"type": "Point", "coordinates": [72.59718000028376, 23.03048999964975]}, "properties": {"objectid": 53, "sr__no_": 69, "date_of_admission": "06.04.2020", "name_of_confirm_case": "SADIYA JAVED ANSARI", "address": "88/5 KUTBI MOHALL;KALUPUR;AHMEDABAD\nCITY;AHMEDABAD", "zone": "CZ", "ward": "KALUPUR", "uhc": "KALUPUR", "age": 24, "sex": "F", "travel_history": "", "transmission_it_dt_un_cx": "", "status": "STABLE", "hospital": "CHA", "total_quarantine_contacts": 0, "quarantine_completed": 0, "remarks": "", "x": 72.59718, "y": 23.03049}}, {"type": "Feature", "id": 54, "geometry": {"type": "Point", "coordinates": [72.51997340014731, 23.043392800130864]}, "properties": {"objectid": 54, "sr__no_": 70, "date_of_admission": "06.04.2020", "name_of_confirm_case": "RITABEN\nSHAILESHBHAI DHRUVA", "address": "D 404 ; DEVPRIT\nAPART;BODAKDEV;DASKROI;AHMEDAB AD", "zone": "NWZ", "ward": "BODAKDEV", "uhc": "BODAKDEV", "age": 60, "sex": "F", "travel_history": "", "transmission_it_dt_un_cx": "", "status": "STABLE", "hospital": "CHA", "total_quarantine_contacts": 3, "quarantine_completed": 0, "remarks": "", "x": 72.5199734, "y": 23.0433928}}, {"type": "Feature", "id": 55, "geometry": {"type": "Point", "coordinates": [72.51585671116442, 23.038159320659286]}, "properties": {"objectid": 55, "sr__no_": 71, "date_of_admission": "06.04.2020", "name_of_confirm_case": "MONALBEN ANUJBHAI SHAH", "address": "A 403 ; DEVRAJ TOWER;BODAKDEV;DASKROI;AHMEDA\nBAD", "zone": "NWZ", "ward": "BODAKDEV", "uhc": "BODAKDEV", "age": 33, "sex": "F", "travel_history": "", "transmission_it_dt_un_cx": "", "status": "STABLE", "hospital": "CHA", "total_quarantine_contacts": 0, "quarantine_completed": 0, "remarks": "", "x": 72.51585671, "y": 23.03815932}}, {"type": "Feature", "id": 56, "geometry": {"type": "Point", "coordinates": [72.52065369997459, 23.000606999563324]}, "properties": {"objectid": 56, "sr__no_": 75, "date_of_admission": "06.04.2020", "name_of_confirm_case": "ATHAULLA AFAROSH", "address": "PERMANENT ADD.:MAJIDE SYADANA UMARMARKASH;KARNTAKATEMPORAR Y ADD.: JUMMA MASJID, JUHAPURA, AHMEDABAD, GUJARAT", "zone": "SWZ", "ward": "SARKHEJ", "uhc": "SARKHEJ", "age": 64, "sex": "M", "travel_history": "", "transmission_it_dt_un_cx": "", "status": "STABLE", "hospital": "CHA", "total_quarantine_contacts": 0, "quarantine_completed": 0, "remarks": "", "x": 72.5206537, "y": 23.000607}}, {"type": "Feature", "id": 57, "geometry": {"type": "Point", "coordinates": [72.58121460022811, 23.03523210010398]}, "properties": {"objectid": 57, "sr__no_": 32, "date_of_admission": "31.03.2020", "name_of_confirm_case": "ISHAQ SHIRAJ MANSURI", "address": "201- KRISHTAL FLAT, NR URDU\nSCHOOL,AHMEDABAD, SHAHPUR , AHMEDABAD, GUJARAT, INDIA, 380004-9376002282", "zone": "CZ", "ward": "SHAHPUR", "uhc": "SHAHPUR", "age": 54, "sex": "M", "travel_history": "SINGAPOR E INDONESIA PAKISTAN", "transmission_it_dt_un_cx": "", "status": "STABLE", "hospital": "SVP Hospital", "total_quarantine_contacts": 127, "quarantine_completed": 30, "remarks": "", "x": 72.5812146, "y": 23.0352321}}, {"type": "Feature", "id": 58, "geometry": {"type": "Point", "coordinates": [72.58008000009282, 22.998179999669812]}, "properties": {"objectid": 58, "sr__no_": 10, "date_of_admission": "23.03.2020", "name_of_confirm_case": "HUSAINABIBI SHAIKH", "address": "POLICE CHOCKI SAME DANI LIMDA, AHMEDABAD MO", "zone": "SZ", "ward": "BEHRAM PURA", "uhc": "NEW BEHRAM PURA", "age": 85, "sex": "F", "travel_history": "SAUDI ARABIA", "transmission_it_dt_un_cx": "I", "status": "DEATH", "hospital": "CHA", "total_quarantine_contacts": 35, "quarantine_completed": 13, "remarks": "", "x": 72.58008, "y": 22.99818}}, {"type": "Feature", "id": 59, "geometry": {"type": "Point", "coordinates": [72.53579999986053, 23.057400000095786]}, "properties": {"objectid": 59, "sr__no_": 20, "date_of_admission": "29.03.2020", "name_of_confirm_case": "PRATIKBHAI CHINUBHAI SHAH", "address": "AS SHREE PANCINILA BUNGLOW NEAR ,B.D ROAD HALL BHUGDEN CROSS ROAD,\nMEMNAGAR , AHMEDABAD, GUJARAT, INDIA,\n380052-9824163689", "zone": "NWZ", "ward": "GHATLODIYA", "uhc": "GHATLODIYA", "age": 39, "sex": "M", "travel_history": "ATLANTA PARIS DELHI", "transmission_it_dt_un_cx": "I", "status": "STABLE", "hospital": "SVP Hospital", "total_quarantine_contacts": 21, "quarantine_completed": 0, "remarks": "", "x": 72.5358, "y": 23.0574}}, {"type": "Feature", "id": 60, "geometry": {"type": "Point", "coordinates": [72.67784000022692, 23.06632999961518]}, "properties": {"objectid": 60, "sr__no_": 53, "date_of_admission": "05.04.2020", "name_of_confirm_case": "MUMFTI MAHMAD IMRAN GUALBNABHI SHEIKH", "address": "TAPI RESIDENCY, NAVA NARODA AHMEDABAD", "zone": "EZ", "ward": "DARIYAPUR", "uhc": "KALUPUR", "age": 37, "sex": "M", "travel_history": "TRAVEL FROM DELHI JAMAT", "transmission_it_dt_un_cx": "DC", "status": "STABLE", "hospital": "CHA", "total_quarantine_contacts": 5, "quarantine_completed": 0, "remarks": "CONTACT OF POSITVIE CASE OF MASRUF ALI", "x": 72.67784, "y": 23.06633}}, {"type": "Feature", "id": 61, "geometry": {"type": "Point", "coordinates": [72.67784000022692, 23.06632999961518]}, "properties": {"objectid": 61, "sr__no_": 54, "date_of_admission": "05.04.2020", "name_of_confirm_case": "YASIN REHMAN SHEIKH", "address": "TAPI RESIDENCY, NAVA NARODA AHMEDABAD", "zone": "EZ", "ward": "DARIYAPUR", "uhc": "KALUPUR", "age": 39, "sex": "M", "travel_history": "TRAVEL FROM DELHI JAMAT", "transmission_it_dt_un_cx": "DC", "status": "STABLE", "hospital": "CHA", "total_quarantine_contacts": 3, "quarantine_completed": 0, "remarks": "CONTACT OF POSITVIE CASE OF MASRUF ALI", "x": 72.67784, "y": 23.06633}}, {"type": "Feature", "id": 62, "geometry": {"type": "Point", "coordinates": [72.59727999976316, 23.029309999919207]}, "properties": {"objectid": 62, "sr__no_": 56, "date_of_admission": "05.04.2020", "name_of_confirm_case": "MAJID NAVAB KHURESHI", "address": "PARMANT ADD;NAVAGADH;JUNJUNU,RAJSATHAN TEMPORARY ADD; WARD NO.19 MOHALLA,KALUPUR ,DARIAPUR MOSQUE", "zone": "CZ", "ward": "DARIYAPUR", "uhc": "KALUPUR", "age": 32, "sex": "M", "travel_history": "NO", "transmission_it_dt_un_cx": "DC", "status": "STABLE", "hospital": "SVP", "total_quarantine_contacts": 22, "quarantine_completed": 0, "remarks": "CONTACT OF POSITVIE CASE OF MASRUF ALI", "x": 72.59728, "y": 23.02931}}, {"type": "Feature", "id": 63, "geometry": {"type": "Point", "coordinates": [72.59727999976316, 23.029309999919207]}, "properties": {"objectid": 63, "sr__no_": 59, "date_of_admission": "05.04.2020", "name_of_confirm_case": "MO.WASIM AAMIN", "address": "PARMANT ADD;NAVAGADH;JUNJUNU,RAJSATHAN TEMPORARY ADD; WARD NO.19 MOHALLA,KALUPUR ,DARIAPUR MOSQUE", "zone": "CZ", "ward": "DARIYAPUR", "uhc": "KALUPUR", "age": 35, "sex": "M", "travel_history": "NO", "transmission_it_dt_un_cx": "DC", "status": "STABLE", "hospital": "SVP", "total_quarantine_contacts": 22, "quarantine_completed": 0, "remarks": "CONTACT OF POSITVIE CASE OF MASRUF ALI", "x": 72.59728, "y": 23.02931}}, {"type": "Feature", "id": 64, "geometry": {"type": "Point", "coordinates": [72.59727999976316, 23.029309999919207]}, "properties": {"objectid": 64, "sr__no_": 55, "date_of_admission": "05.04.2020", "name_of_confirm_case": "MO MUBARIK SABBIR", "address": "PARMANT ADD;NAVAGADH;JUNJUNU,RAJSATHAN TEMPORARY ADD; WARD NO.19 MOHALLA,KALUPUR ,DARIAPUR MOSQUE", "zone": "CZ", "ward": "DARIYAPUR", "uhc": "KALUPUR", "age": 24, "sex": "M", "travel_history": "NO", "transmission_it_dt_un_cx": "DC", "status": "STABLE", "hospital": "SVP", "total_quarantine_contacts": 4, "quarantine_completed": 0, "remarks": "ATTENDED NIZAMUDDIN EVENT IN DELHI", "x": 72.59728, "y": 23.02931}}, {"type": "Feature", "id": 65, "geometry": {"type": "Point", "coordinates": [72.59727999976316, 23.029309999919207]}, "properties": {"objectid": 65, "sr__no_": 57, "date_of_admission": "05.04.2020", "name_of_confirm_case": "MOH. SOHEB MOH.YUSUF KHURESHI", "address": "PARMANT ADD;NAVAGADH;JUNJUNU,RAJSATHAN TEMPORARY ADD; WARD NO.19 MOHALLA,KALUPUR ,DARIAPUR MOSQUE", "zone": "CZ", "ward": "DARIYAPUR", "uhc": "KALUPUR", "age": 38, "sex": "M", "travel_history": "NO", "transmission_it_dt_un_cx": "DC", "status": "STABLE", "hospital": "SVP", "total_quarantine_contacts": 22, "quarantine_completed": 0, "remarks": "CONTACT OF POSITVIE CASE OF MASRUF ALI", "x": 72.59728, "y": 23.02931}}, {"type": "Feature", "id": 66, "geometry": {"type": "Point", "coordinates": [72.59727999976316, 23.029309999919207]}, "properties": {"objectid": 66, "sr__no_": 60, "date_of_admission": "05.04.2020", "name_of_confirm_case": "MO.USMAN MO,YASID KHURESI", "address": "PARMANT ADD;NAVAGADH;JUNJUNU,RAJSATHAN TEMPORARY ADD; WARD NO.19 MOHALLA,KALUPUR ,DARIAPUR MOSQUE", "zone": "CZ", "ward": "DARIYAPUR", "uhc": "KALUPUR", "age": 38, "sex": "M", "travel_history": "NO", "transmission_it_dt_un_cx": "DC", "status": "STABLE", "hospital": "SVP", "total_quarantine_contacts": 22, "quarantine_completed": 0, "remarks": "CONTACT OF POSITVIE CASE OF MASRUF ALI", "x": 72.59728, "y": 23.02931}}, {"type": "Feature", "id": 67, "geometry": {"type": "Point", "coordinates": [72.59727999976316, 23.029309999919207]}, "properties": {"objectid": 67, "sr__no_": 61, "date_of_admission": "05.04.2020", "name_of_confirm_case": "MO.SHAKIR MO.ZAKIR KHURESHI", "address": "PARMANT ADD;NAVAGADH;JUNJUNU,RAJSATHAN TEMPORARY ADD; WARD NO.19 MOHALLA,KALUPUR ,DARIAPUR MOSQUE", "zone": "CZ", "ward": "DARIYAPUR", "uhc": "KALUPUR", "age": 16, "sex": "M", "travel_history": "NO", "transmission_it_dt_un_cx": "DC", "status": "STABLE", "hospital": "SVP", "total_quarantine_contacts": 22, "quarantine_completed": 0, "remarks": "CONTACT OF POSITVIE CASE OF MASRUF ALI", "x": 72.59728, "y": 23.02931}}, {"type": "Feature", "id": 68, "geometry": {"type": "Point", "coordinates": [72.58788888924637, 23.015722221967675]}, "properties": {"objectid": 68, "sr__no_": 77, "date_of_admission": "06.04.2020", "name_of_confirm_case": "MRS RASIDA FARUKBHAI VISHALPURWALA", "address": "KURSHID REDESICY TAJ VISHERI PACHPIPLI JAMALPUR, JAMALPUR , AHMEDABAD, GUJARAT, INDIA, 380001", "zone": "CZ", "ward": "JAMALPUR", "uhc": "JAMALPUR", "age": 46, "sex": "F", "travel_history": "NO", "transmission_it_dt_un_cx": "U", "status": "STABLE", "hospital": "SVP", "total_quarantine_contacts": null, "quarantine_completed": null, "remarks": null, "x": 72.58788889, "y": 23.01572222}}, {"type": "Feature", "id": 69, "geometry": {"type": "Point", "coordinates": [72.56052777839723, 23.037750000108336]}, "properties": {"objectid": 69, "sr__no_": 81, "date_of_admission": "06.04.2020", "name_of_confirm_case": "RANU SWAROOP", "address": "101, NIRMAL SWASTIK B/H JAIN DAIRY, NAVRANGPURA , AHMEDABAD, GUJARAT, INDIA, 380009", "zone": "WZ", "ward": "NAVRANGPURA", "uhc": "NAVRANGPURA", "age": 28, "sex": "F", "travel_history": "NO", "transmission_it_dt_un_cx": "", "status": "STABLE", "hospital": "SVP", "total_quarantine_contacts": null, "quarantine_completed": null, "remarks": null, "x": 72.56052778, "y": 23.03775}}, {"type": "Feature", "id": 70, "geometry": {"type": "Point", "coordinates": [72.59119444401787, 22.997000000190937]}, "properties": {"objectid": 70, "sr__no_": 82, "date_of_admission": "06.04.2020", "name_of_confirm_case": "SULTANA SAHID SAYAID", "address": "RASUL BAUG NOORE MASID NI PASE SHAHALAM", "zone": "SZ", "ward": "DANILIMDA", "uhc": "DANILIMDA", "age": 46, "sex": "F", "travel_history": "NO", "transmission_it_dt_un_cx": "", "status": "STABLE", "hospital": "CHA", "total_quarantine_contacts": null, "quarantine_completed": null, "remarks": null, "x": 72.59119444, "y": 22.997}}, {"type": "Feature", "id": 71, "geometry": {"type": "Point", "coordinates": [72.61294444423369, 22.977833333292473]}, "properties": {"objectid": 71, "sr__no_": 83, "date_of_admission": "08.04.2020", "name_of_confirm_case": "GOVINDBHAI AMBALAL PATEL", "address": "55, VAIBHAV PARK,GHODASAR,AHMEDABAD", "zone": "SZ", "ward": "ISANPUR", "uhc": "VATVA SMRUTIMANDIR", "age": 75, "sex": "M", "travel_history": "NO", "transmission_it_dt_un_cx": "", "status": "STABLE", "hospital": "LG", "total_quarantine_contacts": null, "quarantine_completed": null, "remarks": null, "x": 72.61294444, "y": 22.97783333}}, {"type": "Feature", "id": 72, "geometry": {"type": "Point", "coordinates": [72.59427777784495, 23.041277778357472]}, "properties": {"objectid": 72, "sr__no_": 84, "date_of_admission": "08.04.2020", "name_of_confirm_case": "USHAMA MANSURI", "address": "     201,  CRYSTAL  FLAT  B/H  SATYAM  SOC,  NEAR  URDU SCHOOL SHAHPUR  HOJ AHMEDABAD", "zone": "CZ", "ward": "JAMALPUR", "uhc": "SHAHPUR", "age": 30, "sex": "M", "travel_history": "NO", "transmission_it_dt_un_cx": "", "status": "STABLE", "hospital": "SVP", "total_quarantine_contacts": null, "quarantine_completed": null, "remarks": null, "x": 72.59427778, "y": 23.04127778}}, {"type": "Feature", "id": 73, "geometry": {"type": "Point", "coordinates": [72.590166666526, 23.018333332785378]}, "properties": {"objectid": 73, "sr__no_": 85, "date_of_admission": "08.04.2020", "name_of_confirm_case": "MR IRFAN TEKRAWALA", "address": "874 BHUNGALI NI POLE ASTODIA AHMEDABAD, AHMEDABAD G.P.O. , AHMEDABAD, GUJARAT, INDIA, 380001", "zone": "CZ", "ward": "JAMALPUR", "uhc": "JAMALPUR", "age": 48, "sex": "M", "travel_history": "NO", "transmission_it_dt_un_cx": "", "status": "DEATH", "hospital": "SVP", "total_quarantine_contacts": null, "quarantine_completed": null, "remarks": null, "x": 72.59016667, "y": 23.01833333}}, {"type": "Feature", "id": 74, "geometry": {"type": "Point", "coordinates": [72.5817222221863, 22.9966666671444]}, "properties": {"objectid": 74, "sr__no_": 86, "date_of_admission": "08.04.2020", "name_of_confirm_case": "MO.ALI AKBAR", "address": "TAPI APP NIKOL-   81/ HIMALAYA BEKARI, MEHTAB NAGAR, DANILIMDA", "zone": "SZ", "ward": "BAHERAMPURA", "uhc": "BAHERAMPURA", "age": 32, "sex": "M", "travel_history": "NO", "transmission_it_dt_un_cx": "", "status": "STABLE", "hospital": "CHA", "total_quarantine_contacts": null, "quarantine_completed": null, "remarks": null, "x": 72.58172222, "y": 22.99666667}}, {"type": "Feature", "id": 75, "geometry": {"type": "Point", "coordinates": [72.5154722223613, 23.036722221831894]}, "properties": {"objectid": 75, "sr__no_": 87, "date_of_admission": "08.04.2020", "name_of_confirm_case": "KIRTI MANGAI", "address": "R-501, RATANKAR ALIGANA, JODHAPUR", "zone": "SWZ", "ward": "JODHPUR", "uhc": "JODHPUR", "age": 40, "sex": "F", "travel_history": "NO", "transmission_it_dt_un_cx": "", "status": "STABLE", "hospital": "SVP", "total_quarantine_contacts": null, "quarantine_completed": null, "remarks": null, "x": 72.51547222, "y": 23.03672222}}, {"type": "Feature", "id": 76, "geometry": {"type": "Point", "coordinates": [72.59072222221027, 23.036805555883955]}, "properties": {"objectid": 76, "sr__no_": 88, "date_of_admission": "09.04.2020", "name_of_confirm_case": "UMAR MOHAMAD SAIYAD", "address": "431/2,SAIYAD VADA,NEAR DILLI CHAKLA,DARIYAPUR", "zone": "CZ", "ward": "DARIYAPUR", "uhc": "DARIYAPUR", "age": 70, "sex": "M", "travel_history": "NO", "transmission_it_dt_un_cx": "", "status": "STABLE", "hospital": "SVP", "total_quarantine_contacts": null, "quarantine_completed": null, "remarks": null, "x": 72.59072222, "y": 23.03680556}}, {"type": "Feature", "id": 77, "geometry": {"type": "Point", "coordinates": [72.58719444389087, 22.99586111112137]}, "properties": {"objectid": 77, "sr__no_": 89, "date_of_admission": "09.04.2020", "name_of_confirm_case": "MOH. IQBAL SHAMSUDIN SHAIKH ", "address": "SAFI MANJIL DANILIMDA", "zone": "SZ", "ward": "DANILIMDA", "uhc": "DANILIMDA", "age": 53, "sex": "M", "travel_history": "NO", "transmission_it_dt_un_cx": "", "status": "STABLE", "hospital": "CHA", "total_quarantine_contacts": null, "quarantine_completed": null, "remarks": null, "x": 72.58719444, "y": 22.99586111}}, {"type": "Feature", "id": 78, "geometry": {"type": "Point", "coordinates": [72.58719444389087, 22.99586111112137]}, "properties": {"objectid": 78, "sr__no_": 90, "date_of_admission": "09.04.2020", "name_of_confirm_case": "SHAIKH ASMABANU NASIRHUSAIN ", "address": "SAFI MANJIL DANILIMDA", "zone": "SZ", "ward": "DANILIMDA", "uhc": "DANILIMDA", "age": 16, "sex": "F", "travel_history": "NO", "transmission_it_dt_un_cx": "", "status": "STABLE", "hospital": "CHA", "total_quarantine_contacts": null, "quarantine_completed": null, "remarks": null, "x": 72.58719444, "y": 22.99586111}}, {"type": "Feature", "id": 79, "geometry": {"type": "Point", "coordinates": [72.58719444389087, 22.99586111112137]}, "properties": {"objectid": 79, "sr__no_": 91, "date_of_admission": "09.04.2020", "name_of_confirm_case": "ZOYABANU SARFARAZ NAWAZ ", "address": "SAFI MANJIL DANILIMDA", "zone": "SZ", "ward": "DANILIMDA", "uhc": "DANILIMDA", "age": 7, "sex": "F", "travel_history": "NO", "transmission_it_dt_un_cx": "", "status": "STABLE", "hospital": "CHA", "total_quarantine_contacts": null, "quarantine_completed": null, "remarks": null, "x": 72.58719444, "y": 22.99586111}}, {"type": "Feature", "id": 80, "geometry": {"type": "Point", "coordinates": [72.58719444389087, 22.99586111112137]}, "properties": {"objectid": 80, "sr__no_": 92, "date_of_admission": "09.04.2020", "name_of_confirm_case": "MANTASHA RANGREZ", "address": "SAFI MANJIL DANILIMDA", "zone": "SZ", "ward": "DANILIMDA", "uhc": "DANILIMDA", "age": 14, "sex": "F", "travel_history": "NO", "transmission_it_dt_un_cx": "", "status": "STABLE", "hospital": "CHA", "total_quarantine_contacts": null, "quarantine_completed": null, "remarks": null, "x": 72.58719444, "y": 22.99586111}}, {"type": "Feature", "id": 81, "geometry": {"type": "Point", "coordinates": [72.58719444389087, 22.99586111112137]}, "properties": {"objectid": 81, "sr__no_": 93, "date_of_admission": "09.04.2020", "name_of_confirm_case": "MOH. AYAN MOH. ISAQ SHAIKH", "address": "SAFI MANJIL DANILIMDA", "zone": "SZ", "ward": "DANILIMDA", "uhc": "DANILIMDA", "age": 14, "sex": "M", "travel_history": "NO", "transmission_it_dt_un_cx": "", "status": "STABLE", "hospital": "CHA", "total_quarantine_contacts": null, "quarantine_completed": null, "remarks": null, "x": 72.58719444, "y": 22.99586111}}, {"type": "Feature", "id": 82, "geometry": {"type": "Point", "coordinates": [72.58719444389087, 22.99586111112137]}, "properties": {"objectid": 82, "sr__no_": 94, "date_of_admission": "09.04.2020", "name_of_confirm_case": "ALFIYABANU MOH. RANGREZ", "address": "SAFI MANJIL DANILIMDA", "zone": "SZ", "ward": "DANILIMDA", "uhc": "DANILIMDA", "age": 12, "sex": "F", "travel_history": "NO", "transmission_it_dt_un_cx": "", "status": "STABLE", "hospital": "CHA", "total_quarantine_contacts": null, "quarantine_completed": null, "remarks": null, "x": 72.58719444, "y": 22.99586111}}, {"type": "Feature", "id": 83, "geometry": {"type": "Point", "coordinates": [72.58719444389087, 22.99586111112137]}, "properties": {"objectid": 83, "sr__no_": 95, "date_of_admission": "09.04.2020", "name_of_confirm_case": "RABIYABIBI GULAM", "address": "SAFI MANJIL DANILIMDA", "zone": "SZ", "ward": "DANILIMDA", "uhc": "DANILIMDA", "age": 65, "sex": "F", "travel_history": "NO", "transmission_it_dt_un_cx": "", "status": "STABLE", "hospital": "CHA", "total_quarantine_contacts": null, "quarantine_completed": null, "remarks": null, "x": 72.58719444, "y": 22.99586111}}, {"type": "Feature", "id": 84, "geometry": {"type": "Point", "coordinates": [72.61405555638275, 23.017694444191836]}, "properties": {"objectid": 84, "sr__no_": 96, "date_of_admission": "09.04.2020", "name_of_confirm_case": "ARBAZ VALIM MOHAMMAD ", "address": "GAJANAND CHALI,GOMATIPUR,AHEMEDABAD ", "zone": "SZ", "ward": "DANILIMDA", "uhc": "DANILIMDA", "age": 35, "sex": "M", "travel_history": "NO", "transmission_it_dt_un_cx": "", "status": "STABLE", "hospital": "CHA", "total_quarantine_contacts": null, "quarantine_completed": null, "remarks": null, "x": 72.61405556, "y": 23.01769444}}, {"type": "Feature", "id": 85, "geometry": {"type": "Point", "coordinates": [72.58722222200551, 22.99580555636076]}, "properties": {"objectid": 85, "sr__no_": 97, "date_of_admission": "09.04.2020", "name_of_confirm_case": "ISMAIL  JALUBHAI DHOBI", "address": "600, DHOBI NI CHALI SAFI MANZIL, DANILIMDA, AHEMEDABAD ", "zone": "SZ", "ward": "DANILIMDA", "uhc": "DANILIMDA", "age": 35, "sex": "M", "travel_history": "NO", "transmission_it_dt_un_cx": "", "status": "STABLE", "hospital": "CHA", "total_quarantine_contacts": null, "quarantine_completed": null, "remarks": null, "x": 72.58722222, "y": 22.99580556}}, {"type": "Feature", "id": 86, "geometry": {"type": "Point", "coordinates": [72.58722222200551, 22.99580555636076]}, "properties": {"objectid": 86, "sr__no_": 98, "date_of_admission": "09.04.2020", "name_of_confirm_case": "GULAM AASMOHAMAD SHAIKH ", "address": "600, DHOBI NI CHALI SAFI MANZIL, DANILIMDA, AHEMEDABAD ", "zone": "SZ", "ward": "DANILIMDA", "uhc": "DANILIMDA", "age": 35, "sex": "M", "travel_history": "NO", "transmission_it_dt_un_cx": "", "status": "STABLE", "hospital": "CHA", "total_quarantine_contacts": null, "quarantine_completed": null, "remarks": null, "x": 72.58722222, "y": 22.99580556}}, {"type": "Feature", "id": 87, "geometry": {"type": "Point", "coordinates": [72.58722222200551, 22.99580555636076]}, "properties": {"objectid": 87, "sr__no_": 99, "date_of_admission": "09.04.2020", "name_of_confirm_case": "CHANDBIBI GULAM SHAIKH ", "address": "600, DHOBI NI CHALI SAFI MANZIL, DANILIMDA, AHEMEDABAD ", "zone": "SZ", "ward": "DANILIMDA", "uhc": "DANILIMDA", "age": 30, "sex": "F", "travel_history": "NO", "transmission_it_dt_un_cx": "", "status": "STABLE", "hospital": "CHA", "total_quarantine_contacts": null, "quarantine_completed": null, "remarks": null, "x": 72.58722222, "y": 22.99580556}}, {"type": "Feature", "id": 88, "geometry": {"type": "Point", "coordinates": [72.58722222200551, 22.99580555636076]}, "properties": {"objectid": 88, "sr__no_": 100, "date_of_admission": "09.04.2020", "name_of_confirm_case": "AFSAL HUSAIN MAKSUD AHMED SHAIKH", "address": "2007,  MATAVADI POD,DARIYAPUR, AHEMEDABAD ", "zone": "CZ", "ward": "DARIYAPUR", "uhc": "DARIYAPUR", "age": 45, "sex": "M", "travel_history": "NO", "transmission_it_dt_un_cx": "", "status": "STABLE", "hospital": "SVP", "total_quarantine_contacts": null, "quarantine_completed": null, "remarks": null, "x": 72.58722222, "y": 22.99580556}}, {"type": "Feature", "id": 89, "geometry": {"type": "Point", "coordinates": [72.59419444406272, 23.03436111090902]}, "properties": {"objectid": 89, "sr__no_": 101, "date_of_admission": "09.04.2020", "name_of_confirm_case": "IQBALBHAI  DUDHWALA", "address": "2016,  MATAVADI POD,DARIYAPUR, AHEMEDABAD ", "zone": "CZ", "ward": "DARIYAPUR", "uhc": "DARIYAPUR", "age": 70, "sex": "M", "travel_history": "NO", "transmission_it_dt_un_cx": "", "status": "STABLE", "hospital": "SVP", "total_quarantine_contacts": null, "quarantine_completed": null, "remarks": null, "x": 72.59419444, "y": 23.03436111}}, {"type": "Feature", "id": 90, "geometry": {"type": "Point", "coordinates": [72.59419444406272, 23.03436111090902]}, "properties": {"objectid": 90, "sr__no_": 102, "date_of_admission": "09.04.2020", "name_of_confirm_case": "SHAHNAVAZ ABDULREHMAN DALAL ", "address": "2026,  MATAVADI POD,DARIYAPUR, AHEMEDABAD ", "zone": "CZ", "ward": "DARIYAPUR", "uhc": "DARIYAPUR", "age": 33, "sex": "M", "travel_history": "NO", "transmission_it_dt_un_cx": "", "status": "STABLE", "hospital": "SVP", "total_quarantine_contacts": null, "quarantine_completed": null, "remarks": null, "x": 72.59419444, "y": 23.03436111}}, {"type": "Feature", "id": 91, "geometry": {"type": "Point", "coordinates": [72.59447222167522, 23.03130555613805]}, "properties": {"objectid": 91, "sr__no_": 103, "date_of_admission": "09.04.2020", "name_of_confirm_case": "YASMIN SHAIKH", "address": "1187, KARODA NI POD, DARIYAPUR, AHEMEDABAD ", "zone": "CZ", "ward": "DARIYAPUR", "uhc": "DARIYAPUR", "age": 29, "sex": "F", "travel_history": "NO", "transmission_it_dt_un_cx": "", "status": "STABLE", "hospital": "SVP", "total_quarantine_contacts": null, "quarantine_completed": null, "remarks": null, "x": 72.59447222, "y": 23.03130556}}, {"type": "Feature", "id": 92, "geometry": {"type": "Point", "coordinates": [72.58516666657349, 23.01494444366991]}, "properties": {"objectid": 92, "sr__no_": 104, "date_of_admission": "09.04.2020", "name_of_confirm_case": "YASAR YUNUS KADRUIWALA", "address": "2666,KHAJURAV NI POD, TAJPUR, JAMALPUR, AHEMEDABAD ", "zone": "CZ", "ward": "JAMALPUR", "uhc": "JAMALPUR", "age": 22, "sex": "M", "travel_history": "NO", "transmission_it_dt_un_cx": "", "status": "STABLE", "hospital": "SVP", "total_quarantine_contacts": null, "quarantine_completed": null, "remarks": null, "x": 72.58516667, "y": 23.01494444}}, {"type": "Feature", "id": 93, "geometry": {"type": "Point", "coordinates": [72.58516666657349, 23.01494444366991]}, "properties": {"objectid": 93, "sr__no_": 105, "date_of_admission": "09.04.2020", "name_of_confirm_case": "RAHIM KADRUIWALA", "address": "2666,KHAJURAV NI POD, TAJPUR, JAMALPUR, AHEMEDABAD ", "zone": "CZ", "ward": "JAMALPUR", "uhc": "JAMALPUR", "age": 8, "sex": "M", "travel_history": "NO", "transmission_it_dt_un_cx": "", "status": "STABLE", "hospital": "SVP", "total_quarantine_contacts": null, "quarantine_completed": null, "remarks": null, "x": 72.58516667, "y": 23.01494444}}, {"type": "Feature", "id": 94, "geometry": {"type": "Point", "coordinates": [72.58722222200551, 22.99580555636076]}, "properties": {"objectid": 94, "sr__no_": 106, "date_of_admission": "09.04.2020", "name_of_confirm_case": "ISMAIL KADRUIWALA ", "address": "2026,  MATAVADI POD,DARIYAPUR, AHEMEDABAD ", "zone": "CZ", "ward": "JAMALPUR", "uhc": "JAMALPUR", "age": 72, "sex": "M", "travel_history": "NO", "transmission_it_dt_un_cx": "", "status": "STABLE", "hospital": "SVP", "total_quarantine_contacts": null, "quarantine_completed": null, "remarks": null, "x": 72.58722222, "y": 22.99580556}}, {"type": "Feature", "id": 95, "geometry": {"type": "Point", "coordinates": [72.58722222200551, 22.99580555636076]}, "properties": {"objectid": 95, "sr__no_": 107, "date_of_admission": "09.04.2020", "name_of_confirm_case": "SALMA KADRUIWALA", "address": "2026,  MATAVADI POD,DARIYAPUR, AHEMEDABAD ", "zone": "CZ", "ward": "JAMALPUR", "uhc": "JAMALPUR", "age": 48, "sex": "F", "travel_history": "NO", "transmission_it_dt_un_cx": "", "status": "STABLE", "hospital": "SVP", "total_quarantine_contacts": null, "quarantine_completed": null, "remarks": null, "x": 72.58722222, "y": 22.99580556}}, {"type": "Feature", "id": 96, "geometry": {"type": "Point", "coordinates": [72.58711111127926, 22.996083332775363]}, "properties": {"objectid": 96, "sr__no_": 108, "date_of_admission": "09.04.2020", "name_of_confirm_case": "NAIDUN MANDAL ", "address": "A/40, 5TH  FLOOR,SHAHRUKH APPARTMENT,", "zone": "SZ", "ward": "DANILIMDA", "uhc": "DANILIMDA", "age": 30, "sex": "M", "travel_history": "NO", "transmission_it_dt_un_cx": "", "status": "STABLE", "hospital": "CHA", "total_quarantine_contacts": null, "quarantine_completed": null, "remarks": null, "x": 72.58711111, "y": 22.99608333}}, {"type": "Feature", "id": 97, "geometry": {"type": "Point", "coordinates": [72.58719444436156, 22.995722222166425]}, "properties": {"objectid": 97, "sr__no_": 109, "date_of_admission": "09.04.2020", "name_of_confirm_case": "AZAD AHEMAD MANSURI", "address": "A/F 14, MAJ APPARTMENT, SAFI MANZIL", "zone": "SZ", "ward": "DANILIMDA", "uhc": "DANILIMDA", "age": 42, "sex": "M", "travel_history": "NO", "transmission_it_dt_un_cx": "", "status": "STABLE", "hospital": "CHA", "total_quarantine_contacts": null, "quarantine_completed": null, "remarks": null, "x": 72.58719444, "y": 22.99572222}}, {"type": "Feature", "id": 98, "geometry": {"type": "Point", "coordinates": [72.58719444436156, 22.995722222166425]}, "properties": {"objectid": 98, "sr__no_": 110, "date_of_admission": "09.04.2020", "name_of_confirm_case": "SHAIKH SAGUPTA", "address": "A/F 12, MAJ APPARTMENT, SAFI MANZIL", "zone": "SZ", "ward": "DANILIMDA", "uhc": "DANILIMDA", "age": 26, "sex": "F", "travel_history": "NO", "transmission_it_dt_un_cx": "", "status": "STABLE", "hospital": "CHA", "total_quarantine_contacts": null, "quarantine_completed": null, "remarks": null, "x": 72.58719444, "y": 22.99572222}}, {"type": "Feature", "id": 99, "geometry": {"type": "Point", "coordinates": [72.58719444436156, 22.995722222166425]}, "properties": {"objectid": 99, "sr__no_": 111, "date_of_admission": "09.04.2020", "name_of_confirm_case": "ABDUL VAHAB KADARBHAI", "address": "A/F 9, MAJ APPARTMENT, SAFI MANZIL", "zone": "SZ", "ward": "DANILIMDA", "uhc": "DANILIMDA", "age": 18, "sex": "M", "travel_history": "NO", "transmission_it_dt_un_cx": "", "status": "STABLE", "hospital": "CHA", "total_quarantine_contacts": null, "quarantine_completed": null, "remarks": null, "x": 72.58719444, "y": 22.99572222}}, {"type": "Feature", "id": 100, "geometry": {"type": "Point", "coordinates": [72.58719444436156, 22.995722222166425]}, "properties": {"objectid": 100, "sr__no_": 112, "date_of_admission": "09.04.2020", "name_of_confirm_case": "MAEMAN ASMABANU", "address": "A/F 9, MAJ APPARTMENT, SAFI MANZIL", "zone": "SZ", "ward": "DANILIMDA", "uhc": "DANILIMDA", "age": 39, "sex": "F", "travel_history": "NO", "transmission_it_dt_un_cx": "", "status": "STABLE", "hospital": "CHA", "total_quarantine_contacts": null, "quarantine_completed": null, "remarks": null, "x": 72.58719444, "y": 22.99572222}}, {"type": "Feature", "id": 101, "geometry": {"type": "Point", "coordinates": [72.58719444436156, 22.995722222166425]}, "properties": {"objectid": 101, "sr__no_": 113, "date_of_admission": "09.04.2020", "name_of_confirm_case": "MEMAN KADARBHAI ", "address": "A/F 9, MAJ APPARTMENT, SAFI MANZIL", "zone": "SZ", "ward": "DANILIMDA", "uhc": "DANILIMDA", "age": 48, "sex": "M", "travel_history": "NO", "transmission_it_dt_un_cx": "", "status": "STABLE", "hospital": "CHA", "total_quarantine_contacts": null, "quarantine_completed": null, "remarks": null, "x": 72.58719444, "y": 22.99572222}}, {"type": "Feature", "id": 102, "geometry": {"type": "Point", "coordinates": [72.58719444436156, 22.995722222166425]}, "properties": {"objectid": 102, "sr__no_": 114, "date_of_admission": "09.04.2020", "name_of_confirm_case": "MEMAN UJAMABANU KADARBHAI", "address": "A/F 9, MAJ APPARTMENT, SAFI MANZIL", "zone": "SZ", "ward": "DANILIMDA", "uhc": "DANILIMDA", "age": 14, "sex": "F", "travel_history": "NO", "transmission_it_dt_un_cx": "", "status": "STABLE", "hospital": "CHA", "total_quarantine_contacts": null, "quarantine_completed": null, "remarks": null, "x": 72.58719444, "y": 22.99572222}}, {"type": "Feature", "id": 103, "geometry": {"type": "Point", "coordinates": [72.58719444436156, 22.995722222166425]}, "properties": {"objectid": 103, "sr__no_": 115, "date_of_admission": "09.04.2020", "name_of_confirm_case": "TAJANI ZUBEDA GANIBHAI", "address": "A/F 10, MAJ APPARTMENT, SAFI MANZIL", "zone": "SZ", "ward": "DANILIMDA", "uhc": "DANILIMDA", "age": 60, "sex": "F", "travel_history": "NO", "transmission_it_dt_un_cx": "", "status": "STABLE", "hospital": "CHA", "total_quarantine_contacts": null, "quarantine_completed": null, "remarks": null, "x": 72.58719444, "y": 22.99572222}}, {"type": "Feature", "id": 104, "geometry": {"type": "Point", "coordinates": [72.58719444436156, 22.995722222166425]}, "properties": {"objectid": 104, "sr__no_": 116, "date_of_admission": "09.04.2020", "name_of_confirm_case": "TAJANI GANIBHAI", "address": "A/F 10, MAJ APPARTMENT, SAFI MANZIL", "zone": "SZ", "ward": "DANILIMDA", "uhc": "DANILIMDA", "age": 74, "sex": "F", "travel_history": "NO", "transmission_it_dt_un_cx": "", "status": "STABLE", "hospital": "CHA", "total_quarantine_contacts": null, "quarantine_completed": null, "remarks": null, "x": 72.58719444, "y": 22.99572222}}, {"type": "Feature", "id": 105, "geometry": {"type": "Point", "coordinates": [72.58719444436156, 22.995722222166425]}, "properties": {"objectid": 105, "sr__no_": 117, "date_of_admission": "09.04.2020", "name_of_confirm_case": "SHAIKH MOHAMAD", "address": "A/F 9, MAJ APPARTMENT, SAFI MANZIL", "zone": "SZ", "ward": "DANILIMDA", "uhc": "DANILIMDA", "age": null, "sex": "M", "travel_history": "NO", "transmission_it_dt_un_cx": "", "status": "STABLE", "hospital": "CHA", "total_quarantine_contacts": null, "quarantine_completed": null, "remarks": null, "x": 72.58719444, "y": 22.99572222}}, {"type": "Feature", "id": 106, "geometry": {"type": "Point", "coordinates": [72.58719444436156, 22.995722222166425]}, "properties": {"objectid": 106, "sr__no_": 118, "date_of_admission": "09.04.2020", "name_of_confirm_case": "SUFIYABEN", "address": ", SAFI MANZIL", "zone": "SZ", "ward": "DANILIMDA", "uhc": "DANILIMDA", "age": 40, "sex": "F", "travel_history": "NO", "transmission_it_dt_un_cx": "", "status": "STABLE", "hospital": "CHA", "total_quarantine_contacts": null, "quarantine_completed": null, "remarks": null, "x": 72.58719444, "y": 22.99572222}}, {"type": "Feature", "id": 107, "geometry": {"type": "Point", "coordinates": [72.58724999973549, 22.995944444333343]}, "properties": {"objectid": 107, "sr__no_": 119, "date_of_admission": "09.04.2020", "name_of_confirm_case": "SARFARAZ NAWAZ SHAIKH", "address": "SAFI MANZIL BESIDE SHAHRUKH APP,", "zone": "SZ", "ward": "DANILIMDA", "uhc": "DANILIMDA", "age": 35, "sex": "F", "travel_history": "NO", "transmission_it_dt_un_cx": "", "status": "STABLE", "hospital": "CHA", "total_quarantine_contacts": null, "quarantine_completed": null, "remarks": null, "x": 72.58725, "y": 22.99594444}}, {"type": "Feature", "id": 108, "geometry": {"type": "Point", "coordinates": [72.58724999973549, 22.995944444333343]}, "properties": {"objectid": 108, "sr__no_": 120, "date_of_admission": "09.04.2020", "name_of_confirm_case": "IRSHAAD ALI", "address": " SAFI MANZIL", "zone": "SZ", "ward": "DANILIMDA", "uhc": "DANILIMDA", "age": 40, "sex": "M", "travel_history": "NO", "transmission_it_dt_un_cx": "", "status": "STABLE", "hospital": "CHA", "total_quarantine_contacts": null, "quarantine_completed": null, "remarks": null, "x": 72.58725, "y": 22.99594444}}, {"type": "Feature", "id": 109, "geometry": {"type": "Point", "coordinates": [72.58724999973549, 22.995944444333343]}, "properties": {"objectid": 109, "sr__no_": 121, "date_of_admission": "09.04.2020", "name_of_confirm_case": "JAYEDABANU MO.IQBAL SHAIKH", "address": "A/F 9, MAJ APPARTMENT, SAFI MANZIL", "zone": "SZ", "ward": "DANILIMDA", "uhc": "DANILIMDA", "age": 47, "sex": "F", "travel_history": "NO", "transmission_it_dt_un_cx": "", "status": "STABLE", "hospital": "CHA", "total_quarantine_contacts": null, "quarantine_completed": null, "remarks": null, "x": 72.58725, "y": 22.99594444}}, {"type": "Feature", "id": 110, "geometry": {"type": "Point", "coordinates": [72.58724999973549, 22.995944444333343]}, "properties": {"objectid": 110, "sr__no_": 123, "date_of_admission": "09.04.2020", "name_of_confirm_case": "TASLEEM PATHAN", "address": "MAAZ APPARTMENT , SAFI MANZIL", "zone": "SZ", "ward": "DANILIMDA", "uhc": "DANILIMDA", "age": 47, "sex": "F", "travel_history": "NO", "transmission_it_dt_un_cx": "", "status": "STABLE", "hospital": "CHA", "total_quarantine_contacts": null, "quarantine_completed": null, "remarks": null, "x": 72.58725, "y": 22.99594444}}, {"type": "Feature", "id": 111, "geometry": {"type": "Point", "coordinates": [72.58628099986794, 22.995835400198807]}, "properties": {"objectid": 111, "sr__no_": 124, "date_of_admission": "09.04.2020", "name_of_confirm_case": "RAISABANU SHAIKH ", "address": "8,1ST FLOOR, SHAHRUKH APPARTMENT", "zone": "SZ", "ward": "DANILIMDA", "uhc": "DANILIMDA", "age": 38, "sex": "M", "travel_history": "NO", "transmission_it_dt_un_cx": "", "status": "STABLE", "hospital": "CHA", "total_quarantine_contacts": null, "quarantine_completed": null, "remarks": null, "x": 72.586281, "y": 22.9958354}}, {"type": "Feature", "id": 112, "geometry": {"type": "Point", "coordinates": [72.58722222155785, 22.995888888829146]}, "properties": {"objectid": 112, "sr__no_": 125, "date_of_admission": "09.04.2020", "name_of_confirm_case": "FARZAANA SHAIKH", "address": ", HEENA DIVAKHANA  ,SAFI MANZIL", "zone": "SZ", "ward": "DANILIMDA", "uhc": "DANILIMDA", "age": 40, "sex": "F", "travel_history": "NO", "transmission_it_dt_un_cx": "", "status": "STABLE", "hospital": "CHA", "total_quarantine_contacts": null, "quarantine_completed": null, "remarks": null, "x": 72.58722222, "y": 22.99588889}}, {"type": "Feature", "id": 113, "geometry": {"type": "Point", "coordinates": [72.58763888873335, 22.992527778222826]}, "properties": {"objectid": 113, "sr__no_": 126, "date_of_admission": "09.04.2020", "name_of_confirm_case": "RAHISA MOH.ANWAR", "address": "ZUBARI MANZIL, SHAH ALAM, DANILIMDA", "zone": "SZ", "ward": "DANILIMDA", "uhc": "DANILIMDA", "age": 68, "sex": "F", "travel_history": "NO", "transmission_it_dt_un_cx": "", "status": "STABLE", "hospital": "CHA", "total_quarantine_contacts": null, "quarantine_completed": null, "remarks": null, "x": 72.58763889, "y": 22.99252778}}, {"type": "Feature", "id": 114, "geometry": {"type": "Point", "coordinates": [72.58763888873335, 22.992527778222826]}, "properties": {"objectid": 114, "sr__no_": 127, "date_of_admission": "09.04.2020", "name_of_confirm_case": "FAIZAN ANSARI", "address": "ZUBARI MANZIL, SHAH ALAM, DANILIMDA", "zone": "SZ", "ward": "DANILIMDA", "uhc": "DANILIMDA", "age": 18, "sex": "F", "travel_history": "NO", "transmission_it_dt_un_cx": "", "status": "STABLE", "hospital": "CHA", "total_quarantine_contacts": null, "quarantine_completed": null, "remarks": null, "x": 72.58763889, "y": 22.99252778}}, {"type": "Feature", "id": 115, "geometry": {"type": "Point", "coordinates": [72.55302777846094, 23.01763888879726]}, "properties": {"objectid": 115, "sr__no_": 128, "date_of_admission": "09.04.2020", "name_of_confirm_case": "TEJEN BHALANI", "address": "NILAM  APPARTMENT, AMBAVADI", "zone": "WZ", "ward": "NAVRANGPURA", "uhc": "AMBAWADI", "age": 40, "sex": "F", "travel_history": "NO", "transmission_it_dt_un_cx": "", "status": "STABLE", "hospital": "SVP", "total_quarantine_contacts": null, "quarantine_completed": null, "remarks": null, "x": 72.55302778, "y": 23.01763889}}, {"type": "Feature", "id": 116, "geometry": {"type": "Point", "coordinates": [72.50008333349348, 23.053749999662873]}, "properties": {"objectid": 116, "sr__no_": 129, "date_of_admission": "09.04.2020", "name_of_confirm_case": "SOMCHANDRA VHORA", "address": "4, DEEPVILLA, ZYDUS HOSPITAL ROAD, THALTEJ", "zone": "NWZ", "ward": "THALTEJ", "uhc": "THALTEJ", "age": 92, "sex": "M", "travel_history": "NO", "transmission_it_dt_un_cx": "", "status": "STABLE", "hospital": "SVP", "total_quarantine_contacts": null, "quarantine_completed": null, "remarks": null, "x": 72.50008333, "y": 23.05375}}, {"type": "Feature", "id": 117, "geometry": {"type": "Point", "coordinates": [72.58247222162669, 23.01338888913377]}, "properties": {"objectid": 117, "sr__no_": 130, "date_of_admission": "09.04.2020", "name_of_confirm_case": "RABIYA QURESHI ", "address": "243,SODAGARI POD, NR. RIYAZ HOTEL, JAMALPUR", "zone": "CZ", "ward": "JAMALPUR", "uhc": "JAMALPUR", "age": 47, "sex": "F", "travel_history": "NO", "transmission_it_dt_un_cx": "", "status": "STABLE", "hospital": "SVP", "total_quarantine_contacts": null, "quarantine_completed": null, "remarks": null, "x": 72.58247222, "y": 23.01338889}}, {"type": "Feature", "id": 118, "geometry": {"type": "Point", "coordinates": [72.60352777833808, 22.9957499999028]}, "properties": {"objectid": 118, "sr__no_": 131, "date_of_admission": "09.04.2020", "name_of_confirm_case": "MOH. RAFIK AMIN", "address": "1965,BECHARBVRANI NI KHIDKI, NR. SUNARIYA POD,JAMALPUR.", "zone": "CZ", "ward": "JAMALPUR", "uhc": "JAMALPUR", "age": 61, "sex": "M", "travel_history": "NO", "transmission_it_dt_un_cx": "", "status": "STABLE", "hospital": "SVP", "total_quarantine_contacts": null, "quarantine_completed": null, "remarks": null, "x": 72.60352778, "y": 22.99575}}, {"type": "Feature", "id": 119, "geometry": {"type": "Point", "coordinates": [72.60352777833808, 22.9957499999028]}, "properties": {"objectid": 119, "sr__no_": 132, "date_of_admission": "09.04.2020", "name_of_confirm_case": "MAHESHBHAI JOSHI", "address": "6/2NDFLOOR,GIRIVA  APPARTMENT ,ISHWERNAGAR, MANINAGAR", "zone": "SZ", "ward": "MANINAGAR", "uhc": "MANINAGAR", "age": 47, "sex": "M", "travel_history": "NO", "transmission_it_dt_un_cx": "", "status": "STABLE", "hospital": "SVP", "total_quarantine_contacts": null, "quarantine_completed": null, "remarks": null, "x": 72.60352778, "y": 22.99575}}, {"type": "Feature", "id": 120, "geometry": {"type": "Point", "coordinates": [72.57966666720213, 23.004611110754176]}, "properties": {"objectid": 120, "sr__no_": 133, "date_of_admission": "09.04.2020", "name_of_confirm_case": "RAJESH MOHANBHAI MAEWADI", "address": "40, VALJIBHAI NI CHALI BAHERAMPURA", "zone": "SZ", "ward": "BAHERAMPURA", "uhc": "BAHERAMPURA", "age": 25, "sex": "M", "travel_history": "NO", "transmission_it_dt_un_cx": "", "status": "STABLE", "hospital": "SVP", "total_quarantine_contacts": null, "quarantine_completed": null, "remarks": null, "x": 72.57966667, "y": 23.00461111}}, {"type": "Feature", "id": 121, "geometry": {"type": "Point", "coordinates": [72.57966666720213, 23.004611110754176]}, "properties": {"objectid": 121, "sr__no_": 134, "date_of_admission": "09.04.2020", "name_of_confirm_case": "SEHRUMISSHA ASHAM SHEKH", "address": "542,PIRANA ROAD,BAHERAMPURA AHMEDABAD", "zone": "SZ", "ward": "BAHERAMPURA", "uhc": "BAHERAMPURA", "age": 37, "sex": "F", "travel_history": "NO", "transmission_it_dt_un_cx": "", "status": "STABLE", "hospital": "SVP", "total_quarantine_contacts": null, "quarantine_completed": null, "remarks": null, "x": 72.57966667, "y": 23.00461111}}, {"type": "Feature", "id": 122, "geometry": {"type": "Point", "coordinates": [72.57888888891799, 23.006027778310962]}, "properties": {"objectid": 122, "sr__no_": 135, "date_of_admission": "09.04.2020", "name_of_confirm_case": "ALTAF ZOHAR MOHAMAD HABIB PUTHAWALA", "address": "2682,NR BAVAHIR SCHOOL SODAGAR NI POL KALUPUR", "zone": "CZ", "ward": "KHADIA", "uhc": "KALUPUR", "age": 40, "sex": "M", "travel_history": "NO", "transmission_it_dt_un_cx": "", "status": "STABLE", "hospital": "SVP", "total_quarantine_contacts": null, "quarantine_completed": null, "remarks": null, "x": 72.57888889, "y": 23.00602778}}, {"type": "Feature", "id": 123, "geometry": {"type": "Point", "coordinates": [72.62936111056128, 23.08583333334287]}, "properties": {"objectid": 123, "sr__no_": 136, "date_of_admission": "09.04.2020", "name_of_confirm_case": "SHUBH AGRAWAL", "address": "538,CAMP SARDAR BAJAR ,SARDAR NAGAR", "zone": "NZ", "ward": "SARDARNAGAR", "uhc": "SARDARNAGAR", "age": 12, "sex": "M", "travel_history": "NO", "transmission_it_dt_un_cx": "", "status": "STABLE", "hospital": "SVP", "total_quarantine_contacts": null, "quarantine_completed": null, "remarks": null, "x": 72.62936111, "y": 23.08583333}}, {"type": "Feature", "id": 124, "geometry": {"type": "Point", "coordinates": [72.59791666668009, 23.003499999965392]}, "properties": {"objectid": 124, "sr__no_": 137, "date_of_admission": "09.04.2020", "name_of_confirm_case": "MRS VIDHYABEN LODHA", "address": "13, SNEHSARITA PUSHPKUNJ, MANINAGAR , AHMEDABAD, GUJARAT, INDIA, 380008", "zone": "SZ", "ward": "MANINAGAR", "uhc": "MANINAGAR", "age": 49, "sex": "F", "travel_history": "NO", "transmission_it_dt_un_cx": "", "status": "STABLE", "hospital": "SVP", "total_quarantine_contacts": null, "quarantine_completed": null, "remarks": null, "x": 72.59791667, "y": 23.0035}}, {"type": "Feature", "id": 125, "geometry": {"type": "Point", "coordinates": [72.61297222167914, 22.977805555626933]}, "properties": {"objectid": 125, "sr__no_": 138, "date_of_admission": "09.04.2020", "name_of_confirm_case": "MR NARENDRA GOVINDBHAI PATEL", "address": "55, VAIBHAVPARK SOCIETY, BESIDE SHIV TENAMENT, GHODASAR, GHODASAR , AHMEDABAD, GUJARAT, INDIA, 380050", "zone": "SZ", "ward": "ISANPUR", "uhc": "GHODASAR", "age": 53, "sex": "M", "travel_history": "NO", "transmission_it_dt_un_cx": "", "status": "STABLE", "hospital": "SVP", "total_quarantine_contacts": null, "quarantine_completed": null, "remarks": null, "x": 72.61297222, "y": 22.97780556}}, {"type": "Feature", "id": 126, "geometry": {"type": "Point", "coordinates": [72.57994444413283, 23.005750000187522]}, "properties": {"objectid": 126, "sr__no_": 139, "date_of_admission": "09.04.2020", "name_of_confirm_case": "MRS FATIMABIBI GULAMNABI SHAIKH", "address": "69/A/125 JETHALAL NI CHALI AMARDEEP RADIO SERVICE BEHIND BEHRAMPURA, BEHRAMPURA , AHMEDABAD, GUJARAT, INDIA, 380022", "zone": "SZ", "ward": "BAHERAMPURA", "uhc": "BAHERAMPURA", "age": 52, "sex": "F", "travel_history": "NO", "transmission_it_dt_un_cx": "", "status": "STABLE", "hospital": "SVP", "total_quarantine_contacts": null, "quarantine_completed": null, "remarks": null, "x": 72.57994444, "y": 23.00575}}, {"type": "Feature", "id": 127, "geometry": {"type": "Point", "coordinates": [72.59016666717832, 23.035499999989394]}, "properties": {"objectid": 127, "sr__no_": 140, "date_of_admission": "09.04.2020", "name_of_confirm_case": "IKBALBHAI ISMAILBHAI AJMERI", "address": "301-AJMERI REC. SAIIAN JAMADAR NO MAHOLLO ,DELHI CHAKLA,AHMEDABAD.GUJARAT", "zone": "CZ", "ward": "DARIYAPUR", "uhc": "DARIYAPUR", "age": 57, "sex": "M", "travel_history": "NO", "transmission_it_dt_un_cx": "", "status": "STABLE", "hospital": "SVP", "total_quarantine_contacts": null, "quarantine_completed": null, "remarks": null, "x": 72.59016667, "y": 23.0355}}, {"type": "Feature", "id": 128, "geometry": {"type": "Point", "coordinates": [72.63063888877157, 23.034944443755215]}, "properties": {"objectid": 128, "sr__no_": 141, "date_of_admission": "09.04.2020", "name_of_confirm_case": "JAIDH JUBERBHAI PATHAN ", "address": "70/248 G.H.B,BAPUNAGAR  AHMDABAD", "zone": "NZ", "ward": "RAKHIYAL-SARASPUR", "uhc": "RAKHIYAL", "age": 23, "sex": "M", "travel_history": "NO", "transmission_it_dt_un_cx": "", "status": "STABLE", "hospital": "CHA", "total_quarantine_contacts": null, "quarantine_completed": null, "remarks": null, "x": 72.63063889, "y": 23.03494444}}, {"type": "Feature", "id": 129, "geometry": {"type": "Point", "coordinates": [72.63063888877157, 23.034944443755215]}, "properties": {"objectid": 129, "sr__no_": 142, "date_of_admission": "09.04.2020", "name_of_confirm_case": "ANMAR JAHIDBHAI PATHAN ", "address": "70/248 G.H.B,BAPUNAGAR  AHMDABAD", "zone": "NZ", "ward": "RAKHIYAL-SARASPUR", "uhc": "RAKHIYAL", "age": 12, "sex": "M", "travel_history": "NO", "transmission_it_dt_un_cx": "", "status": "STABLE", "hospital": "CHA", "total_quarantine_contacts": null, "quarantine_completed": null, "remarks": null, "x": 72.63063889, "y": 23.03494444}}, {"type": "Feature", "id": 130, "geometry": {"type": "Point", "coordinates": [72.56505555639944, 23.06030555591578]}, "properties": {"objectid": 130, "sr__no_": 143, "date_of_admission": "09.04.2020", "name_of_confirm_case": "ANIL  KAPURE", "address": "A/2-KESHAV APP, OPP AANANDDDHAM SOC, BEHIND GAYATRI HOSPITAL, KIRAN PARK , NAVA VADAJ, NAVA VADAJ , AHMEDABAD, GUJARAT, INDIA, 380013", "zone": "WZ", "ward": "NAVA VADAJ", "uhc": "NAVA VADAJ", "age": 52, "sex": "M", "travel_history": "NO", "transmission_it_dt_un_cx": "", "status": "STABLE", "hospital": "SVP", "total_quarantine_contacts": null, "quarantine_completed": null, "remarks": null, "x": 72.56505556, "y": 23.06030556}}, {"type": "Feature", "id": 131, "geometry": {"type": "Point", "coordinates": [72.58752777791045, 23.051361111034016]}, "properties": {"objectid": 131, "sr__no_": 144, "date_of_admission": "09.04.2020", "name_of_confirm_case": "BHAGVATIBEN BHARATBHAI PARMAR", "address": "BHILVAS  MAHAKALI MANDIR ,DUDHESHAWAR", "zone": "CZ", "ward": "SHAHPUR", "uhc": "DUDHESHAWAR", "age": 21, "sex": "F", "travel_history": "NO", "transmission_it_dt_un_cx": "", "status": "STABLE", "hospital": "SVP", "total_quarantine_contacts": null, "quarantine_completed": null, "remarks": null, "x": 72.58752778, "y": 23.05136111}}, {"type": "Feature", "id": 132, "geometry": {"type": "Point", "coordinates": [72.58811111096831, 23.022444444154228]}, "properties": {"objectid": 132, "sr__no_": 145, "date_of_admission": "09.04.2020", "name_of_confirm_case": "MR DHAVAL PANCHAL", "address": "1008-CHALABHAI NI POLE,MANDAVI NI POLE,MANEKCHOWK, AHMEDABAD G.P.O. , AHMEDABAD, GUJARAT, INDIA, 380001", "zone": "CZ", "ward": "KHADIA", "uhc": "KHADIA", "age": 34, "sex": "M", "travel_history": "NO", "transmission_it_dt_un_cx": "", "status": "STABLE", "hospital": "SVP", "total_quarantine_contacts": null, "quarantine_completed": null, "remarks": null, "x": 72.58811111, "y": 23.02244444}}, {"type": "Feature", "id": 133, "geometry": {"type": "Point", "coordinates": [72.52930555596716, 22.996694444277683]}, "properties": {"objectid": 133, "sr__no_": 146, "date_of_admission": "09.04.2020", "name_of_confirm_case": "GULAM  MUSTUFA SHEIKH", "address": " E/277 SANKLIT NAGAR", "zone": "SWZ", "ward": "MAKTAMPURA", "uhc": "SANKLIT NAGAR", "age": 45, "sex": "M", "travel_history": "NO", "transmission_it_dt_un_cx": "", "status": "STABLE", "hospital": "SVP", "total_quarantine_contacts": null, "quarantine_completed": null, "remarks": null, "x": 72.52930556, "y": 22.99669444}}, {"type": "Feature", "id": 134, "geometry": {"type": "Point", "coordinates": [72.60430555606979, 23.028333332873693]}, "properties": {"objectid": 134, "sr__no_": 147, "date_of_admission": "09.04.2020", "name_of_confirm_case": "MUSTAK AHEMAD", "address": "MAILEK SHAH MASJID KALUPUR ", "zone": "CZ", "ward": "DARIYAPUR", "uhc": "DARIYAPUR", "age": 60, "sex": "M", "travel_history": "NO", "transmission_it_dt_un_cx": "", "status": "STABLE", "hospital": "SVP", "total_quarantine_contacts": null, "quarantine_completed": null, "remarks": null, "x": 72.60430556, "y": 23.02833333}}, {"type": "Feature", "id": 135, "geometry": {"type": "Point", "coordinates": [72.60430555606979, 23.028333332873693]}, "properties": {"objectid": 135, "sr__no_": 148, "date_of_admission": "09.04.2020", "name_of_confirm_case": "MUSTAK AHEMAD", "address": "MAILEK SHAH MASJID KALUPUR ", "zone": "CZ", "ward": "DARIYAPUR", "uhc": "DARIYAPUR", "age": 60, "sex": "M", "travel_history": "NO", "transmission_it_dt_un_cx": "", "status": "STABLE", "hospital": "SVP", "total_quarantine_contacts": null, "quarantine_completed": null, "remarks": null, "x": 72.60430556, "y": 23.02833333}}]}