{"type": "FeatureCollection", "features": [{"type": "Feature", "id": 1, "geometry": {"type": "Polygon", "coordinates": [[[72.58111698231988, 23.035547539768096], [72.58104444686539, 23.035562680980448], [72.58098638952112, 23.035186699145196], [72.58095905130044, 23.034979651154135], [72.58102494342819, 23.034777309286067], [72.58139449153, 23.034786037330164], [72.58167153517662, 23.034807591052992], [72.58166420965705, 23.035339186821734], [72.58157475281784, 23.035547852730726], [72.58116247147808, 23.03545022462783], [72.58111698231988, 23.035547539768096]]]}, "properties": {"objectid": 1, "srno": 8, "area_cluster_name": "201 CRYSTAL FLAT", "uhc": "SHAHPUR", "ward": "JAMALPUR", "zone": "CZ", "indexcase_name": "ISHAK MANSHURI", "no_of_houses": 659, "total_population": 2816, "no_of_house_survey_on_date": 659, "symtomatic": 1, "no_of_cases_refered_to_hospital": 0, "total_positive_found": 0, "total_cumulative_positive_found": 0, "st_area(shape)": 5428.756954085, "st_length(shape)": 301.7781565036815}}, {"type": "Feature", "id": 2, "geometry": {"type": "Polygon", "coordinates": [[[72.59421075239837, 23.027589785616243], [72.59443499902811, 23.027882089725132], [72.59448840624077, 23.028314495755517], [72.59451289316337, 23.028365158765162], [72.59427158624297, 23.028557396301558], [72.59393853107933, 23.02869928678678], [72.59361380193977, 23.02876996604698], [72.5933374009013, 23.028593463628248], [72.59322883055977, 23.028356633274228], [72.59322923524864, 23.0281990547394], [72.59322794855989, 23.02793034473711], [72.59325235392552, 23.027751986406223], [72.59344867576779, 23.027572994979405], [72.59383181510252, 23.027413265449653], [72.59421075239837, 23.027589785616243]]]}, "properties": {"objectid": 2, "srno": 6, "area_cluster_name": "2008/MATAVADI POLE", "uhc": "DARIYAPUR", "ward": "KHADIA", "zone": "CZ", "indexcase_name": "MAKSUD AHMED GANDHI", "no_of_houses": 180, "total_population": 720, "no_of_house_survey_on_date": 180, "symtomatic": 0, "no_of_cases_refered_to_hospital": 0, "total_positive_found": 0, "total_cumulative_positive_found": 0, "st_area(shape)": 14744.340375165, "st_length(shape)": 443.44404857189784}}, {"type": "Feature", "id": 3, "geometry": {"type": "Polygon", "coordinates": [[[72.62813506493183, 23.02439961606941], [72.62811501986, 23.024410655573618], [72.62798639580087, 23.02441500935377], [72.62799681560959, 23.02421118221328], [72.62812655787182, 23.02419486771565], [72.62813506493183, 23.02439961606941]]]}, "properties": {"objectid": 3, "srno": 3, "area_cluster_name": "G.H.B. BLOCK/70 HOUSE 248,NEXT TO MOMIN MASJID, OPP. URDU SCHOOL, BAPUNAGAR", "uhc": "RAKHIAL", "ward": "SARASPUR-RAKHIAL", "zone": "NZ", "indexcase_name": "ZUBER ISMAIL PATHAN", "no_of_houses": 466, "total_population": 2324, "no_of_house_survey_on_date": 600, "symtomatic": 0, "no_of_cases_refered_to_hospital": 0, "total_positive_found": 0, "total_cumulative_positive_found": 0, "st_area(shape)": 330.431453935, "st_length(shape)": 74.31947966510621}}, {"type": "Feature", "id": 4, "geometry": {"type": "Polygon", "coordinates": [[[72.59272752015966, 22.995709813221517], [72.5924529457498, 22.995689518905124], [72.59248430855772, 22.994313237578325], [72.59277907456719, 22.994283388148265], [72.59272752015966, 22.995709813221517]]]}, "properties": {"objectid": 4, "srno": 2, "area_cluster_name": "ALFALAH A,B,C,D; AMAN SOCIETY, CHISTIYA COLONY, RASULABAD ROAD NO PATTO", "uhc": "DANILIMDA", "ward": "DANILIMDA", "zone": "SZ", "indexcase_name": "SHAHID AHMED ABDUL RAHIM SIIYED", "no_of_houses": 530, "total_population": 2600, "no_of_house_survey_on_date": 530, "symtomatic": 0, "no_of_cases_refered_to_hospital": 0, "total_positive_found": 0, "total_cumulative_positive_found": 0, "st_area(shape)": 4530.38765296, "st_length(shape)": 369.2773523841968}}, {"type": "Feature", "id": 5, "geometry": {"type": "Polygon", "coordinates": [[[72.55347196577495, 23.01757458700402], [72.55310835611569, 23.017555785942026], [72.55312549962873, 23.01722464709979], [72.55323314984626, 23.01722816358573], [72.5532636201407, 23.016836888934005], [72.55330921459077, 23.016623727593547], [72.55347849351504, 23.0166550723256], [72.55348041646369, 23.01687956612613], [72.55347196577495, 23.01757458700402]]]}, "properties": {"objectid": 5, "srno": 4, "area_cluster_name": "D//125 NEELAM  APPT. NNEAR MUNICIPAL SCHOOL, HIRABAG, AMBAVADI, AHMEDABAD", "uhc": "AMBAVADI", "ward": "PALDI", "zone": "WZ", "indexcase_name": "MR. NITIN KANTILAL SHAH AND JAINAM SHAH", "no_of_houses": 165, "total_population": 743, "no_of_house_survey_on_date": 165, "symtomatic": 3, "no_of_cases_refered_to_hospital": 0, "total_positive_found": 0, "total_cumulative_positive_found": 0, "st_area(shape)": 2830.668674135, "st_length(shape)": 272.23154869183355}}]}