{
"type": "FeatureCollection",
"name": "recommended_sites",
"crs": { "type": "name", "properties": { "name": "urn:ogc:def:crs:OGC:1.3:CRS84" } },
"features": [
{ "type": "Feature", "properties": { "parcel_id": "GJ-AHD-00387", "ward": "46 LAMBHA", "latitude": 22.9564487, "longitude": 72.521781, "suitability_score": 80.36377282367279, "population_benefiting": 165902, "newly_covered_population": 165902, "distance_improvement_km": 0.07, "coverage_improvement_percent": 2.35, "suitability_norm": 0.58695835367221938, "population_benefit_norm": 0.35115250291036088, "coverage_norm": 1.0, "distance_norm": 0.63636363636363646, "decision_score": 72.92, "decision_rank": 1, "recommendation": "RECOMMENDED" }, "geometry": { "type": "Point", "coordinates": [ 72.521781, 22.9564487 ] } },
{ "type": "Feature", "properties": { "parcel_id": "GJ-AHD-00434", "ward": "46 LAMBHA", "latitude": 22.9664487, "longitude": 72.526781, "suitability_score": 79.369842549089825, "population_benefiting": 165902, "newly_covered_population": 165902, "distance_improvement_km": 0.04, "coverage_improvement_percent": 2.35, "suitability_norm": 0.48006504337725253, "population_benefit_norm": 0.35115250291036088, "coverage_norm": 1.0, "distance_norm": 0.36363636363636365, "decision_score": 63.96, "decision_rank": 2, "recommendation": "Alternative" }, "geometry": { "type": "Point", "coordinates": [ 72.526781, 22.9664487 ] } },
{ "type": "Feature", "properties": { "parcel_id": "GJ-AHD-00523", "ward": "46 LAMBHA", "latitude": 22.9614487, "longitude": 72.536781, "suitability_score": 75.140458416736294, "population_benefiting": 165902, "newly_covered_population": 165902, "distance_improvement_km": 0.03, "coverage_improvement_percent": 2.35, "suitability_norm": 0.025211335851375145, "population_benefit_norm": 0.35115250291036088, "coverage_norm": 1.0, "distance_norm": 0.27272727272727271, "decision_score": 52.59, "decision_rank": 3, "recommendation": "Alternative" }, "geometry": { "type": "Point", "coordinates": [ 72.536781, 22.9614487 ] } },
{ "type": "Feature", "properties": { "parcel_id": "GJ-AHD-00741", "ward": "46 LAMBHA", "latitude": 22.9464487, "longitude": 72.561781, "suitability_score": 75.305847527106849, "population_benefiting": 472450, "newly_covered_population": 0, "distance_improvement_km": 0.11, "coverage_improvement_percent": 0.0, "suitability_norm": 0.042998287256659586, "population_benefit_norm": 1.0, "coverage_norm": 0.0, "distance_norm": 1.0, "decision_score": 40.86, "decision_rank": 4, "recommendation": "Alternative" }, "geometry": { "type": "Point", "coordinates": [ 72.561780999999897, 22.9464487 ] } },
{ "type": "Feature", "properties": { "parcel_id": "GJ-AHD-01411", "ward": "48 RAMOL HATHIJAN", "latitude": 22.9664487, "longitude": 72.646781, "suitability_score": 76.684878791645204, "population_benefiting": 383505, "newly_covered_population": 0, "distance_improvement_km": 0.08, "coverage_improvement_percent": 0.0, "suitability_norm": 0.19130770154490942, "population_benefit_norm": 0.81173669171340879, "coverage_norm": 0.0, "distance_norm": 0.72727272727272729, "decision_score": 34.18, "decision_rank": 5, "recommendation": "Alternative" }, "geometry": { "type": "Point", "coordinates": [ 72.64678099999982, 22.9664487 ] } },
{ "type": "Feature", "properties": { "parcel_id": "GJ-AHD-01445", "ward": "48 RAMOL HATHIJAN", "latitude": 22.9464487, "longitude": 72.651781, "suitability_score": 77.16778309288982, "population_benefiting": 383505, "newly_covered_population": 0, "distance_improvement_km": 0.07, "coverage_improvement_percent": 0.0, "suitability_norm": 0.24324216881664373, "population_benefit_norm": 0.81173669171340879, "coverage_norm": 0.0, "distance_norm": 0.63636363636363646, "decision_score": 32.95, "decision_rank": 6, "recommendation": "Alternative" }, "geometry": { "type": "Point", "coordinates": [ 72.651780999999815, 22.946448699999983 ] } },
{ "type": "Feature", "properties": { "parcel_id": "GJ-AHD-01481", "ward": "48 RAMOL HATHIJAN", "latitude": 22.9364487, "longitude": 72.656781, "suitability_score": 84.204374221607992, "population_benefiting": 383505, "newly_covered_population": 0, "distance_improvement_km": 0.0, "coverage_improvement_percent": 0.0, "suitability_norm": 1.0, "population_benefit_norm": 0.81173669171340879, "coverage_norm": 0.0, "distance_norm": 0.0, "decision_score": 32.18, "decision_rank": 7, "recommendation": "Alternative" }, "geometry": { "type": "Point", "coordinates": [ 72.656780999999825, 22.9364487 ] } },
{ "type": "Feature", "properties": { "parcel_id": "GJ-AHD-00603", "ward": "46 LAMBHA", "latitude": 22.9314487, "longitude": 72.546781, "suitability_score": 79.319844876886037, "population_benefiting": 0, "newly_covered_population": 0, "distance_improvement_km": 0.0, "coverage_improvement_percent": 0.0, "suitability_norm": 0.47468798944744051, "population_benefit_norm": 0.0, "coverage_norm": 0.0, "distance_norm": 0.0, "decision_score": 9.49, "decision_rank": 8, "recommendation": "Alternative" }, "geometry": { "type": "Point", "coordinates": [ 72.546781, 22.9314487 ] } },
{ "type": "Feature", "properties": { "parcel_id": "GJ-AHD-00568", "ward": "46 LAMBHA", "latitude": 22.9714487, "longitude": 72.541781, "suitability_score": 74.906034860236701, "population_benefiting": 165902, "newly_covered_population": 0, "distance_improvement_km": 0.0, "coverage_improvement_percent": 0.0, "suitability_norm": 0.0, "population_benefit_norm": 0.35115250291036088, "coverage_norm": 0.0, "distance_norm": 0.0, "decision_score": 5.27, "decision_rank": 9, "recommendation": "Alternative" }, "geometry": { "type": "Point", "coordinates": [ 72.541781, 22.971448699999986 ] } },
{ "type": "Feature", "properties": { "parcel_id": "GJ-AHD-01490", "ward": "48 RAMOL HATHIJAN", "latitude": 22.9814487, "longitude": 72.656781, "suitability_score": 75.251664808594725, "population_benefiting": 0, "newly_covered_population": 0, "distance_improvement_km": 0.0, "coverage_improvement_percent": 0.0, "suitability_norm": 0.037171147978734498, "population_benefit_norm": 0.0, "coverage_norm": 0.0, "distance_norm": 0.0, "decision_score": 0.74, "decision_rank": 10, "recommendation": "Alternative" }, "geometry": { "type": "Point", "coordinates": [ 72.65678099999981, 22.981448699999984 ] } }
]
}
